[{"sector":"catholic","school_name":"Corpus Christi Catholic School","suburb":"Bellerive","postcode":"7018","phone":"","public_email":"office.ccs@catholic.tas.edu.au","contact_form_url":"mailto:office.ccs@catholic.tas.edu.au?subject=General%20Enquiry","website_url":"http://www.corpuschristi.tas.edu.au","lat":-42.871256,"lon":147.371473},{"sector":"independent","school_name":"Fahan School","suburb":"Sandy Bay","postcode":"7005","phone":"","public_email":"","contact_form_url":"http://www.fahan.tas.edu.au/contact","website_url":"http://www.fahan.tas.edu.au","lat":-42.91615827,"lon":147.35276438},{"sector":"independent","school_name":"Geneva Christian College","suburb":"Latrobe","postcode":"7307","phone":"","public_email":"office@geneva.tas.edu.au","contact_form_url":"https://www.geneva.tas.edu.au/","website_url":"http://www.geneva.tas.edu.au","lat":-41.226741,"lon":146.438726},{"sector":"catholic","school_name":"Holy Rosary Catholic School","suburb":"Claremont","postcode":"7011","phone":"","public_email":"","contact_form_url":"http://www.holyrosary.tas.edu.au/site-search","website_url":"http://www.holyrosary.tas.edu.au","lat":-42.789375,"lon":147.248306},{"sector":"catholic","school_name":"Immaculate Heart of Mary Catholic School","suburb":"Lenah Valley","postcode":"7008","phone":"","public_email":"","contact_form_url":"","website_url":"http://www.ihms.tas.edu.au","lat":-42.865543,"lon":147.290159},{"sector":"independent","school_name":"John Calvin School","suburb":"Launceston","postcode":"7250","phone":"","public_email":"admin@jcs.tas.edu.au","contact_form_url":"http://www.jcs.tas.edu.au/contact","website_url":"http://www.jcs.tas.edu.au","lat":-41.447919,"lon":147.144799},{"sector":"catholic","school_name":"Larmenier Catholic School","suburb":"St Leonards","postcode":"7250","phone":"","public_email":"larmenier@catholic.tas.edu.au","contact_form_url":"https://www.larmenier.tas.edu.au/site-search","website_url":"https://www.larmenier.tas.edu.au/","lat":-41.460784,"lon":147.194752},{"sector":"independent","school_name":"Launceston Church Grammar School","suburb":"Mowbray","postcode":"7248","phone":"","public_email":"junior@lcgs.tas.edu.au","contact_form_url":"https://www.lcgs.tas.edu.au/search-results","website_url":"http://www.lcgs.tas.edu.au","lat":-41.408156,"lon":147.128813},{"sector":"catholic","school_name":"St James Catholic College","suburb":"Cygnet","postcode":"7112","phone":"","public_email":"","contact_form_url":"","website_url":"http://www.sjcc.tas.edu.au","lat":-43.161812,"lon":147.075798},{"sector":"catholic","school_name":"Our Lady of Lourdes Catholic School","suburb":"Devonport","postcode":"7310","phone":"","public_email":"","contact_form_url":"http://www.ololshills.catholic.edu.au/contact-us","website_url":"http://www.ololshills.catholic.edu.au/","lat":-41.18021,"lon":146.355196},{"sector":"catholic","school_name":"Our Lady of Mercy Catholic School","suburb":"Deloraine","postcode":"7304","phone":"","public_email":"","contact_form_url":"http://www.olom.tas.edu.au/site-search","website_url":"http://www.olom.tas.edu.au","lat":-41.525172,"lon":146.64995},{"sector":"catholic","school_name":"Sacred Heart Catholic School","suburb":"Ulverstone","postcode":"7315","phone":"","public_email":"shu@catholic.tas.edu.au","contact_form_url":"http://www.shu.tas.edu.au/site-search","website_url":"http://www.shu.tas.edu.au","lat":-41.155798,"lon":146.186851},{"sector":"catholic","school_name":"Sacred Heart Catholic School","suburb":"Geeveston","postcode":"7116","phone":"","public_email":"shg@catholic.tas.edu.au","contact_form_url":"http://www.shg.tas.edu.au/site-search","website_url":"http://www.shg.tas.edu.au","lat":-43.165474,"lon":146.943967},{"sector":"catholic","school_name":"St Anthony's Catholic School","suburb":"Riverside","postcode":"7250","phone":"","public_email":"","contact_form_url":"","website_url":"http://www.stanthonys.tas.edu.au","lat":-41.4062,"lon":147.095},{"sector":"catholic","school_name":"St Peter Chanel Catholic School","suburb":"Smithton","postcode":"7330","phone":"","public_email":"spc@catholic.tas.edu.au","contact_form_url":"http://stpeterchanel.tas.edu.au/site-search","website_url":"http://stpeterchanel.tas.edu.au","lat":-40.845638,"lon":145.131883},{"sector":"catholic","school_name":"St Brigid's Catholic School","suburb":"New Norfolk","postcode":"7140","phone":"","public_email":"","contact_form_url":"http://www.stbrigidsnn.tas.edu.au/site-search","website_url":"http://www.stbrigidsnn.tas.edu.au","lat":-42.78063,"lon":147.056171},{"sector":"catholic","school_name":"St Brigid's Catholic School","suburb":"Wynyard","postcode":"7325","phone":"","public_email":"","contact_form_url":"http://www.sbw.tas.edu.au/site-search","website_url":"http://www.sbw.tas.edu.au","lat":-40.988286,"lon":145.726855},{"sector":"catholic","school_name":"St Cuthbert's Catholic School","suburb":"Lindisfarne","postcode":"7015","phone":"","public_email":"stcuthberts@catholic.tas.edu.au","contact_form_url":"http://www.stcuthberts.tas.edu.au","website_url":"http://www.stcuthberts.tas.edu.au","lat":-42.843192,"lon":147.355348},{"sector":"catholic","school_name":"St John's Catholic School","suburb":"Richmond","postcode":"7025","phone":"","public_email":"stjohns@catholic.tas.edu.au","contact_form_url":"http://www.stjohns.tas.edu.au/site-search","website_url":"http://www.stjohns.tas.edu.au","lat":-42.733415,"lon":147.441563},{"sector":"catholic","school_name":"St Joseph's Catholic School","suburb":"Rosebery","postcode":"7470","phone":"","public_email":"","contact_form_url":"http://www.stjosephsr.tas.edu.au/site-search","website_url":"http://www.stjosephsr.tas.edu.au","lat":-41.780321,"lon":145.543953},{"sector":"catholic","school_name":"St Joseph's Catholic School","suburb":"Queenstown","postcode":"7467","phone":"","public_email":"stjosephsq@catholic.tas.edu.au","contact_form_url":"http://www.stjosephsq.tas.edu.au/site-search","website_url":"http://www.stjosephsq.tas.edu.au","lat":-42.081342,"lon":145.559515},{"sector":"catholic","school_name":"St Mary's College","suburb":"Hobart","postcode":"7000","phone":"","public_email":"","contact_form_url":"","website_url":"http://www.smc.tas.edu.au","lat":-42.881808,"lon":147.319687},{"sector":"catholic","school_name":"St Patrick's Catholic School","suburb":"Latrobe","postcode":"7307","phone":"","public_email":"","contact_form_url":"http://www.stpatslatrobe.tas.edu.au/site-search","website_url":"http://www.stpatslatrobe.tas.edu.au","lat":-41.235575,"lon":146.418418},{"sector":"catholic","school_name":"St Therese's Catholic School","suburb":"Moonah","postcode":"7009","phone":"","public_email":"sttherese@catholic.tas.edu.au","contact_form_url":"http://www.sttherese.tas.edu.au/site-search","website_url":"http://www.sttherese.tas.edu.au","lat":-42.846795,"lon":147.290228},{"sector":"independent","school_name":"Hilliard Christian School","suburb":"West Moonah","postcode":"7009","phone":"","public_email":"info@hilliard.tas.edu.au","contact_form_url":"https://hilliard.tas.edu.au/search","website_url":"https://hilliard.tas.edu.au/","lat":-42.853786,"lon":147.28761},{"sector":"catholic","school_name":"Star of the Sea Catholic College","suburb":"George Town","postcode":"7253","phone":"","public_email":"","contact_form_url":"","website_url":"http://www.starsea.tas.edu.au/","lat":-41.107781,"lon":146.829593},{"sector":"catholic","school_name":"Stella Maris Catholic School","suburb":"Burnie","postcode":"7320","phone":"","public_email":"stellamaris@catholic.tas.edu.au","contact_form_url":"http://stellamaris.tas.edu.au/site-search","website_url":"http://stellamaris.tas.edu.au","lat":-41.051103,"lon":145.887728},{"sector":"independent","school_name":"The Friends' School","suburb":"North Hobart","postcode":"7000","phone":"","public_email":"","contact_form_url":"","website_url":"http://www.friends.tas.edu.au","lat":-42.869285,"lon":147.313375},{"sector":"independent","school_name":"The Hutchins School","suburb":"Sandy Bay","postcode":"7005","phone":"","public_email":"info@hutchins.tas.edu.au","contact_form_url":"http://www.hutchins.tas.edu.au/search/","website_url":"http://www.hutchins.tas.edu.au","lat":-42.905952,"lon":147.330242},{"sector":"independent","school_name":"The Cottage School","suburb":"Bellerive","postcode":"7018","phone":"","public_email":"admin@cottageschool.tas.edu.au","contact_form_url":"https://cottageschool.tas.edu.au/contact/book-a-tour","website_url":"http://www.cottageschool.tas.edu.au","lat":-42.875405,"lon":147.367494},{"sector":"independent","school_name":"Launceston Christian School","suburb":"Riverside","postcode":"7250","phone":"","public_email":"","contact_form_url":"","website_url":"http://www.lcs.tas.edu.au","lat":-41.401842,"lon":147.090571},{"sector":"independent","school_name":"Leighland Christian School","suburb":"Ulverstone","postcode":"7315","phone":"","public_email":"","contact_form_url":"https://www.leighland.tas.edu.au","website_url":"http://www.leighland.tas.edu.au","lat":-41.153547,"lon":146.195067},{"sector":"independent","school_name":"North West Christian School","suburb":"Penguin","postcode":"7316","phone":"","public_email":"","contact_form_url":"https://northwestchristianschool.com.au/search","website_url":"https://northwestchristianschool.com.au/","lat":-41.123571,"lon":146.080384},{"sector":"independent","school_name":"St Michael's Collegiate School","suburb":"Hobart","postcode":"7000","phone":"","public_email":"collegiate@collegiate.tas.edu.au","contact_form_url":"https://collegiate.tas.edu.au/","website_url":"http://www.collegiate.tas.edu.au","lat":-42.888185,"lon":147.323435},{"sector":"independent","school_name":"Scotch Oakburn College","suburb":"Newstead","postcode":"7250","phone":"","public_email":"","contact_form_url":"","website_url":"http://www.soc.tas.edu.au","lat":-41.449213,"lon":147.168873},{"sector":"catholic","school_name":"John Paul II Catholic School","suburb":"Clarendon Vale","postcode":"7019","phone":"","public_email":"","contact_form_url":"","website_url":"http://www.johnpaul.tas.edu.au","lat":-42.8945,"lon":147.447},{"sector":"independent","school_name":"The Launceston Preparatory School","suburb":"Launceston","postcode":"7250","phone":"","public_email":"admin@lps.tas.edu.au","contact_form_url":"","website_url":"http://www.lps.tas.edu.au","lat":-41.4374,"lon":147.158},{"sector":"independent","school_name":"Eastside Lutheran College","suburb":"Warrane","postcode":"7018","phone":"","public_email":"admin@elc.tas.edu.au","contact_form_url":"http://www.elc.tas.edu.au/contact","website_url":"http://www.elc.tas.edu.au","lat":-42.851645,"lon":147.383845},{"sector":"catholic","school_name":"St Thomas More's Catholic School","suburb":"Newstead","postcode":"7250","phone":"","public_email":"","contact_form_url":"","website_url":"http://www.stm.tas.edu.au","lat":-41.44512,"lon":147.157534},{"sector":"catholic","school_name":"St Paul's Catholic School","suburb":"Bridgewater","postcode":"7030","phone":"","public_email":"","contact_form_url":"","website_url":"http://www.stpauls.tas.edu.au","lat":-42.737339,"lon":147.247605},{"sector":"independent","school_name":"Circular Head Christian School","suburb":"Smithton","postcode":"7330","phone":"","public_email":"admin@chcs.tas.edu.au","contact_form_url":"https://www.chcs.tas.edu.au/contact/","website_url":"http://www.chcs.tas.edu.au","lat":-40.8497,"lon":145.118},{"sector":"independent","school_name":"Southern Christian College","suburb":"Kingston","postcode":"7050","phone":"","public_email":"admin@scc.tas.edu.au","contact_form_url":"https://scc.tas.edu.au/contact","website_url":"http://www.scc.tas.edu.au","lat":-42.990905,"lon":147.307777},{"sector":"government","school_name":"Brooks High School","suburb":"Rocherlea","postcode":"7248","phone":"","public_email":"","contact_form_url":"","website_url":"https://brookshigh.education.tas.edu.au/","lat":-41.37813391,"lon":147.12135989},{"sector":"government","school_name":"Flinders Island District High School","suburb":"Whitemark","postcode":"7255","phone":"","public_email":"","contact_form_url":"","website_url":"https://flindersislanddistricthigh.education.tas.edu.au/","lat":-40.11254151,"lon":148.03486284},{"sector":"government","school_name":"Lilydale District School","suburb":"Lilydale","postcode":"7268","phone":"","public_email":"","contact_form_url":"","website_url":"https://lilydale.education.tas.edu.au/","lat":-41.25251745,"lon":147.21598294},{"sector":"government","school_name":"Ravenswood Heights Primary School","suburb":"Ravenswood","postcode":"7250","phone":"","public_email":"","contact_form_url":"","website_url":"https://ravenswoodheightsprimary.education.tas.edu.au/","lat":-41.41878768,"lon":147.17536832},{"sector":"government","school_name":"Scottsdale High School","suburb":"Scottsdale","postcode":"7260","phone":"","public_email":"","contact_form_url":"","website_url":"https://scottsdalehigh.education.tas.edu.au/","lat":-41.1546,"lon":147.51},{"sector":"government","school_name":"Parklands High School","suburb":"Romaine","postcode":"7320","phone":"","public_email":"","contact_form_url":"","website_url":"https://parklandshigh.education.tas.edu.au/","lat":-41.07905504,"lon":145.90176001},{"sector":"government","school_name":"Reece High School","suburb":"Devonport","postcode":"7310","phone":"","public_email":"","contact_form_url":"","website_url":"https://reecehigh.education.tas.edu.au/","lat":-41.189,"lon":146.352},{"sector":"government","school_name":"Ulverstone Secondary College","suburb":"Ulverstone","postcode":"7315","phone":"","public_email":"","contact_form_url":"","website_url":"https://ulverstonesc.education.tas.edu.au/","lat":-41.16325954,"lon":146.17082335},{"sector":"government","school_name":"Wynyard High School","suburb":"Wynyard","postcode":"7325","phone":"","public_email":"","contact_form_url":"","website_url":"https://wynyardhigh.education.tas.edu.au/","lat":-40.98627358,"lon":145.71764283},{"sector":"government","school_name":"Cosgrove High School","suburb":"Glenorchy","postcode":"7010","phone":"","public_email":"","contact_form_url":"","website_url":"https://cosgrovehigh.education.tas.edu.au/","lat":-42.83650615,"lon":147.28318696},{"sector":"government","school_name":"Dover District School","suburb":"Dover","postcode":"7117","phone":"","public_email":"","contact_form_url":"","website_url":"https://doverdistrict.education.tas.edu.au/","lat":-43.31008295,"lon":147.01303372},{"sector":"government","school_name":"Geeveston Primary School","suburb":"Geeveston","postcode":"7116","phone":"","public_email":"","contact_form_url":"","website_url":"https://geevestonprimary.education.tas.edu.au/","lat":-43.16224412,"lon":146.92212626},{"sector":"government","school_name":"Huonville High School","suburb":"Huonville","postcode":"7109","phone":"","public_email":"","contact_form_url":"","website_url":"https://huonvillehigh.education.tas.edu.au/","lat":-43.02374508,"lon":147.04694878},{"sector":"government","school_name":"Bayview Secondary College","suburb":"Rokeby","postcode":"7019","phone":"","public_email":"","contact_form_url":"https://bayviewsc.education.tas.edu.au/contact-us/","website_url":"https://bayviewsc.education.tas.edu.au","lat":-42.89719843,"lon":147.44500423},{"sector":"government","school_name":"Bothwell District High School","suburb":"Bothwell","postcode":"7030","phone":"","public_email":"","contact_form_url":"","website_url":"https://bothwelldistricthigh.education.tas.edu.au/","lat":-42.38402831,"lon":147.01571956},{"sector":"government","school_name":"Deloraine High School","suburb":"Deloraine","postcode":"7304","phone":"","public_email":"","contact_form_url":"","website_url":"https://delorainehigh.education.tas.edu.au/","lat":-41.52974888,"lon":146.66018027},{"sector":"government","school_name":"Glenora District School","suburb":"Glenora","postcode":"7140","phone":"","public_email":"","contact_form_url":"","website_url":"https://glenoradistrictschool.education.tas.edu.au/","lat":-42.69690112,"lon":146.88944893},{"sector":"government","school_name":"New Norfolk High School","suburb":"New Norfolk","postcode":"7140","phone":"","public_email":"","contact_form_url":"","website_url":"https://newnorfolkhigh.education.tas.edu.au/","lat":-42.78854201,"lon":147.06123199},{"sector":"government","school_name":"Oatlands District High School","suburb":"Oatlands","postcode":"7120","phone":"","public_email":"","contact_form_url":"","website_url":"https://oatlandsdistricthigh.education.tas.edu.au/","lat":-42.30055552,"lon":147.37080165},{"sector":"government","school_name":"Rosebery District School","suburb":"Rosebery","postcode":"7470","phone":"","public_email":"","contact_form_url":"","website_url":"https://roseberydistrict.education.tas.edu.au/","lat":-41.77912684,"lon":145.54247225},{"sector":"government","school_name":"St Helens District High School","suburb":"St Helens","postcode":"7216","phone":"","public_email":"","contact_form_url":"","website_url":"https://sthelensdistricthigh.education.tas.edu.au/","lat":-41.32453944,"lon":148.24629738},{"sector":"government","school_name":"St Marys District School","suburb":"St Marys","postcode":"7215","phone":"","public_email":"","contact_form_url":"","website_url":"https://stmarysdistrict.education.tas.edu.au/","lat":-41.58478994,"lon":148.18939889},{"sector":"government","school_name":"Triabunna District School","suburb":"Triabunna","postcode":"7190","phone":"","public_email":"","contact_form_url":"https://triabunna.education.tas.edu.au/contact/","website_url":"https://triabunna.education.tas.edu.au/","lat":-42.50742508,"lon":147.91106789},{"sector":"government","school_name":"Burnie High School","suburb":"Cooee","postcode":"7320","phone":"","public_email":"","contact_form_url":"","website_url":"https://burniehigh.education.tas.edu.au","lat":-41.0415376,"lon":145.86646528},{"sector":"government","school_name":"Campbell Town District High School","suburb":"Campbell Town","postcode":"7210","phone":"","public_email":"","contact_form_url":"","website_url":"https://campbelltowndistricthigh.education.tas.edu.au/","lat":-41.92446399,"lon":147.49096762},{"sector":"government","school_name":"Cressy District High School","suburb":"Cressy","postcode":"7302","phone":"","public_email":"","contact_form_url":"https://schoolsweb.decyp.tas.gov.au/cressydistricthigh/","website_url":"https://cressydistricthigh.education.tas.edu.au/","lat":-41.69093755,"lon":147.0771548},{"sector":"government","school_name":"Dunalley Primary School","suburb":"Dunalley","postcode":"7177","phone":"","public_email":"","contact_form_url":"","website_url":"https://www.dunalleyprimary.education.tas.edu.au","lat":-42.88518675,"lon":147.81215862},{"sector":"government","school_name":"Exeter High School","suburb":"Exeter","postcode":"7275","phone":"","public_email":"","contact_form_url":"","website_url":"https://exeterhigh.education.tas.edu.au/","lat":-41.30062736,"lon":146.95752176},{"sector":"government","school_name":"King Island District High School","suburb":"Currie","postcode":"7256","phone":"","public_email":"","contact_form_url":"https://www.kingislanddistricthigh.education.tas.edu.au/contact-us/","website_url":"https://kingislanddistricthigh.education.tas.edu.au/","lat":-39.92665469,"lon":143.8559413},{"sector":"government","school_name":"Kingston High School","suburb":"Kingston","postcode":"7050","phone":"","public_email":"","contact_form_url":"","website_url":"https://kingstonhigh.education.tas.edu.au/","lat":-42.97371542,"lon":147.30813147},{"sector":"government","school_name":"Kings Meadows High School","suburb":"Kings Meadows","postcode":"7249","phone":"","public_email":"","contact_form_url":"","website_url":"https://kingsmeadowshs.education.tas.edu.au","lat":-41.47386659,"lon":147.15956905},{"sector":"government","school_name":"Prospect High School","suburb":"Prospect","postcode":"7250","phone":"","public_email":"","contact_form_url":"","website_url":"https://prospecthigh.education.tas.edu.au/","lat":-41.47580035,"lon":147.13093189},{"sector":"government","school_name":"Riverside High School","suburb":"Riverside","postcode":"7250","phone":"","public_email":"","contact_form_url":"","website_url":"https://riversidehigh.education.tas.edu.au/","lat":-41.40905097,"lon":147.09955797},{"sector":"government","school_name":"Smithton High School","suburb":"Smithton","postcode":"7330","phone":"","public_email":"","contact_form_url":"","website_url":"https://SmithtonHigh.education.tas.edu.au/","lat":-40.83816677,"lon":145.11644883},{"sector":"government","school_name":"Sorell School","suburb":"Sorell","postcode":"7172","phone":"","public_email":"","contact_form_url":"https://sorell.education.tas.edu.au","website_url":"https://sorell.education.tas.edu.au/","lat":-42.78592321,"lon":147.56062331},{"sector":"government","school_name":"Taroona High School","suburb":"Taroona","postcode":"7053","phone":"","public_email":"","contact_form_url":"","website_url":"https://taroonahigh.education.tas.edu.au/","lat":-42.94341,"lon":147.3559},{"sector":"government","school_name":"Tasman District School","suburb":"Nubeena","postcode":"7184","phone":"","public_email":"","contact_form_url":"","website_url":"https://tasman.education.tas.edu.au/","lat":-43.09833639,"lon":147.74706551},{"sector":"government","school_name":"Winnaleah District High School","suburb":"Winnaleah","postcode":"7265","phone":"","public_email":"","contact_form_url":"","website_url":"https://winnaleahdistricthigh.education.tas.edu.au/","lat":-41.096531,"lon":147.822868},{"sector":"government","school_name":"Woodbridge School","suburb":"Woodbridge","postcode":"7162","phone":"","public_email":"","contact_form_url":"https://www.woodbridge.education.tas.edu.au/contact-us/","website_url":"https://woodbridge.education.tas.edu.au/","lat":-43.164652,"lon":147.239683},{"sector":"government","school_name":"Yolla District School","suburb":"Yolla","postcode":"7325","phone":"","public_email":"","contact_form_url":"","website_url":"https://yolladistricthigh.education.tas.edu.au/","lat":-41.12266948,"lon":145.72009949},{"sector":"government","school_name":"North West Support School","suburb":"Acton","postcode":"7320","phone":"","public_email":"","contact_form_url":"https://northwestsupport.education.tas.edu.au/","website_url":"https://northwestsupport.education.tas.edu.au","lat":-41.072282,"lon":145.893098},{"sector":"government","school_name":"Invermay Primary School","suburb":"Invermay","postcode":"7248","phone":"","public_email":"janice.westlake@education.vic.gov.au","contact_form_url":"http://www.invermayps.vic.edu.au/contact-us.html","website_url":"http://www.invermayps.vic.edu.au/","lat":-41.42163515,"lon":147.13138403},{"sector":"government","school_name":"Mowbray Heights Primary School","suburb":"Mowbray","postcode":"7248","phone":"","public_email":"","contact_form_url":"","website_url":"https://mowbrayheightsprimary.education.tas.edu.au/","lat":-41.40275864,"lon":147.13341299},{"sector":"government","school_name":"Rose Bay High School","suburb":"Rose Bay","postcode":"7015","phone":"","public_email":"","contact_form_url":"https://rosebayhigh.education.tas.edu.au/","website_url":"https://rosebayhigh.education.tas.edu.au/","lat":-42.86154099,"lon":147.35891671},{"sector":"government","school_name":"Queechy High School","suburb":"Norwood","postcode":"7250","phone":"","public_email":"","contact_form_url":"","website_url":"https://queechyhigh.education.tas.edu.au/","lat":-41.45195332,"lon":147.17607496},{"sector":"government","school_name":"Devonport High School","suburb":"Devonport","postcode":"7310","phone":"","public_email":"","contact_form_url":"https://devonporths.schoolzineplus.com/site-search","website_url":"https://devonporths.schoolzineplus.com","lat":-41.17795098,"lon":146.34877035},{"sector":"catholic","school_name":"Sacred Heart Catholic School","suburb":"Launceston","postcode":"7250","phone":"","public_email":"","contact_form_url":"","website_url":"http://www.sacredheartl.tas.edu.au","lat":-41.445,"lon":147.133337},{"sector":"government","school_name":"Albuera Street Primary School","suburb":"Battery Point","postcode":"7004","phone":"","public_email":"","contact_form_url":"","website_url":"https://www.ella.edu.au/preschools/","lat":-42.89123278,"lon":147.32588298},{"sector":"government","school_name":"Campbell Street Primary School","suburb":"North Hobart","postcode":"7000","phone":"","public_email":"","contact_form_url":"","website_url":"https://www.campbellstreetprimary.education.tas.edu.au/","lat":-42.87254263,"lon":147.32268319},{"sector":"government","school_name":"Goulburn Street Primary School","suburb":"West Hobart","postcode":"7000","phone":"","public_email":"","contact_form_url":"","website_url":"https://goulburnstreetprimary.education.tas.edu.au/","lat":-42.88779991,"lon":147.31692503},{"sector":"government","school_name":"Lansdowne Crescent Primary School","suburb":"West Hobart","postcode":"7000","phone":"","public_email":"","contact_form_url":"https://www.lansdownecrescentprimary.org/apps/search","website_url":"https://www.lansdownecrescentprimary.org/","lat":-42.882125,"lon":147.30871},{"sector":"government","school_name":"Mount Stuart Primary School","suburb":"Mount Stuart","postcode":"7000","phone":"","public_email":"","contact_form_url":"","website_url":"https://mountstuartprimary.education.tas.edu.au/","lat":-42.87507847,"lon":147.29906955},{"sector":"government","school_name":"South Hobart Primary School","suburb":"South Hobart","postcode":"7004","phone":"","public_email":"","contact_form_url":"","website_url":"https://southhobartprimary.education.tas.edu.au/","lat":-42.891817,"lon":147.309568},{"sector":"government","school_name":"Princes Street Primary School","suburb":"Sandy Bay","postcode":"7005","phone":"","public_email":"","contact_form_url":"https://schoolsweb.decyp.tas.gov.au/princessstreetprimary/","website_url":"https://princesstreetprimary.education.tas.edu.au/","lat":-42.89924147,"lon":147.31840447},{"sector":"government","school_name":"Waimea Heights Primary School","suburb":"Sandy Bay","postcode":"7005","phone":"","public_email":"","contact_form_url":"","website_url":"https://waimeaheightsprimary.education.tas.edu.au/","lat":-42.90892028808594,"lon":147.3369140625},{"sector":"government","school_name":"Taroona Primary School","suburb":"Taroona","postcode":"7053","phone":"","public_email":"","contact_form_url":"","website_url":"https://www.taroonaprimary.education.tas.edu.au/","lat":-42.94315177,"lon":147.3527989},{"sector":"government","school_name":"Mount Nelson Primary School","suburb":"Mount Nelson","postcode":"7007","phone":"","public_email":"","contact_form_url":"https://mountnelsonprimary.education.tas.edu.au/site-search","website_url":"https://mountnelsonprimary.education.tas.edu.au/","lat":-42.91290931,"lon":147.32237076},{"sector":"government","school_name":"Lenah Valley Primary School","suburb":"Lenah Valley","postcode":"7008","phone":"","public_email":"","contact_form_url":"https://lenahvalleyprimary.education.tas.edu.au/contact-us/","website_url":"https://lenahvalleyprimary.education.tas.edu.au/","lat":-42.860997,"lon":147.289568},{"sector":"government","school_name":"New Town Primary School","suburb":"New Town","postcode":"7008","phone":"","public_email":"","contact_form_url":"","website_url":"https://newtownprimary.education.tas.edu.au/","lat":-42.85748163,"lon":147.30001235},{"sector":"government","school_name":"Bowen Road Primary School","suburb":"Moonah","postcode":"7009","phone":"","public_email":"","contact_form_url":"https://bowenroadprimary.education.tas.edu.au/contact-us/","website_url":"https://bowenroadprimary.education.tas.edu.au/","lat":-42.84736447,"lon":147.30763733},{"sector":"government","school_name":"Goodwood Primary School","suburb":"Derwent Park","postcode":"7009","phone":"","public_email":"","contact_form_url":"","website_url":"https://goodwoodprimary.education.tas.edu.au/","lat":-42.83224516,"lon":147.29255312},{"sector":"government","school_name":"Moonah Primary School","suburb":"Derwent Park","postcode":"7009","phone":"","public_email":"","contact_form_url":"","website_url":"https://moonahprimary.education.tas.edu.au/","lat":-42.83809219,"lon":147.29646337},{"sector":"government","school_name":"Springfield Gardens Primary School","suburb":"West Moonah","postcode":"7009","phone":"","public_email":"","contact_form_url":"","website_url":"https://springfieldgardensprimary.education.tas.edu.au/","lat":-42.84764764,"lon":147.27594789},{"sector":"government","school_name":"Rosetta Primary School","suburb":"Rosetta","postcode":"7010","phone":"","public_email":"","contact_form_url":"","website_url":"https://rosettaprimary.education.tas.edu.au/","lat":-42.82210911,"lon":147.25730077},{"sector":"government","school_name":"Collinsvale Primary School","suburb":"Collinsvale","postcode":"7012","phone":"","public_email":"","contact_form_url":"","website_url":"https://collinsvaleprimary.education.tas.edu.au/","lat":-42.83667338,"lon":147.19839968},{"sector":"government","school_name":"Lindisfarne North Primary School","suburb":"Geilston Bay","postcode":"7015","phone":"","public_email":"","contact_form_url":"","website_url":"https://lindisfarnenorthprimary.tas.edu.au/","lat":-42.838657,"lon":147.350274},{"sector":"government","school_name":"Lindisfarne Primary School","suburb":"Lindisfarne","postcode":"7015","phone":"","public_email":"","contact_form_url":"","website_url":"https://lindisfarneprimary.education.tas.edu.au/","lat":-42.85201252,"lon":147.36372444},{"sector":"government","school_name":"Risdon Vale Primary School","suburb":"Risdon Vale","postcode":"7016","phone":"","public_email":"","contact_form_url":"","website_url":"https://risdonvaleprimary.education.tas.edu.au/","lat":-42.81259813,"lon":147.35329662},{"sector":"government","school_name":"Bellerive Primary School","suburb":"Bellerive","postcode":"7018","phone":"","public_email":"","contact_form_url":"","website_url":"https://belleriveprimary.education.tas.edu.au/","lat":-42.87227607,"lon":147.37011063},{"sector":"government","school_name":"Clarence High School","suburb":"Bellerive","postcode":"7018","phone":"","public_email":"","contact_form_url":"","website_url":"https://clarencehigh.education.tas.edu.au/","lat":-42.877901,"lon":147.38924026},{"sector":"government","school_name":"Howrah Primary School","suburb":"Howrah","postcode":"7018","phone":"","public_email":"","contact_form_url":"","website_url":"https://howrahprimary.education.tas.edu.au/","lat":-42.88107919,"lon":147.40211048},{"sector":"government","school_name":"Montagu Bay Primary School","suburb":"Montagu Bay","postcode":"7018","phone":"","public_email":"","contact_form_url":"","website_url":"https://montagubayprimary.education.tas.edu.au/","lat":-42.86449013,"lon":147.35223353},{"sector":"government","school_name":"Warrane Primary School","suburb":"Warrane","postcode":"7018","phone":"","public_email":"","contact_form_url":"","website_url":"https://warraneprimary.education.tas.edu.au/","lat":-42.86122275,"lon":147.38262197},{"sector":"government","school_name":"Clarendon Vale Primary School","suburb":"Clarendon Vale","postcode":"7019","phone":"","public_email":"","contact_form_url":"","website_url":"https://clarendonvaleprimary.education.tas.edu.au/","lat":-42.88738509,"lon":147.44439485},{"sector":"government","school_name":"Rokeby Primary School","suburb":"Rokeby","postcode":"7019","phone":"","public_email":"","contact_form_url":"","website_url":"https://rokebyprimary.education.tas.edu.au/","lat":-42.89897973,"lon":147.43372383},{"sector":"government","school_name":"Lauderdale Primary School","suburb":"Lauderdale","postcode":"7021","phone":"","public_email":"","contact_form_url":"","website_url":"https://lauderdaleprimary.education.tas.edu.au/","lat":-42.905072,"lon":147.47854},{"sector":"government","school_name":"South Arm Primary School","suburb":"South Arm","postcode":"7022","phone":"","public_email":"","contact_form_url":"","website_url":"https://southarmprimary.education.tas.edu.au/","lat":-43.02586187,"lon":147.42019695},{"sector":"government","school_name":"Richmond Primary School","suburb":"Richmond","postcode":"7025","phone":"","public_email":"","contact_form_url":"","website_url":"https://richmondprimary.education.tas.edu.au/","lat":-42.73928054,"lon":147.43798461},{"sector":"government","school_name":"Campania District School","suburb":"Campania","postcode":"7026","phone":"","public_email":"","contact_form_url":"","website_url":"https://www.campaniadistrict.tas.edu.au/","lat":-42.66623963755808,"lon":147.42309355300003},{"sector":"government","school_name":"Glen Huon Primary School","suburb":"Glen Huon","postcode":"7109","phone":"","public_email":"glenhuon.ps@education.wa.edu.au","contact_form_url":"https://www.glenhuonps.wa.edu.au/contact-us/","website_url":"https://www.glenhuonps.wa.edu.au/","lat":-43.02813851,"lon":146.96237801},{"sector":"government","school_name":"Huonville Primary School","suburb":"Huonville","postcode":"7109","phone":"","public_email":"","contact_form_url":"","website_url":"https://huonvilleprimary.education.tas.edu.au/","lat":-43.02374508,"lon":147.04694878},{"sector":"government","school_name":"Cygnet Primary School","suburb":"Cygnet","postcode":"7112","phone":"","public_email":"","contact_form_url":"","website_url":"https://cygnetprimary.education.tas.edu.au/","lat":-43.15825931,"lon":147.07223964},{"sector":"government","school_name":"Franklin Primary School","suburb":"Franklin","postcode":"7113","phone":"","public_email":"","contact_form_url":"","website_url":"https://franklinprimary.education.tas.edu.au/","lat":-43.08553093,"lon":147.01185573},{"sector":"government","school_name":"Kingston Primary School","suburb":"Kingston","postcode":"7050","phone":"","public_email":"kingston.ps@education.wa.edu.au","contact_form_url":"https://www.kingstonprimary.wa.edu.au/site-search","website_url":"https://www.kingstonprimary.wa.edu.au/","lat":-42.97934878,"lon":147.30991854},{"sector":"government","school_name":"Blackmans Bay Primary School","suburb":"Blackmans Bay","postcode":"7052","phone":"","public_email":"","contact_form_url":"","website_url":"https://blackmansbayprimary.education.tas.edu.au/","lat":-42.99699352,"lon":147.32126417},{"sector":"government","school_name":"Margate Primary School","suburb":"Margate","postcode":"7054","phone":"","public_email":"","contact_form_url":"","website_url":"https://margateprimary.education.tas.edu.au/","lat":-43.028852,"lon":147.262095},{"sector":"government","school_name":"Snug Primary School","suburb":"Snug","postcode":"7054","phone":"","public_email":"","contact_form_url":"","website_url":"https://snugprimary.education.tas.edu.au/","lat":-43.06533258,"lon":147.25426938},{"sector":"government","school_name":"Bruny Island District School","suburb":"Alonnah","postcode":"7150","phone":"","public_email":"","contact_form_url":"","website_url":"https://brunyislanddistrict.education.tas.edu.au/","lat":-43.31756067,"lon":147.24605186},{"sector":"government","school_name":"Cambridge Primary School","suburb":"Cambridge","postcode":"7170","phone":"","public_email":"","contact_form_url":"","website_url":"https://cambridgeprimary.education.tas.edu.au/","lat":-42.83620708,"lon":147.44182458},{"sector":"government","school_name":"Evandale Primary School","suburb":"Evandale","postcode":"7212","phone":"","public_email":"","contact_form_url":"","website_url":"https://evandaleprimary.education.tas.edu.au/","lat":-41.567519,"lon":147.249153},{"sector":"government","school_name":"Bicheno Primary School","suburb":"Bicheno","postcode":"7215","phone":"","public_email":"","contact_form_url":"https://schoolsweb.decyp.tas.gov.au/bichenoprimary/","website_url":"https://bichenoprimary.education.tas.edu.au/","lat":-41.87237979,"lon":148.30570234},{"sector":"government","school_name":"East Launceston Primary School","suburb":"East Launceston","postcode":"7250","phone":"","public_email":"","contact_form_url":"","website_url":"https://eastlauncestonprimary.education.tas.edu.au/","lat":-41.44202283,"lon":147.1520445},{"sector":"government","school_name":"Glen Dhu Primary School","suburb":"South Launceston","postcode":"7249","phone":"","public_email":"","contact_form_url":"https://schoolsweb.decyp.tas.gov.au/glendhuprimary/","website_url":"https://glendhuprimary.education.tas.edu.au/","lat":-41.45590244,"lon":147.1439905},{"sector":"government","school_name":"Norwood Primary School","suburb":"Norwood","postcode":"7250","phone":"","public_email":"dl.0131.admin@schools.sa.edu.au","contact_form_url":"https://www.norwoodps.sa.edu.au/contact/","website_url":"https://www.norwoodps.sa.edu.au/","lat":-41.46210661,"lon":147.17427556},{"sector":"government","school_name":"Punchbowl Primary School","suburb":"Newstead","postcode":"7250","phone":"","public_email":"","contact_form_url":"","website_url":"https://punchbowlprimary.education.tas.edu.au/","lat":-41.45252801,"lon":147.16532986},{"sector":"government","school_name":"Riverside Primary School","suburb":"Riverside","postcode":"7250","phone":"","public_email":"","contact_form_url":"https://riversideprimary.education.tas.edu.au/","website_url":"https://riversideprimary.education.tas.edu.au/","lat":-41.41277009,"lon":147.10063288},{"sector":"government","school_name":"St Leonards Primary School","suburb":"St Leonards","postcode":"7250","phone":"","public_email":"","contact_form_url":"","website_url":"https://stleonardsprimary.education.tas.edu.au/","lat":-41.45970425,"lon":147.2003125},{"sector":"government","school_name":"Summerdale Primary School","suburb":"Summerhill","postcode":"7250","phone":"","public_email":"","contact_form_url":"https://summerdaleprimary.education.tas.edu.au/site-search","website_url":"https://summerdaleprimary.education.tas.edu.au/","lat":-41.46827258,"lon":147.12970713},{"sector":"government","school_name":"Trevallyn Primary School","suburb":"Trevallyn","postcode":"7250","phone":"","public_email":"","contact_form_url":"","website_url":"https://trevallynprimary.education.tas.edu.au/","lat":-41.43814374,"lon":147.11466237},{"sector":"government","school_name":"Waverley Primary School","suburb":"Waverley","postcode":"7250","phone":"","public_email":"glen.waverley.ps@education.vic.gov.au","contact_form_url":"https://www.glenps.vic.edu.au/","website_url":"https://www.glenps.vic.edu.au/","lat":-41.43207254,"lon":147.19013249},{"sector":"government","school_name":"West Launceston Primary School","suburb":"West Launceston","postcode":"7250","phone":"","public_email":"","contact_form_url":"","website_url":"https://westlauncestonprimary.education.tas.edu.au/","lat":-41.44906993,"lon":147.12848365},{"sector":"government","school_name":"Youngtown Primary School","suburb":"Youngtown","postcode":"7249","phone":"","public_email":"","contact_form_url":"","website_url":"https://www.facebook.com/YoungtownPrimarySchool/","lat":-41.482606,"lon":147.163844},{"sector":"government","school_name":"Port Dalrymple School","suburb":"George Town","postcode":"7253","phone":"","public_email":"","contact_form_url":"","website_url":"https://portdalrymple.education.tas.edu.au/","lat":-41.09971856,"lon":146.82811512},{"sector":"government","school_name":"South George Town Primary School","suburb":"George Town","postcode":"7253","phone":"","public_email":"","contact_form_url":"","website_url":"https://southgeorgetownprimary.education.tas.edu.au/","lat":-41.11362094,"lon":146.83363318},{"sector":"government","school_name":"Bridport Primary School","suburb":"Bridport","postcode":"7262","phone":"","public_email":"","contact_form_url":"","website_url":"https://bridportprimary.education.tas.edu.au/","lat":-41.00162041,"lon":147.38937093},{"sector":"government","school_name":"Ringarooma Primary School","suburb":"Ringarooma","postcode":"7263","phone":"","public_email":"","contact_form_url":"","website_url":"https://ringaroomaprimary.education.tas.edu.au/","lat":-41.24228469,"lon":147.73323945},{"sector":"government","school_name":"Scottsdale Primary School","suburb":"Scottsdale","postcode":"7260","phone":"","public_email":"","contact_form_url":"https://scottsdaleprimary.education.tas.edu.au/contact/","website_url":"https://scottsdaleprimary.education.tas.edu.au/","lat":-41.16034658,"lon":147.50665375},{"sector":"government","school_name":"Hagley Farm Primary School","suburb":"Hagley","postcode":"7292","phone":"","public_email":"","contact_form_url":"","website_url":"https://hagleyfarmprimary.education.tas.edu.au/","lat":-41.52669149,"lon":146.90340231},{"sector":"government","school_name":"Orford Primary School","suburb":"Orford","postcode":"7190","phone":"","public_email":"","contact_form_url":"","website_url":"https://orfordprimary.education.tas.edu.au/","lat":-42.56331933,"lon":147.87384235},{"sector":"government","school_name":"Swansea Primary School","suburb":"Swansea","postcode":"7190","phone":"","public_email":"","contact_form_url":"","website_url":"https://swanseaprimary.education.tas.edu.au/","lat":-42.12236781,"lon":148.07320103},{"sector":"government","school_name":"Bracknell Primary School","suburb":"Bracknell","postcode":"7302","phone":"","public_email":"","contact_form_url":"","website_url":"https://bracknellprimary.education.tas.edu.au/","lat":-41.65243695,"lon":146.93358694},{"sector":"government","school_name":"Perth Primary School","suburb":"Perth","postcode":"7300","phone":"","public_email":"southperth.ps@education.wa.edu.au","contact_form_url":"https://southperthps.wa.edu.au/contact-us/","website_url":"https://southperthps.wa.edu.au/","lat":-41.57317837,"lon":147.17437105},{"sector":"government","school_name":"Longford Primary School","suburb":"Longford","postcode":"7301","phone":"","public_email":"longford.ps@edumail.vic.gov.au","contact_form_url":"https://www.longford-ps.vic.edu.au/?page_id=79","website_url":"https://www.longford-ps.vic.edu.au/","lat":-41.59593583,"lon":147.11694321},{"sector":"government","school_name":"Westbury Primary School","suburb":"Westbury","postcode":"7303","phone":"","public_email":"","contact_form_url":"","website_url":"https://westburyprimary.education.tas.edu.au/","lat":-41.53170299,"lon":146.83805102},{"sector":"government","school_name":"Deloraine Primary School","suburb":"Deloraine","postcode":"7304","phone":"","public_email":"","contact_form_url":"","website_url":"https://deloraineprimary.education.tas.edu.au/","lat":-41.52867221,"lon":146.66271544},{"sector":"government","school_name":"Mole Creek Primary School","suburb":"Mole Creek","postcode":"7304","phone":"","public_email":"","contact_form_url":"https://molecreekprimary.education.tas.edu.au/","website_url":"https://molecreekprimary.education.tas.edu.au/","lat":-41.55845075,"lon":146.40554897},{"sector":"government","school_name":"Latrobe Primary School","suburb":"Latrobe","postcode":"7307","phone":"","public_email":"","contact_form_url":"","website_url":"https://latrobeprimary.education.tas.edu.au","lat":-41.23961898,"lon":146.41601313},{"sector":"government","school_name":"Sheffield School","suburb":"Sheffield","postcode":"7306","phone":"","public_email":"","contact_form_url":"","website_url":"https://sheffield.education.tas.edu.au/","lat":-41.38460175,"lon":146.3245746},{"sector":"government","school_name":"Latrobe High School","suburb":"Latrobe","postcode":"7307","phone":"","public_email":"","contact_form_url":"","website_url":"https://latrobehigh.education.tas.edu.au/","lat":-41.23650373,"lon":146.42525319},{"sector":"government","school_name":"Sassafras Primary School","suburb":"Sassafras","postcode":"7307","phone":"","public_email":"","contact_form_url":"","website_url":"https://sassafrasprimary.education.tas.edu.au/","lat":-41.2871478,"lon":146.50331382},{"sector":"government","school_name":"Devonport Primary School","suburb":"Devonport","postcode":"7310","phone":"","public_email":"","contact_form_url":"","website_url":"https://devonportprimary.education.tas.edu.au/","lat":-41.18023239,"lon":146.35740161},{"sector":"government","school_name":"East Devonport Primary School","suburb":"East Devonport","postcode":"7310","phone":"","public_email":"","contact_form_url":"","website_url":"https://eastdevonportprimary.education.tas.edu.au/","lat":-41.17792747,"lon":146.37211466},{"sector":"government","school_name":"Forth Primary School","suburb":"Forth","postcode":"7310","phone":"","public_email":"","contact_form_url":"https://forthprimary.education.tas.edu.au/#section1470","website_url":"https://forthprimary.education.tas.edu.au/","lat":-41.19291547,"lon":146.24858234},{"sector":"government","school_name":"Hillcrest Primary School","suburb":"Devonport","postcode":"7310","phone":"","public_email":"","contact_form_url":"","website_url":"https://hillcrestprimary.education.tas.edu.au/","lat":-41.1870573,"lon":146.33315893},{"sector":"government","school_name":"Miandetta Primary School","suburb":"Miandetta","postcode":"7310","phone":"","public_email":"","contact_form_url":"https://miandettaprimary.education.tas.edu.au/contact/","website_url":"https://miandettaprimary.education.tas.edu.au","lat":-41.1954,"lon":146.349},{"sector":"government","school_name":"Nixon Street Primary School","suburb":"Devonport","postcode":"7310","phone":"","public_email":"","contact_form_url":"","website_url":"https://nixonstreetprimary.education.tas.edu.au/","lat":-41.1729974,"lon":146.33828234},{"sector":"government","school_name":"Spreyton Primary School","suburb":"Spreyton","postcode":"7310","phone":"","public_email":"","contact_form_url":"","website_url":"https://spreytonprimary.education.tas.edu.au/","lat":-41.21202919,"lon":146.34585593},{"sector":"government","school_name":"Wilmot Primary School","suburb":"Wilmot","postcode":"7310","phone":"","public_email":"","contact_form_url":"","website_url":"https://wilmotprimary.education.tas.edu.au/home","lat":-41.38699434,"lon":146.17536786},{"sector":"government","school_name":"East Ulverstone Primary School","suburb":"Ulverstone","postcode":"7315","phone":"","public_email":"","contact_form_url":"","website_url":"https://eastulverstoneprimary.education.tas.edu.au/","lat":-41.15452656,"lon":146.19175434},{"sector":"government","school_name":"Sprent Primary School","suburb":"Sprent","postcode":"7315","phone":"","public_email":"","contact_form_url":"","website_url":"https://sprentprimary.education.tas.edu.au/","lat":-41.26294106,"lon":146.15942756},{"sector":"government","school_name":"Ulverstone Primary School","suburb":"Ulverstone","postcode":"7315","phone":"","public_email":"","contact_form_url":"","website_url":"https://ulverstoneprimary.education.tas.edu.au/","lat":-41.16076112,"lon":146.16414432},{"sector":"government","school_name":"West Ulverstone Primary School","suburb":"West Ulverstone","postcode":"7315","phone":"","public_email":"","contact_form_url":"","website_url":"https://westulverstoneprimary.education.tas.edu.au/","lat":-41.14816145,"lon":146.15951375},{"sector":"government","school_name":"Riana Primary School","suburb":"Riana","postcode":"7316","phone":"","public_email":"","contact_form_url":"","website_url":"https://rianaprimary.education.tas.edu.au/","lat":-41.20249009,"lon":145.9989877},{"sector":"government","school_name":"Burnie Primary School","suburb":"Park Grove","postcode":"7320","phone":"","public_email":"","contact_form_url":"","website_url":"https://burnieprimary.education.tas.edu.au/","lat":-41.0584334,"lon":145.88530288},{"sector":"government","school_name":"Cooee Primary School","suburb":"Cooee","postcode":"7320","phone":"","public_email":"","contact_form_url":"https://schoolsweb.decyp.tas.gov.au/cooeeprimary/wp-content/uploads/sites/31/2021/08/Launching-Into-Learning-Contact-Form.pdf","website_url":"https://cooeeprimary.education.tas.edu.au/","lat":-41.0415376,"lon":145.86646528},{"sector":"government","school_name":"Montello Primary School","suburb":"Montello","postcode":"7320","phone":"","public_email":"","contact_form_url":"","website_url":"https://www.montelloprimary.education.tas.edu.au/","lat":-41.05990677,"lon":145.89857951},{"sector":"government","school_name":"Boat Harbour Primary School","suburb":"Boat Harbour","postcode":"7321","phone":"","public_email":"","contact_form_url":"","website_url":"https://boatharbourprimary.education.tas.edu.au/","lat":-40.94562609,"lon":145.63535686},{"sector":"government","school_name":"Havenview Primary School","suburb":"Havenview","postcode":"7320","phone":"","public_email":"","contact_form_url":"","website_url":"https://havenviewprimary.education.tas.edu.au/","lat":-41.08386446,"lon":145.91116837},{"sector":"government","school_name":"Natone Primary School","suburb":"Natone","postcode":"7321","phone":"","public_email":"","contact_form_url":"https://schoolsweb.decyp.tas.gov.au/natoneprimary/","website_url":"https://natoneprimary.education.tas.edu.au/","lat":-41.17012891,"lon":145.92177351},{"sector":"government","school_name":"Ridgley Primary School","suburb":"Ridgley","postcode":"7321","phone":"","public_email":"","contact_form_url":"","website_url":"https://ridgleyprimary.education.tas.edu.au/","lat":-41.13997773,"lon":145.8377718},{"sector":"government","school_name":"Table Cape Primary School","suburb":"Wynyard","postcode":"7325","phone":"","public_email":"","contact_form_url":"","website_url":"https://tablecapeprimary.education.tas.edu.au/","lat":-40.98316517,"lon":145.71486624},{"sector":"government","school_name":"Edith Creek Primary School","suburb":"Edith Creek","postcode":"7330","phone":"","public_email":"","contact_form_url":"","website_url":"https://edithcreekprimary.education.tas.edu.au/","lat":-40.97052056,"lon":145.09340726},{"sector":"government","school_name":"Forest Primary School","suburb":"Forest","postcode":"7330","phone":"","public_email":"tuartforest.ps@education.wa.edu.au","contact_form_url":"https://tuartforestps.wa.edu.au/contact-us/","website_url":"https://tuartforestps.wa.edu.au/","lat":-40.84838284,"lon":145.24941532},{"sector":"government","school_name":"Redpa Primary School","suburb":"Redpa","postcode":"7330","phone":"","public_email":"","contact_form_url":"","website_url":"https://redpaprimary.education.tas.edu.au/","lat":-40.932925,"lon":144.761834},{"sector":"government","school_name":"Smithton Primary School","suburb":"Smithton","postcode":"7330","phone":"","public_email":"","contact_form_url":"https://smithtonprimary.education.tas.edu.au/contact/","website_url":"https://smithtonprimary.education.tas.edu.au/","lat":-40.84946046,"lon":145.11605256},{"sector":"government","school_name":"Stanley Primary School","suburb":"Stanley","postcode":"7331","phone":"","public_email":"","contact_form_url":"https://stanleyprimary.education.tas.edu.au/contact/","website_url":"https://stanleyprimary.education.tas.edu.au/","lat":-40.75956582,"lon":145.29098508},{"sector":"government","school_name":"Brighton Primary School","suburb":"Brighton","postcode":"7030","phone":"","public_email":"brighton.ps@education.vic.gov.au","contact_form_url":"https://www.brighton.vic.edu.au/contact","website_url":"https://www.brighton.vic.edu.au/","lat":-42.69909438,"lon":147.25845801},{"sector":"government","school_name":"Bagdad Primary School","suburb":"Bagdad","postcode":"7030","phone":"","public_email":"","contact_form_url":"","website_url":"https://bagdadprimary.education.tas.edu.au/","lat":-42.62489064,"lon":147.22295679},{"sector":"government","school_name":"Kempton Primary School","suburb":"Kempton","postcode":"7030","phone":"","public_email":"","contact_form_url":"","website_url":"https://kemptonprimary.education.tas.edu.au/","lat":-42.5311126,"lon":147.19913449},{"sector":"government","school_name":"Fairview Primary School","suburb":"New Norfolk","postcode":"7140","phone":"","public_email":"","contact_form_url":"","website_url":"https://fairviewprimary.education.tas.edu.au/","lat":-42.77432027,"lon":147.05092241},{"sector":"government","school_name":"New Norfolk Primary School","suburb":"New Norfolk","postcode":"7140","phone":"","public_email":"","contact_form_url":"","website_url":"https://newnorfolkprimary.education.tas.edu.au/","lat":-42.77900115,"lon":147.06366914},{"sector":"government","school_name":"Molesworth Primary School","suburb":"Molesworth","postcode":"7140","phone":"","public_email":"","contact_form_url":"","website_url":"https://www.molesworthprimary.education.tas.edu.au/","lat":-42.80404026,"lon":147.15677869},{"sector":"government","school_name":"Westerway Primary School","suburb":"Westerway","postcode":"7140","phone":"","public_email":"","contact_form_url":"","website_url":"https://westerwayprimary.education.tas.edu.au/","lat":-42.67762923,"lon":146.78735111},{"sector":"government","school_name":"Strahan Primary School","suburb":"Strahan","postcode":"7468","phone":"","public_email":"","contact_form_url":"","website_url":"https://strahanprimary.education.tas.edu.au/","lat":-42.15342033,"lon":145.32034704},{"sector":"government","school_name":"Zeehan Primary School","suburb":"Zeehan","postcode":"7469","phone":"","public_email":"","contact_form_url":"","website_url":"https://zeehanprimary.education.tas.edu.au/","lat":-41.88801157,"lon":145.33959279},{"sector":"independent","school_name":"Tarremah Steiner School","suburb":"Huntingfield","postcode":"7055","phone":"","public_email":"mail@tarremah.tas.edu.au","contact_form_url":"https://www.tarremah.tas.edu.au/","website_url":"http://www.tarremah.tas.edu.au","lat":-42.997854,"lon":147.289813},{"sector":"independent","school_name":"Australian Christian College - Burnie","suburb":"Somerset","postcode":"7322","phone":"","public_email":"","contact_form_url":"","website_url":"https://www.acc.edu.au/burnie/","lat":-41.0444,"lon":145.81},{"sector":"catholic","school_name":"MacKillop Catholic College","suburb":"Mornington","postcode":"7018","phone":"","public_email":"","contact_form_url":"","website_url":"http://www.mackillop.tas.edu.au","lat":-42.857456,"lon":147.400625},{"sector":"independent","school_name":"Devonport Christian School","suburb":"Don","postcode":"7310","phone":"","public_email":"","contact_form_url":"","website_url":"http://www.dcs.tas.edu.au","lat":-41.18196,"lon":146.3234},{"sector":"catholic","school_name":"St Finn Barr's Catholic Primary School","suburb":"Invermay","postcode":"7248","phone":"","public_email":"stfinnbarrs@catholic.tas.edu.au","contact_form_url":"http://www.stfinnbarrs.tas.edu.au/site-search","website_url":"http://www.stfinnbarrs.tas.edu.au","lat":-41.415572,"lon":147.132923},{"sector":"independent","school_name":"Giant Steps Tasmania","suburb":"Deloraine","postcode":"7304","phone":"","public_email":"principal@giantsteps.tas.edu.au","contact_form_url":"https://www.giantsteps.tas.edu.au/search-results","website_url":"http://www.giantsteps.tas.edu.au/","lat":-41.5225,"lon":146.652},{"sector":"catholic","school_name":"Dominic College","suburb":"Glenorchy","postcode":"7010","phone":"","public_email":"","contact_form_url":"http://www.dominic.tas.edu.au/contact","website_url":"http://www.dominic.tas.edu.au","lat":-42.848604,"lon":147.257738},{"sector":"catholic","school_name":"Mount Carmel College","suburb":"Sandy Bay","postcode":"7005","phone":"","public_email":"info@mountcarmel.tas.edu.au","contact_form_url":"https://mountcarmel.tas.edu.au/","website_url":"http://www.mountcarmel.tas.edu.au","lat":-42.901946,"lon":147.33217},{"sector":"catholic","school_name":"Sacred Heart College","suburb":"New Town","postcode":"7008","phone":"","public_email":"admin@shc.tas.edu.au","contact_form_url":"http://www.shc.tas.edu.au/search","website_url":"http://www.shc.tas.edu.au","lat":-42.86218,"lon":147.304645},{"sector":"government","school_name":"Dodges Ferry Primary School","suburb":"Dodges Ferry","postcode":"7173","phone":"","public_email":"","contact_form_url":"https://schoolsweb.decyp.tas.gov.au/dodgesferry/wp-content/uploads/sites/32/2025/12/School-Contact-Details-Partnership-Agreement-Form-SUNSMART-DFPS.docx","website_url":"https://dodgesferryprimary.education.tas.edu.au/","lat":-42.84870944,"lon":147.62474666},{"sector":"government","school_name":"Exeter Primary School","suburb":"Exeter","postcode":"7275","phone":"","public_email":"","contact_form_url":"","website_url":"https://exeterprimary.education.tas.edu.au/","lat":-41.29885674,"lon":146.95637398},{"sector":"government","school_name":"Illawarra Primary School","suburb":"Blackmans Bay","postcode":"7052","phone":"","public_email":"","contact_form_url":"https://illawarraprimaryschool.education.tas.edu.au/","website_url":"https://illawarraprimaryschool.education.tas.edu.au/","lat":-43.0086344,"lon":147.31937793},{"sector":"independent","school_name":"OneSchool Global Tas","suburb":"Claremont","postcode":"7011","phone":"","public_email":"","contact_form_url":"","website_url":"https://www.oneschoolglobal.com/regions/australia/tasmania/","lat":-42.793949999999995,"lon":147.2487},{"sector":"government","school_name":"Beaconsfield Primary School","suburb":"Beaconsfield","postcode":"7270","phone":"","public_email":"","contact_form_url":"","website_url":"https://beaconsfield.tas.gov.au","lat":-41.20319085,"lon":146.8219466},{"sector":"independent","school_name":"Newstead Christian School","suburb":"Newstead","postcode":"7250","phone":"","public_email":"office@ncs.tas.edu.au","contact_form_url":"http://www.ncs.tas.edu.au/search","website_url":"http://www.ncs.tas.edu.au","lat":-41.438287,"lon":147.165078},{"sector":"catholic","school_name":"St Virgil's College","suburb":"Austins Ferry","postcode":"7011","phone":"","public_email":"jsadmin@stvirgils.tas.edu.au","contact_form_url":"https://www.stvirgils.tas.edu.au/search","website_url":"http://www.stvirgils.tas.edu.au","lat":-42.774178,"lon":147.251698},{"sector":"independent","school_name":"Peregrine","suburb":"Nicholls Rivulet","postcode":"7112","phone":"","public_email":"admin@peregrine.tas.edu.au","contact_form_url":"https://www.peregrine.tas.edu.au/contact/","website_url":"http://www.peregrine.tas.edu.au","lat":-43.141636,"lon":147.152841},{"sector":"government","school_name":"Mountain Heights School","suburb":"Queenstown","postcode":"7467","phone":"","public_email":"","contact_form_url":"https://schoolsweb.decyp.tas.gov.au/mountainheights/","website_url":"https://mountainheights.education.tas.edu.au","lat":-42.09410938,"lon":145.54957398},{"sector":"catholic","school_name":"St Brendan-Shaw College","suburb":"Devonport","postcode":"7310","phone":"","public_email":"enrolments@sbsc.tas.edu.au","contact_form_url":"https://tas.us21.list-manage.com/subscribe/post?u=0336f174fa1ece66442c648f4&id=882d25fafc&f_id=009adde6f0","website_url":"http://www.sbsc.tas.edu.au","lat":-41.167167,"lon":146.342373},{"sector":"catholic","school_name":"St Patrick's College","suburb":"Prospect Vale","postcode":"7250","phone":"","public_email":"registrar@stpatricks.tas.edu.au","contact_form_url":"http://www.stpatricks.tas.edu.au/search","website_url":"http://www.stpatricks.tas.edu.au","lat":-41.473557,"lon":147.127444},{"sector":"catholic","school_name":"Marist Regional College","suburb":"Burnie","postcode":"7320","phone":"","public_email":"principal@mrc.tas.edu.au","contact_form_url":"https://mrc.tas.edu.au","website_url":"http://www.mrc.tas.edu.au","lat":-41.04803,"lon":145.886284},{"sector":"government","school_name":"Cape Barren Island School","suburb":"Cape Barren Island","postcode":"7257","phone":"","public_email":"","contact_form_url":"","website_url":"https://capebarrenisland.education.tas.edu.au/","lat":-40.369305,"lon":148.024571},{"sector":"government","school_name":"Southern Support School","suburb":"Howrah","postcode":"7018","phone":"","public_email":"","contact_form_url":"","website_url":"https://southernsupportschool.education.tas.edu.au/","lat":-42.880164,"lon":147.401683},{"sector":"independent","school_name":"Calvin Christian School","suburb":"Kingston","postcode":"7050","phone":"","public_email":"admin@calvin.tas.edu.au","contact_form_url":"http://www.calvin.tas.edu.au","website_url":"http://www.calvin.tas.edu.au","lat":-42.97993089,"lon":147.30502043},{"sector":"government","school_name":"Northern Support School","suburb":"Ravenswood","postcode":"7250","phone":"","public_email":"","contact_form_url":"https://schoolsweb.decyp.tas.gov.au/northernsupportschool/","website_url":"https://northernsupportschool.education.tas.edu.au/","lat":-41.423615,"lon":147.172268},{"sector":"independent","school_name":"Australian Christian College - Launceston","suburb":"Newnham","postcode":"7248","phone":"","public_email":"","contact_form_url":"","website_url":"https://www.acc.edu.au/launceston/","lat":-41.3858,"lon":147.127401},{"sector":"independent","school_name":"Emmanuel Christian School","suburb":"Rokeby","postcode":"7019","phone":"","public_email":"admin@cst.tas.edu.au","contact_form_url":"http://www.cst.tas.edu.au","website_url":"http://www.cst.tas.edu.au","lat":-42.90075556,"lon":147.43857962},{"sector":"independent","school_name":"Northern Christian School","suburb":"Bridgewater","postcode":"7030","phone":"","public_email":"admin@northern.tas.edu.au","contact_form_url":"https://www.northern.tas.edu.au/","website_url":"https://www.northern.tas.edu.au/","lat":-42.730637,"lon":147.223489},{"sector":"independent","school_name":"Channel Christian School","suburb":"Margate","postcode":"7054","phone":"","public_email":"admin@cst.tas.edu.au","contact_form_url":"http://www.cst.tas.edu.au","website_url":"http://www.cst.tas.edu.au","lat":-43.027034,"lon":147.271393},{"sector":"independent","school_name":"Australian Christian College - Hobart","suburb":"Geilston Bay","postcode":"7015","phone":"","public_email":"","contact_form_url":"","website_url":"https://www.acc.edu.au/hobart/","lat":-42.839719,"lon":147.352713},{"sector":"government","school_name":"Launceston College","suburb":"Launceston","postcode":"7250","phone":"","public_email":"","contact_form_url":"https://launcestoncollege.education.tas.edu.au/search-results","website_url":"https://launcestoncollege.education.tas.edu.au/","lat":-41.43992227,"lon":147.13289463},{"sector":"government","school_name":"Elizabeth College","suburb":"North Hobart","postcode":"7000","phone":"","public_email":"","contact_form_url":"","website_url":"https://elizabethcollege.tas.edu.au/","lat":-42.87760164,"lon":147.31775523},{"sector":"government","school_name":"Rosny College","suburb":"Rosny Park","postcode":"7018","phone":"","public_email":"","contact_form_url":"","website_url":"https://www.rosnycollege.education.tas.edu.au/","lat":-42.86932994,"lon":147.36533631},{"sector":"catholic","school_name":"Guilford Young College","suburb":"Glenorchy","postcode":"7010","phone":"","public_email":"hobadmin@gyc.tas.edu.au","contact_form_url":"http://www.gyc.tas.edu.au/","website_url":"http://www.gyc.tas.edu.au/","lat":-42.835,"lon":147.27},{"sector":"government","school_name":"Claremont College","suburb":"Claremont","postcode":"7011","phone":"","public_email":"","contact_form_url":"https://claremontcollege.education.tas.edu.au/site-search","website_url":"https://claremontcollege.education.tas.edu.au/","lat":-42.79584451,"lon":147.25055132},{"sector":"government","school_name":"Sandy Bay Infant School","suburb":"Sandy Bay","postcode":"7005","phone":"","public_email":"","contact_form_url":"","website_url":"https://sandybayinfant.education.tas.edu.au/","lat":-42.90961521,"lon":147.34937869},{"sector":"government","school_name":"Montrose Bay High School","suburb":"Rosetta","postcode":"7010","phone":"","public_email":"","contact_form_url":"","website_url":"https://montrosebayhigh.tas.edu.au/","lat":-42.82023857,"lon":147.2669231},{"sector":"government","school_name":"Glenorchy Primary School","suburb":"Glenorchy","postcode":"7010","phone":"","public_email":"","contact_form_url":"","website_url":"https://glenorchyprimary.education.tas.edu.au/","lat":-42.83091402,"lon":147.26726531},{"sector":"catholic","school_name":"St Aloysius Catholic College","suburb":"Huntingfield","postcode":"7055","phone":"","public_email":"sacc@catholic.tas.edu.au","contact_form_url":"http://www.staloysius.tas.edu.au/site-search","website_url":"http://www.staloysius.tas.edu.au/","lat":-42.997539,"lon":147.289506},{"sector":"government","school_name":"Somerset Primary School","suburb":"Somerset","postcode":"7322","phone":"","public_email":"","contact_form_url":"","website_url":"https://somersetprimary.education.tas.edu.au/","lat":-41.03817706,"lon":145.81934074},{"sector":"government","school_name":"Don College","suburb":"Devonport","postcode":"7310","phone":"","public_email":"","contact_form_url":"","website_url":"https://doncollege.education.tas.edu.au/","lat":-41.16761222,"lon":146.33334709},{"sector":"government","school_name":"Hellyer College","suburb":"Shorewell Park","postcode":"7320","phone":"","public_email":"","contact_form_url":"https://hellyercollege.education.tas.edu.au/php/newsletter.php","website_url":"https://hellyercollege.education.tas.edu.au","lat":-41.061313,"lon":145.881671},{"sector":"government","school_name":"Hobart College","suburb":"Mount Nelson","postcode":"7007","phone":"","public_email":"","contact_form_url":"https://hobartcollege.education.tas.edu.au/","website_url":"https://hobartcollege.education.tas.edu.au/","lat":-42.917107,"lon":147.318165},{"sector":"government","school_name":"Romaine Park Primary School","suburb":"Romaine","postcode":"7320","phone":"","public_email":"","contact_form_url":"","website_url":"https://romaineparkprimary.education.tas.edu.au/","lat":-41.07792938,"lon":145.90136514},{"sector":"government","school_name":"Windermere Primary School","suburb":"Claremont","postcode":"7011","phone":"","public_email":"","contact_form_url":"https://windermereprimary.education.tas.edu.au/contact/","website_url":"https://windermereprimary.education.tas.edu.au/","lat":-42.79929094,"lon":147.25774957},{"sector":"government","school_name":"Austins Ferry Primary School","suburb":"Claremont","postcode":"7011","phone":"","public_email":"","contact_form_url":"","website_url":"https://austinsferryprimary.education.tas.edu.au/","lat":-42.78491896,"lon":147.23896666},{"sector":"government","school_name":"JRLF - Senior School","suburb":"Bridgewater","postcode":"7030","phone":"","public_email":"","contact_form_url":"","website_url":"https://jrlfsenior.education.tas.edu.au","lat":-42.73735506,"lon":147.23949761},{"sector":"government","school_name":"JRLF - Gagebrook Primary School","suburb":"Gagebrook","postcode":"7030","phone":"","public_email":"","contact_form_url":"https://schoolsweb.decyp.tas.gov.au/gagebrookprimary/","website_url":"https://gagebrookprimary.education.tas.edu.au/","lat":-42.74882742,"lon":147.27580782},{"sector":"government","school_name":"JRLF - Herdsmans Cove Primary School","suburb":"Herdsmans Cove","postcode":"7030","phone":"","public_email":"","contact_form_url":"","website_url":"https://jrlf.education.tas.edu.au/","lat":-42.74886383,"lon":147.26385697},{"sector":"government","school_name":"JRLF - East Derwent Primary School","suburb":"Bridgewater","postcode":"7030","phone":"","public_email":"","contact_form_url":"","website_url":"https://eastderwentprimary.education.tas.edu.au","lat":-42.74341148,"lon":147.24993062},{"sector":"government","school_name":"Launceston Big Picture School","suburb":"Invermay","postcode":"7248","phone":"","public_email":"","contact_form_url":"","website_url":"https://lbps.education.tas.edu.au/","lat":-41.42794676,"lon":147.13906078},{"sector":"government","school_name":"Newstead College","suburb":"Newstead","postcode":"7250","phone":"","public_email":"","contact_form_url":"","website_url":"https://newsteadcollege.education.tas.edu.au/","lat":-41.43310275,"lon":147.16077778},{"sector":"independent","school_name":"Lambert School","suburb":"North Hobart","postcode":"7002","phone":"","public_email":"","contact_form_url":"","website_url":"http://www.lambertschool.tas.edu.au/","lat":-42.876215,"lon":147.319525},{"sector":"government","school_name":"Port Sorell Primary School","suburb":"Port Sorell","postcode":"7307","phone":"","public_email":"","contact_form_url":"","website_url":"https://portsorellprimary.education.tas.edu.au/","lat":-41.16379772,"lon":146.55001066},{"sector":"government","school_name":"Andrews Creek Primary School","suburb":"Wesley Vale","postcode":"7307","phone":"","public_email":"","contact_form_url":"https://andrewscreekprimary.education.tas.edu.au/index.php/contact/","website_url":"https://andrewscreekprimary.education.tas.edu.au","lat":-41.18898408,"lon":146.45880233},{"sector":"government","school_name":"East Tamar Primary School","suburb":"Mayfield","postcode":"7248","phone":"","public_email":"","contact_form_url":"https://schoolsweb.decyp.tas.gov.au/easttamarprimary/","website_url":"https://easttamarprimary.education.tas.edu.au/","lat":-41.38769971,"lon":147.12989373},{"sector":"government","school_name":"Penguin District School","suburb":"Penguin","postcode":"7316","phone":"","public_email":"","contact_form_url":"","website_url":"https://penguindistrict.education.tas.edu.au","lat":-41.12693898,"lon":146.06930478},{"sector":"catholic","school_name":"St Francis Flexible Learning Centre","suburb":"Chigwell","postcode":"7011","phone":"","public_email":"st.francis.flc@youthplus.edu.au","contact_form_url":"","website_url":"http://youthplus.edu.au/st-francis-hobart-flc/","lat":-42.8046047,"lon":147.2449819},{"sector":"independent","school_name":"Tamar Valley Steiner School","suburb":"Launceston","postcode":"7250","phone":"","public_email":"","contact_form_url":"","website_url":"http://www.tamarvalleysteiner.com.au/","lat":-41.46321585399829,"lon":147.2024105502765},{"sector":"independent","school_name":"Indie School - Glenorchy","suburb":"Glenorchy","postcode":"7010","phone":"","public_email":"enquiries@indieschool.edu.au","contact_form_url":"https://indieschool.edu.au/","website_url":"https://indieschool.edu.au/","lat":-42.833839,"lon":147.27975},{"sector":"independent","school_name":"Indie School - Devonport","suburb":"Devonport","postcode":"7310","phone":"","public_email":"enquiries@indieschool.edu.au","contact_form_url":"https://indieschool.edu.au/campus/devonport","website_url":"https://indieschool.edu.au/campus/devonport","lat":-41.1769,"lon":146.3593},{"sector":"government","school_name":"Hobart City High School","suburb":"New Town","postcode":"7008","phone":"","public_email":"","contact_form_url":"","website_url":"https://www.hobartcityhigh.education.tas.edu.au/","lat":-42.85515258,"lon":147.3003688},{"sector":"government","school_name":"Legana Primary School","suburb":"Legana","postcode":"7277","phone":"","public_email":"","contact_form_url":"","website_url":"https://leganaprimary.education.tas.edu.au/","lat":-41.36973,"lon":147.05181},{"sector":"government","school_name":"Brighton High School","suburb":"Brighton","postcode":"7030","phone":"","public_email":"","contact_form_url":"https://brightonhigh.education.tas.edu.au/","website_url":"https://brightonhigh.education.tas.edu.au/","lat":-42.70417,"lon":147.24669}]