[{"sector":"government","school_name":"Darwin High School","suburb":"The Gardens","postcode":"0820","phone":"(08) 899 91222","public_email":"darwin.high@education.nt.gov.au","contact_form_url":"https://darwinhigh.nt.edu.au/newsletter-success/","website_url":"http://www.darwinhigh.nt.edu.au","lat":-12.43893,"lon":130.83398},{"sector":"government","school_name":"Northern Territory School of Distance Education","suburb":"The Gardens","postcode":"0820","phone":"(08) 892 22222","public_email":"ntsde.it@education.nt.gov.au","contact_form_url":"https://ntsde.nt.edu.au/contact/","website_url":"http://www.ntsde.nt.edu.au/","lat":-12.4396483748962,"lon":130.833994695587},{"sector":"government","school_name":"Centralian Senior College","suburb":"Alice Springs","postcode":"0870","phone":"(08) 895 85000","public_email":"admin.centraliansc@ntschools.net","contact_form_url":"http://centralianseniorcollege.com.au/contact-us","website_url":"http://centralianseniorcollege.com.au/","lat":-23.6979,"lon":133.8953},{"sector":"government","school_name":"Woolaning School","suburb":"Litchfield Park","postcode":"0822","phone":"(08) 8978 2334","public_email":"admin.woolasch@education.nt.gov.au","contact_form_url":"","website_url":"https://n/a","lat":-13.098819,"lon":130.654431},{"sector":"independent","school_name":"Araluen Christian College","suburb":"Alice Springs","postcode":"0870","phone":"(08) 8955 3300","public_email":"admin.acc@ntschools.net","contact_form_url":"http://acc.nt.edu.au/contact-us/","website_url":"http://www.acc.nt.edu.au/","lat":-23.70771,"lon":133.85232},{"sector":"catholic","school_name":"Holy Family Catholic Primary School","suburb":"Karama","postcode":"0812","phone":"(08) 89276188","public_email":"admin.holyfamily@nt.catholic.edu.au","contact_form_url":"http://www.holyfamilynt.catholic.edu.au/apps/search","website_url":"http://www.holyfamilynt.catholic.edu.au","lat":-12.39367,"lon":130.91166},{"sector":"catholic","school_name":"Holy Spirit Catholic Primary School","suburb":"Wanguri","postcode":"0810","phone":"(08) 8927 3411","public_email":"col.hs@nt.catholic.edu.au","contact_form_url":"http://www.holyspiritnt.catholic.edu.au/search-results","website_url":"http://www.holyspiritnt.catholic.edu.au","lat":-12.373488,"lon":130.88543},{"sector":"catholic","school_name":"O'Loughlin Catholic College","suburb":"Karama","postcode":"0812","phone":"(08) 8945 1277","public_email":"secretary.oloughlin@nt.catholic.edu.au","contact_form_url":"http://www.oloughlin.nt.edu.au/search/","website_url":"http://www.oloughlin.nt.edu.au/","lat":-12.39337,"lon":130.91045},{"sector":"catholic","school_name":"Our Lady of the Sacred Heart Catholic College","suburb":"Alice Springs","postcode":"0870","phone":"(08) 8950 6400","public_email":"admin.olshalice@nt.catholic.edu.au","contact_form_url":"http://www.olshalice.catholic.edu.au/search/","website_url":"http://www.olshalice.catholic.edu.au","lat":-23.707543,"lon":133.876955},{"sector":"catholic","school_name":"Sacred Heart Catholic Primary School","suburb":"Woodroffe","postcode":"0830","phone":"(08) 8924 8700","public_email":"admin.shps@nt.catholic.edu.au","contact_form_url":"https://shpsnt.catholic.edu.au/contact-us/","website_url":"https://www.shpsnt.catholic.edu.au/","lat":-12.49588,"lon":130.97937},{"sector":"catholic","school_name":"St Francis of Assisi Catholic Primary School","suburb":"Humpty Doo","postcode":"0836","phone":"(08) 8988 1212","public_email":"admin.sfas@nt.catholic.edu.au","contact_form_url":"https://www.sfasnt.catholic.edu.au/wp-admin/admin-post.php?action=mailpoet_subscription_form","website_url":"http://www.sfasnt.catholic.edu.au","lat":-12.581199,"lon":131.099073},{"sector":"catholic","school_name":"St John's Catholic College","suburb":"The Gardens","postcode":"0820","phone":"(08) 8982 2222","public_email":"admin.stjohns@nt.catholic.edu.au","contact_form_url":"http://www.stjohnsnt.catholic.edu.au/search/","website_url":"http://www.stjohnsnt.catholic.edu.au","lat":-12.440794,"lon":130.837954},{"sector":"catholic","school_name":"St Joseph's Catholic College","suburb":"Katherine","postcode":"0850","phone":"(08) 89723555","public_email":"admin.stjosephs@nt.catholic.edu.au","contact_form_url":"https://www.stjoeys.college/site-search","website_url":"https://www.stjoeys.college/","lat":-14.46194,"lon":132.27593},{"sector":"catholic","school_name":"St Mary's Catholic Primary School","suburb":"Darwin","postcode":"0800","phone":"(08) 8981 9796","public_email":"admin.stmarys@nt.catholic.edu.au","contact_form_url":"http://www.stmarysnt.catholic.edu.au/outside-school-hours-care/oshc-contact-and-service-details/","website_url":"http://www.stmarysnt.catholic.edu.au/","lat":-12.45935,"lon":130.83883},{"sector":"catholic","school_name":"St Paul's Catholic Primary School","suburb":"Rapid Creek","postcode":"0810","phone":"(08) 8985 1911","public_email":"admin.stpauls@nt.catholic.edu.au","contact_form_url":"http://www.stpaulsnt.catholic.edu.au/site-search","website_url":"http://www.stpaulsnt.catholic.edu.au/","lat":-12.38695,"lon":130.85821},{"sector":"government","school_name":"Casuarina Senior College","suburb":"Moil","postcode":"0810","phone":"(08) 898 37300","public_email":"csc.admin@education.nt.gov.au","contact_form_url":"http://www.casuarinaseniorcollege.com.au/contact-us","website_url":"http://www.casuarinaseniorcollege.com.au","lat":-12.3836,"lon":130.879},{"sector":"government","school_name":"Kintore Street School","suburb":"Katherine","postcode":"0850","phone":"(08) 8973 3888","public_email":"kintore.admin@education.nt.gov.au","contact_form_url":"https://kintorestreetschool.nt.edu.au/","website_url":"https://kintorestreetschool.nt.edu.au/","lat":-14.46361,"lon":132.25918},{"sector":"independent","school_name":"NT Christian College","suburb":"Marrara","postcode":"0812","phone":"(08) 8920 2000","public_email":"admin.ntcc@ntschools.net","contact_form_url":"https://www.ntcc.nt.edu.au/contact-us/","website_url":"https://www.ntcc.nt.edu.au","lat":-12.40795029,"lon":130.917266},{"sector":"government","school_name":"Arlparra School","suburb":"Utopia","postcode":"0872","phone":"(08) 8956 9178","public_email":"info@australianschoolsdirectory.com.au","contact_form_url":"https://www.australianschoolsdirectory.com.au/contact.php","website_url":"https://www.australianschoolsdirectory.com.au/3475/arlparra-school-alice-springs","lat":-22.087628,"lon":134.775047},{"sector":"independent","school_name":"Mapuru Yirralka College","suburb":"Mapuru","postcode":"0822","phone":"(08) 8970 4996","public_email":"principal@yirralka.nt.ed.au","contact_form_url":"","website_url":"http://www.arnhemweavers.com.au","lat":-12.252298,"lon":135.437467},{"sector":"independent","school_name":"Good Shepherd Lutheran College","suburb":"Howard Springs","postcode":"0835","phone":"08 8983 0300","public_email":"admin@goodshepherd.nt.edu.au","contact_form_url":"https://www.goodshepherd.nt.edu.au/contact/outside-school-hours-care","website_url":"https://www.goodshepherd.nt.edu.au/","lat":-12.495852,"lon":131.024977},{"sector":"government","school_name":"Dripstone Secondary College","suburb":"Tiwi","postcode":"0810","phone":"(08) 898 37777","public_email":"dripstone.secondary@education.nt.gov.au","contact_form_url":"","website_url":"http://www.dripstonemiddle.nt.edu.au","lat":-12.37458125,"lon":130.87516875},{"sector":"government","school_name":"Katherine High School","suburb":"Katherine East","postcode":"0850","phone":"(08) 897 38200","public_email":"admin.kathehs@ntschools.net","contact_form_url":"https://katherinehighschool.us18.list-manage.com/subscribe/post?u=b603acc98c7918a29903b32dc&id=460f45a120","website_url":"https://www.katherinehighschool.com.au/","lat":-14.46347,"lon":132.28306},{"sector":"government","school_name":"Nhulunbuy High School","suburb":"Nhulunbuy","postcode":"0880","phone":"(08) 898 70844","public_email":"nhulunbuy.high@education.nt.gov.au","contact_form_url":"","website_url":"https://n/a","lat":-12.18676,"lon":136.78298},{"sector":"government","school_name":"Nightcliff High School","suburb":"Nightcliff","postcode":"0810","phone":"(08) 898 37677","public_email":"admin.nightms@ntschools.net","contact_form_url":"http://www.nightcliffmiddle.nt.edu.au/","website_url":"http://www.nightcliffmiddle.nt.edu.au","lat":-12.37458125,"lon":130.87516875},{"sector":"government","school_name":"Sanderson High School","suburb":"Malak","postcode":"0812","phone":"(08) 7923 0500","public_email":"shs@education.nt.gov.au","contact_form_url":"","website_url":"https://sandersonmiddle.nt.edu.au/","lat":-12.381963636363636,"lon":130.9006},{"sector":"government","school_name":"Taminmin College","suburb":"Humpty Doo","postcode":"0836","phone":"(08) 898 37000","public_email":"admin.taminmin@ntschools.net","contact_form_url":"https://taminmin.nt.edu.au/","website_url":"http://www.taminmin.nt.edu.au/","lat":-12.58037,"lon":131.10089},{"sector":"government","school_name":"Tennant Creek High School","suburb":"Tennant Creek","postcode":"0860","phone":"(08) 8962 2102","public_email":"admin.tchs@education.nt.gov.au","contact_form_url":"","website_url":"http://","lat":-19.644142,"lon":134.196942},{"sector":"government","school_name":"Alice Springs School Of The Air","suburb":"Alice Springs","postcode":"0870","phone":"(08) 8951 6800","public_email":"assoa@assoa.nt.edu.au","contact_form_url":"https://www.assoa.nt.edu.au/contact/","website_url":"http://www.assoa.nt.edu.au/","lat":-23.67805,"lon":133.86618},{"sector":"government","school_name":"Katherine School Of The Air","suburb":"Katherine","postcode":"0850","phone":"(08) 896 51555","public_email":"kath.soa@education.nt.gov.au","contact_form_url":"https://www.ksa.nt.edu.au/contact-us","website_url":"https://www.ksa.nt.edu.au/","lat":-14.4502,"lon":132.26948},{"sector":"government","school_name":"Alawa Primary School","suburb":"Alawa","postcode":"0810","phone":"(08) 899 77666","public_email":"alawa.school@ntschools.net","contact_form_url":"http://www.alawaprimary.nt.edu.au","website_url":"http://www.alawaprimary.nt.edu.au","lat":-12.38022,"lon":130.87754},{"sector":"government","school_name":"Anula Primary School","suburb":"Anula","postcode":"0812","phone":"(08) 899 77500","public_email":"anula.admin@ntschools.net","contact_form_url":"https://www.anulaprimaryschool.com/general-information","website_url":"https://www.anulaprimaryschool.com/","lat":-12.39162,"lon":130.89369},{"sector":"government","school_name":"Bakewell Primary School","suburb":"Bakewell","postcode":"0832","phone":"(08) 899 77400","public_email":"admin.bakewell@education.nt.gov.au","contact_form_url":"https://bakewellprimary.com.au/contact/","website_url":"http://www.bakewellprimary.nt.edu.au","lat":-12.49362,"lon":130.99373},{"sector":"government","school_name":"Bees Creek Primary School","suburb":"Freds Pass","postcode":"0822","phone":"(08) 8983 3222","public_email":"bees.creek@education.nt.gov.au","contact_form_url":"","website_url":"http://beescreekschool.com","lat":-12.5408,"lon":131.0528},{"sector":"government","school_name":"Berry Springs Primary School","suburb":"Berry Springs","postcode":"0838","phone":"(08) 7923 0366","public_email":"berrysprings.primary@education.nt.gov.au","contact_form_url":"https://berryspringsprimary.nt.edu.au/","website_url":"http://www.berryspringsprimary.nt.edu.au","lat":-12.7159,"lon":130.98749},{"sector":"government","school_name":"Bradshaw Primary School","suburb":"Gillen","postcode":"0870","phone":"(08) 895 52100","public_email":"bradshaw.school@education.nt.gov.au","contact_form_url":"http://www.bradshawprimary.nt.edu.au/contact2bc2c58b","website_url":"http://www.bradshawprimary.nt.edu.au","lat":-23.7085,"lon":133.8595},{"sector":"government","school_name":"Braitling Primary School","suburb":"Braitling","postcode":"0870","phone":"(08) 895 85111","public_email":"admin.braitsch@education.nt.gov.au","contact_form_url":"https://braitlingps.nt.edu.au/contact/","website_url":"https://braitlingps.nt.edu.au/","lat":-23.677393,"lon":133.867691},{"sector":"government","school_name":"Casuarina Street Primary School","suburb":"Katherine East","postcode":"0850","phone":"(08) 897 33800","public_email":"defence.mentor@education.nt.gov.au","contact_form_url":"https://casuarinastreetprimary.nt.edu.au/contact-us/","website_url":"https://casuarinastreetprimary.nt.edu.au/","lat":-14.466,"lon":132.29644},{"sector":"government","school_name":"Clyde Fenton Primary School","suburb":"Katherine","postcode":"0850","phone":"(08) 897 33844","public_email":"admin.clydesch@education.nt.gov.au","contact_form_url":"https://cfs.nt.edu.au/contact-us18cfc994","website_url":"https://cfs.nt.edu.au/","lat":-14.4512,"lon":132.27042},{"sector":"government","school_name":"Driver Primary School","suburb":"Driver","postcode":"0830","phone":"(08) 8935 9000","public_email":"admin.driverprimary@education.nt.gov.au","contact_form_url":"https://www.driverprimary.nt.edu.au/copy-of-contacts-2023","website_url":"http://www.driverprimary.nt.edu.au","lat":-12.48559,"lon":130.97518},{"sector":"government","school_name":"Durack Primary School","suburb":"Durack","postcode":"0830","phone":"(08) 899 77555","public_email":"durack.school@education.nt.gov.au","contact_form_url":"https://durackschool.com.au/contact/","website_url":"http://www.durackschool.nt.edu.au","lat":-12.47586,"lon":130.97409},{"sector":"government","school_name":"Gillen Primary School","suburb":"Gillen","postcode":"0870","phone":"(08) 895 52155","public_email":"gillen.school@education.nt.gov.au","contact_form_url":"http://www.gillenprimary.nt.edu.au","website_url":"http://www.gillenprimary.nt.edu.au","lat":-23.708104,"lon":133.869042},{"sector":"government","school_name":"Girraween Primary School","suburb":"Girraween","postcode":"0836","phone":"(08) 8983 3300","public_email":"admin.girrasch@education.nt.gov.au","contact_form_url":"https://www.girraweenprimary.nt.edu.au/contacts","website_url":"http://www.girraweenprimary.nt.edu.au/","lat":-12.5224,"lon":131.103},{"sector":"government","school_name":"Gray Primary School","suburb":"Gray","postcode":"0830","phone":"(08) 8932 1700","public_email":"admin.graysch@education.nt.gov.au","contact_form_url":"http://www.grayprimary.nt.edu.au/","website_url":"http://www.grayprimary.nt.edu.au","lat":-12.48961,"lon":130.98015},{"sector":"government","school_name":"Howard Springs Primary School","suburb":"Howard Springs","postcode":"0835","phone":"(08) 898 30000","public_email":"howard.springs@education.nt.gov.au","contact_form_url":"https://www.howardspringsprimary.nt.edu.au/contact-us/","website_url":"http://www.howardspringsprimary.nt.edu.au/","lat":-12.4955,"lon":131.04519},{"sector":"government","school_name":"Humpty Doo Primary School","suburb":"Humpty Doo","postcode":"0836","phone":"(08) 792 30400","public_email":"admin.humptydoo@education.nt.gov.au","contact_form_url":"","website_url":"http://","lat":-12.576142,"lon":131.1027},{"sector":"government","school_name":"Jingili Primary School","suburb":"Jingili","postcode":"0810","phone":"(08) 898 37555","public_email":"jingili.school@education.nt.gov.au","contact_form_url":"","website_url":"http://www.jingiliprimary.nt.edu.au","lat":-12.38719,"lon":130.87423},{"sector":"government","school_name":"Karama Primary School","suburb":"Karama","postcode":"0812","phone":"(08) 898 37700","public_email":"karama.school@education.nt.gov.au","contact_form_url":"","website_url":"http://","lat":-12.39838,"lon":130.91438},{"sector":"government","school_name":"Katherine South Primary School","suburb":"Katherine South","postcode":"0850","phone":"(08) 8972 1277","public_email":"admin.kathesch@education.nt.gov.au","contact_form_url":"","website_url":"http://www.katherinesouthprimary.nt.edu.au","lat":-14.4802,"lon":132.255},{"sector":"government","school_name":"Larapinta Primary School","suburb":"Alice Springs","postcode":"0870","phone":"(08) 895 85155","public_email":"larapinta.primary@education.nt.gov.au","contact_form_url":"http://www.larapintaprimary.nt.edu.au/search","website_url":"http://www.larapintaprimary.nt.edu.au","lat":-23.696514,"lon":133.833392},{"sector":"government","school_name":"Larrakeyah Primary School","suburb":"Larrakeyah","postcode":"0820","phone":"(08) 8981 3211","public_email":"larrakeyah.admin@education.nt.gov.au","contact_form_url":"","website_url":"http://www.larrakeyahprimary.nt.edu.au","lat":-12.45787,"lon":130.82965},{"sector":"government","school_name":"Leanyer Primary School","suburb":"Leanyer","postcode":"0812","phone":"(08) 8927 4022","public_email":"admin.leanyer@education.nt.gov.au","contact_form_url":"","website_url":"http://www.leanyerschool.nt.edu.au","lat":-12.37524696,"lon":130.90042061},{"sector":"government","school_name":"Ludmilla Primary School","suburb":"Ludmilla","postcode":"0820","phone":"(08) 898 37888","public_email":"admin.ludmilla@education.nt.gov.au","contact_form_url":"https://www.ludmillaprimary.nt.edu.au/","website_url":"http://www.ludmillaprimary.nt.edu.au","lat":-12.42534,"lon":130.85556},{"sector":"government","school_name":"MacFarlane Primary School","suburb":"Katherine East","postcode":"0850","phone":"(08) 896 51700","public_email":"admin.macfasch@education.nt.gov.au","contact_form_url":"https://macfarlaneprimary.nt.edu.au","website_url":"http://www.macfarlaneprimary.nt.edu.au/","lat":-14.4666,"lon":132.28311},{"sector":"government","school_name":"Malak Primary School","suburb":"Malak","postcode":"0812","phone":"(08) 899 77600","public_email":"admin.malak@ntschools.net","contact_form_url":"https://www.malakprimary.nt.edu.au/","website_url":"http://www.malakprimary.nt.edu.au","lat":-12.39283,"lon":130.90309},{"sector":"government","school_name":"Manunda Terrace Primary School","suburb":"Karama","postcode":"0812","phone":"(08) 899 77366","public_email":"manunda.school@ntschools.net","contact_form_url":"https://www.manundaterraceprimaryschool.com/contact-us","website_url":"https://www.manundaterraceprimaryschool.com/","lat":-12.40311,"lon":130.91926},{"sector":"government","school_name":"Millner Primary School","suburb":"Millner","postcode":"0810","phone":"(08) 792 30333","public_email":"admin.millnerps@education.nt.gov.au","contact_form_url":"https://www.millnerprimary.nt.edu.au/contact/","website_url":"http://www.millnerprimary.nt.edu.au","lat":-12.390722,"lon":130.85947},{"sector":"government","school_name":"Moil Primary School","suburb":"Moil","postcode":"0810","phone":"(08) 898 37530","public_email":"admin.moilsch@education.nt.gov.au","contact_form_url":"https://www.moilschool.nt.edu.au/contact-us/","website_url":"http://www.moilschool.nt.edu.au","lat":-12.38794,"lon":130.88067},{"sector":"government","school_name":"Moulden Primary School","suburb":"Moulden","postcode":"0830","phone":"(08) 8930 5900","public_email":"mackilloopcollege@nt.catholic.edu.au","contact_form_url":"https://mackillopnt.catholic.edu.au/","website_url":"https://www.mackillopnt.catholic.edu.au/","lat":-12.5065,"lon":130.97113},{"sector":"government","school_name":"Nakara Primary School","suburb":"Nakara","postcode":"0810","phone":"(08) 8927 9823","public_email":"nakara.primary@education.nt.gov.au","contact_form_url":"https://www.nakaraprimary.nt.edu.au/","website_url":"https://www.nakaraprimary.nt.edu.au/","lat":-12.37014,"lon":130.87776},{"sector":"government","school_name":"Nhulunbuy Primary School","suburb":"Nhulunbuy","postcode":"0880","phone":"(08) 898 70022","public_email":"nps.frontoffice@education.nt.gov.au","contact_form_url":"https://www.nhulunbuyprimary.nt.edu.au/contact-us/","website_url":"https://www.nhulunbuyprimary.nt.edu.au/","lat":-12.1821,"lon":136.7841},{"sector":"government","school_name":"Nightcliff Primary School","suburb":"Nightcliff","postcode":"0810","phone":"(08) 8948 8488","public_email":"nightcliff.ps@education.nt.gov.au","contact_form_url":"https://www.nightcliffprimary.nt.edu.au/contact-us","website_url":"https://www.nightcliffprimary.nt.edu.au/","lat":-12.38057,"lon":130.84984},{"sector":"government","school_name":"Parap Primary School","suburb":"Parap","postcode":"0820","phone":"(08) 898 22922","public_email":"parapps.office@education.nt.gov.au","contact_form_url":"https://www.parapprimary.com.au/search","website_url":"http://www.parapprimary.com.au","lat":-12.42984,"lon":130.84432},{"sector":"government","school_name":"Ross Park Primary School","suburb":"Alice Springs","postcode":"0870","phone":"(08) 895 52000","public_email":"rosspark.school@education.nt.gov.au","contact_form_url":"https://rossparkprimary.nt.edu.au/index.php/contact-your-teacher/","website_url":"https://rossparkprimary.nt.edu.au/","lat":-23.6936,"lon":133.8919},{"sector":"government","school_name":"Sadadeen Primary School","suburb":"Alice Springs","postcode":"0870","phone":"(08) 895 52299","public_email":"sadadeen.primary@education.nt.gov.au","contact_form_url":"https://www.sadadeenprimary.nt.edu.au/","website_url":"https://www.sadadeenprimary.nt.edu.au/","lat":-23.701331,"lon":133.8975},{"sector":"government","school_name":"Stuart Park Primary School","suburb":"Stuart Park","postcode":"0820","phone":"(08) 899 77333","public_email":"stuartpark.school@education.nt.gov.au","contact_form_url":"https://stuartparkprimary.nt.edu.au/","website_url":"https://stuartparkprimary.nt.edu.au/","lat":-12.44091,"lon":130.8451},{"sector":"government","school_name":"Tennant Creek Primary School","suburb":"Tennant Creek","postcode":"0860","phone":"(08) 896 32424","public_email":"admin.tennasch@education.nt.gov.au","contact_form_url":"","website_url":"https://www.facebook.com/tennantcreekprimaryschoolcouncil/","lat":-19.6501,"lon":134.18925},{"sector":"government","school_name":"Wagaman Primary School","suburb":"Wagaman","postcode":"0810","phone":"(08) 8922 6011","public_email":"wagaman.school@education.nt.gov.au","contact_form_url":"http://www.wagamanprimary.nt.edu.au/index.php/contact","website_url":"http://www.wagamanprimary.nt.edu.au","lat":-12.37957,"lon":130.88474},{"sector":"government","school_name":"Wanguri Primary School","suburb":"Wanguri","postcode":"0810","phone":"(08) 8927 1655","public_email":"wanguri.prim@education.nt.gov.au","contact_form_url":"https://www.wanguriprimary.nt.edu.au/contact/","website_url":"http://wanguriprimary.nt.edu.au","lat":-12.37129,"lon":130.88711},{"sector":"government","school_name":"Woodroffe Primary School","suburb":"Woodroffe","postcode":"0830","phone":"(08) 898 37600","public_email":"woodroffe.ps@education.nt.gov.au","contact_form_url":"","website_url":"https://woodroffeps.nt.edu.au/","lat":-12.50617,"lon":130.98241},{"sector":"government","school_name":"Wulagi Primary School","suburb":"Wulagi","postcode":"0812","phone":"(08) 898 37800","public_email":"wulagi.primary@education.nt.gov.au","contact_form_url":"https://wulagiprimary.nt.edu.au/contact/","website_url":"https://wulagiprimary.nt.edu.au/","lat":-12.38335,"lon":130.89537},{"sector":"government","school_name":"Alyangula Area School","suburb":"Alyangula","postcode":"0885","phone":"(08) 8987 6366","public_email":"alyangula.admin@education.nt.gov.au","contact_form_url":"http://www.alyangula.nt.edu.au/site-search","website_url":"http://www.alyangula.nt.edu.au","lat":-13.84964,"lon":136.42011},{"sector":"government","school_name":"Batchelor Area School","suburb":"Batchelor","postcode":"0845","phone":"(08) 8976 0077","public_email":"batchelor.as@education.nt.gov.au","contact_form_url":"","website_url":"https://www.batchelorschool.com.au/","lat":-13.046103,"lon":131.033019},{"sector":"government","school_name":"Jabiru Area School","suburb":"Jabiru","postcode":"0886","phone":"(08) 8938 3333","public_email":"teach.det@education.nt.gov.au","contact_form_url":"https://app4.vision6.com.au/em/forms/subscribe.php?db=833291&s=826215&a=110991&k=nvC2NAaWEnq9wAj7eriWv7oIKfnhXNkUECJGj1YJqCk&va=5","website_url":"https://N/A","lat":-12.67577,"lon":132.83534},{"sector":"government","school_name":"Alekarenge School","suburb":"Ali Curung","postcode":"0872","phone":"(08) 8964 1957","public_email":"admin.alekacec@education.nt.gov.au","contact_form_url":"","website_url":"http://www.nationwide.com.au/alekarengeschool/","lat":-21.003806,"lon":134.405661},{"sector":"government","school_name":"Angurugu School","suburb":"Angurugu","postcode":"0822","phone":"(08) 8987 6355","public_email":"admin.angurcec@education.nt.gov.au","contact_form_url":"","website_url":"https://www.facebook.com/anguruguschool/","lat":-13.98253,"lon":136.45933},{"sector":"government","school_name":"Borroloola School","suburb":"Borroloola","postcode":"0854","phone":"(08) 896 51800","public_email":"admin.borrosch@education.nt.gov.au","contact_form_url":"https://www.borroloolaschool.nt.edu.au/","website_url":"https://www.borroloolaschool.nt.edu.au/","lat":-16.0582,"lon":136.30649},{"sector":"government","school_name":"Gapuwiyak School","suburb":"Gapuwiyak","postcode":"0880","phone":"(08) 8987 9122","public_email":"christopher.oneill@education.nt.gov.au","contact_form_url":"","website_url":"https://www.facebook.com/gapuwiyakschool/","lat":-12.50553,"lon":135.80806},{"sector":"government","school_name":"Gunbalanya School","suburb":"Gunbalanya","postcode":"0822","phone":"(08) 8979 0181","public_email":"admin.gunbacec@education.nt.gov.au","contact_form_url":"","website_url":"https://www.yourcareer.gov.au/resources/case-studies/gunbalanya-school-nt","lat":-12.32135,"lon":133.05709},{"sector":"government","school_name":"Kalkaringi School","suburb":"Kalkarindji","postcode":"0852","phone":"(08) 896 51888","public_email":"kalkaringi.admin@ntschools.net","contact_form_url":"https://kalkaringischool.com.au/Contact","website_url":"https://kalkaringischool.com.au/","lat":-17.44597,"lon":130.83233},{"sector":"government","school_name":"Lajamanu School","suburb":"Lajamanu","postcode":"0852","phone":"(08) 8975 0946","public_email":"teach.det@education.nt.gov.au","contact_form_url":"https://app4.vision6.com.au/em/forms/subscribe.php?db=833291&s=826215&a=110991&k=nvC2NAaWEnq9wAj7eriWv7oIKfnhXNkUECJGj1YJqCk&va=5","website_url":"https://n/a","lat":-18.3353,"lon":130.633981},{"sector":"government","school_name":"Maningrida College","suburb":"Maningrida","postcode":"0822","phone":"(08) 8979 5950","public_email":"admin.maningrida@education.nt.gov.au","contact_form_url":"https://www.maningridacollege.nt.edu.au/","website_url":"http://www.maningridacollege.nt.edu.au/","lat":-12.05041,"lon":134.22333},{"sector":"government","school_name":"Milingimbi School","suburb":"Milingimbi","postcode":"0822","phone":"(08) 8987 9902","public_email":"chris.hudson@education.nt.gov.au","contact_form_url":"","website_url":"https://www.facebook.com/p/Milingimbi-Community-Education-Centre-100077915658116/","lat":-12.1021,"lon":134.9201},{"sector":"government","school_name":"Ngukurr School","suburb":"Ngukurr","postcode":"0852","phone":"(08) 8975 4680","public_email":"ngukurr.cec@education.nt.gov.au","contact_form_url":"","website_url":"https://n/a","lat":-14.7285,"lon":134.733},{"sector":"government","school_name":"Numbulwar School","suburb":"Numbulwar","postcode":"0822","phone":"(08) 8975 4650","public_email":"numbulwar.school@education.nt.gov.au","contact_form_url":"","website_url":"https://n/a","lat":-14.27811,"lon":135.74119},{"sector":"government","school_name":"Ramingining School","suburb":"Ramingining","postcode":"0822","phone":"(08) 8979 7924","public_email":"teach.det@education.nt.gov.au","contact_form_url":"https://app4.vision6.com.au/em/forms/subscribe.php?db=833291&s=826215&a=110991&k=nvC2NAaWEnq9wAj7eriWv7oIKfnhXNkUECJGj1YJqCk&va=5","website_url":"https://n/a","lat":-12.32641,"lon":134.92619},{"sector":"government","school_name":"Shepherdson College","suburb":"Galiwinku","postcode":"0822","phone":"(08) 8987 9044","public_email":"principal.shepherdson@education.nt.gov.au","contact_form_url":"","website_url":"https://www.elcho.org/welcome","lat":-12.02856,"lon":135.56757},{"sector":"government","school_name":"Yirrkala School","suburb":"Yirrkala","postcode":"0880","phone":"(08) 898 71988","public_email":"admin.yirrkala@ntschools.net","contact_form_url":"","website_url":"https://www.facebook.com/yirrkalaschool/","lat":-12.25189,"lon":136.89452},{"sector":"government","school_name":"Yuendumu School","suburb":"Yuendumu","postcode":"0872","phone":"(08) 8956 4011","public_email":"reception.yuendumu@education.nt.gov.au","contact_form_url":"https://yuendumuschool.nt.edu.au/","website_url":"http://www.yuendumuschool.nt.edu.au","lat":-22.25565,"lon":131.796889},{"sector":"government","school_name":"Henbury School","suburb":"Tiwi","postcode":"0810","phone":"(08) 899 77077","public_email":"henbury.admin@education.nt.gov.au","contact_form_url":"http://www.henburyschool.org.au/site-search","website_url":"http://www.henburyschool.org.au/","lat":-12.36771254021427,"lon":130.88412789556298},{"sector":"government","school_name":"Nemarluk School","suburb":"Alawa","postcode":"0810","phone":"(08) 898 50400","public_email":"admin.nemarluk@education.nt.gov.au","contact_form_url":"http://nemarlukschool.com.au/","website_url":"http://nemarlukschool.com.au/","lat":-12.380037,"lon":130.874967},{"sector":"government","school_name":"Laynhapuy Homelands School","suburb":"Yirrkala","postcode":"0880","phone":"(08) 898 71224","public_email":"lhs.admin@ntschools.net","contact_form_url":"","website_url":"http://","lat":-12.2528,"lon":136.888},{"sector":"government","school_name":"Acacia Hill School","suburb":"Sadadeen","postcode":"0871","phone":"(08) 895 52222","public_email":"acaciahill.school@education.nt.gov.au","contact_form_url":"http://www.acaciahill.nt.edu.au/contact","website_url":"http://www.acaciahill.nt.edu.au/","lat":-23.7007,"lon":133.898},{"sector":"government","school_name":"Adelaide River School","suburb":"Adelaide River","postcode":"0846","phone":"(08) 8976 7034","public_email":"teach.det@education.nt.gov.au","contact_form_url":"https://app4.vision6.com.au/em/forms/subscribe.php?db=833291&s=826215&a=110991&k=nvC2NAaWEnq9wAj7eriWv7oIKfnhXNkUECJGj1YJqCk&va=5","website_url":"https://www.teachintheterritory.nt.gov.au/schools/adelaide-river-school","lat":-13.2371,"lon":131.10926},{"sector":"government","school_name":"Alcoota School","suburb":"Engawala","postcode":"0872","phone":"(08) 8956 9977","public_email":"teach.det@education.nt.gov.au","contact_form_url":"https://app4.vision6.com.au/em/forms/subscribe.php?db=833291&s=826215&a=110991&k=nvC2NAaWEnq9wAj7eriWv7oIKfnhXNkUECJGj1YJqCk&va=5","website_url":"https://n/a","lat":-22.80235,"lon":134.45452},{"sector":"government","school_name":"Alpurrurulam School","suburb":"Alpurrurulam","postcode":"4825","phone":"(07) 4748 4887","public_email":"teach.det@education.nt.gov.au","contact_form_url":"https://app4.vision6.com.au/em/forms/subscribe.php?db=833291&s=826215&a=110991&k=nvC2NAaWEnq9wAj7eriWv7oIKfnhXNkUECJGj1YJqCk&va=5","website_url":"https://n/a","lat":-20.98775,"lon":137.84839},{"sector":"government","school_name":"Amoonguna School","suburb":"Amoonguna","postcode":"0873","phone":"(08) 8952 3402","public_email":"teach.det@education.nt.gov.au","contact_form_url":"https://app4.vision6.com.au/em/forms/subscribe.php?db=833291&s=826215&a=110991&k=nvC2NAaWEnq9wAj7eriWv7oIKfnhXNkUECJGj1YJqCk&va=5","website_url":"https://n/a","lat":-23.767906,"lon":133.938539},{"sector":"government","school_name":"Ampilatwatja School","suburb":"Ampilatwatja","postcode":"0872","phone":"(08) 8956 9265","public_email":"teach.det@education.nt.gov.au","contact_form_url":"https://app4.vision6.com.au/em/forms/subscribe.php?db=833291&s=826215&a=110991&k=nvC2NAaWEnq9wAj7eriWv7oIKfnhXNkUECJGj1YJqCk&va=5","website_url":"https://n/a","lat":-21.65369,"lon":135.22478},{"sector":"government","school_name":"Areyonga School","suburb":"Areyonga","postcode":"0872","phone":"(08) 8956 7303","public_email":"anton.devaratnam@education.nt.gov.au","contact_form_url":"","website_url":"https://www.truelocal.com.au/business/areyonga-school/areyonga","lat":-24.0737,"lon":132.27011},{"sector":"government","school_name":"Barunga School","suburb":"Barunga","postcode":"0852","phone":"(08) 8975 4502","public_email":"teach.det@education.nt.gov.au","contact_form_url":"https://app4.vision6.com.au/em/forms/subscribe.php?db=833291&s=826215&a=110991&k=nvC2NAaWEnq9wAj7eriWv7oIKfnhXNkUECJGj1YJqCk&va=5","website_url":"https://n/a","lat":-14.52456,"lon":132.86603},{"sector":"government","school_name":"Belyuen School","suburb":"Belyuen","postcode":"0822","phone":"(08) 8978 5085","public_email":"laura.graham1@education.nt.gov.au","contact_form_url":"","website_url":"https://n/a","lat":-12.5393,"lon":130.701214},{"sector":"government","school_name":"Bonya School","suburb":"Anatye","postcode":"0872","phone":"(08) 8956 6352","public_email":"juliet.mokoto@education.nt.gov.au","contact_form_url":"","website_url":"https://n/a","lat":-22.77886,"lon":136.16675},{"sector":"government","school_name":"Bulla Camp School","suburb":"Baines","postcode":"0852","phone":"(08) 9167 8957","public_email":"teach.det@education.nt.gov.au","contact_form_url":"https://app4.vision6.com.au/em/forms/subscribe.php?db=833291&s=826215&a=110991&k=nvC2NAaWEnq9wAj7eriWv7oIKfnhXNkUECJGj1YJqCk&va=5","website_url":"https://n/a","lat":-15.9353,"lon":129.7122},{"sector":"government","school_name":"Bulman School","suburb":"Bulman Weemol","postcode":"0852","phone":"(08) 8975 4707","public_email":"teach.det@education.nt.gov.au","contact_form_url":"https://app4.vision6.com.au/em/forms/subscribe.php?db=833291&s=826215&a=110991&k=nvC2NAaWEnq9wAj7eriWv7oIKfnhXNkUECJGj1YJqCk&va=5","website_url":"https://n/a","lat":-13.66483,"lon":134.33036},{"sector":"government","school_name":"Canteen Creek School","suburb":"Canteen Creek","postcode":"0872","phone":"(08) 8964 1505","public_email":"teach.det@education.nt.gov.au","contact_form_url":"https://app4.vision6.com.au/em/forms/subscribe.php?db=833291&s=826215&a=110991&k=nvC2NAaWEnq9wAj7eriWv7oIKfnhXNkUECJGj1YJqCk&va=5","website_url":"https://n/a","lat":-20.644769,"lon":135.584506},{"sector":"government","school_name":"Douglas Daly School","suburb":"Douglas-Daly","postcode":"0822","phone":"(08) 8978 2836","public_email":"rosemary.sullivan@education.nt.gov.au","contact_form_url":"","website_url":"http://","lat":-13.8323,"lon":131.188},{"sector":"government","school_name":"Dundee Beach School","suburb":"Dundee Beach","postcode":"0840","phone":"(08) 8978 2212","public_email":"dundee.school@education.nt.gov.au","contact_form_url":"","website_url":"https://n/a","lat":-12.7514,"lon":130.378},{"sector":"government","school_name":"Elliott School","suburb":"Elliott","postcode":"0862","phone":"(08) 8969 2122","public_email":"kevin.gaskin@education.nt.gov.au","contact_form_url":"","website_url":"https://n/a","lat":-17.5553,"lon":133.54},{"sector":"government","school_name":"Epenarra School","suburb":"Wutunugurra","postcode":"0872","phone":"(08) 8964 1512","public_email":"teach.det@education.nt.gov.au","contact_form_url":"https://app4.vision6.com.au/em/forms/subscribe.php?db=833291&s=826215&a=110991&k=nvC2NAaWEnq9wAj7eriWv7oIKfnhXNkUECJGj1YJqCk&va=5","website_url":"https://n/a","lat":-20.46311,"lon":135.24972},{"sector":"government","school_name":"Finke School","suburb":"Finke","postcode":"0872","phone":"(08) 8956 0960","public_email":"finke.school@education.nt.gov.au","contact_form_url":"","website_url":"https://n/a","lat":-25.5821,"lon":134.578486},{"sector":"government","school_name":"Haasts Bluff School","suburb":"Haasts Bluff","postcode":"0872","phone":"(08) 8956 8550","public_email":"geoff.gillman@education.nt.gov.au","contact_form_url":"","website_url":"http://","lat":-23.44753,"lon":131.88003},{"sector":"government","school_name":"Harts Range School","suburb":"Atitjere","postcode":"0872","phone":"(08) 8956 9515","public_email":"teach.det@education.nt.gov.au","contact_form_url":"https://app4.vision6.com.au/em/forms/subscribe.php?db=833291&s=826215&a=110991&k=nvC2NAaWEnq9wAj7eriWv7oIKfnhXNkUECJGj1YJqCk&va=5","website_url":"https://n/a","lat":-22.9844,"lon":134.933},{"sector":"government","school_name":"Jilkminggan School","suburb":"Jilkminggan","postcode":"0852","phone":"(08) 8975 4896","public_email":"teach.det@education.nt.gov.au","contact_form_url":"https://app4.vision6.com.au/em/forms/subscribe.php?db=833291&s=826215&a=110991&k=nvC2NAaWEnq9wAj7eriWv7oIKfnhXNkUECJGj1YJqCk&va=5","website_url":"https://n/a","lat":-14.95402,"lon":133.30123},{"sector":"government","school_name":"Laramba School","suburb":"Laramba","postcode":"0872","phone":"(08) 8956 8771","public_email":"laramba.school@education.nt.gov.au","contact_form_url":"","website_url":"http://","lat":-22.533,"lon":132.75683},{"sector":"government","school_name":"Mamaruni School","suburb":"Minjilang","postcode":"0822","phone":"(08) 8979 0255","public_email":"josh.dean@education.nt.gov.au","contact_form_url":"","website_url":"http://www.mamarunischool.nt.edu.au/","lat":-11.14856,"lon":132.57775},{"sector":"government","school_name":"Mataranka School","suburb":"Mataranka","postcode":"0852","phone":"(08) 8975 4543","public_email":"teach.det@education.nt.gov.au","contact_form_url":"https://app4.vision6.com.au/em/forms/subscribe.php?db=833291&s=826215&a=110991&k=nvC2NAaWEnq9wAj7eriWv7oIKfnhXNkUECJGj1YJqCk&va=5","website_url":"https://n/a","lat":-14.921873,"lon":133.065136},{"sector":"government","school_name":"Mbunghara School","suburb":"Papunya","postcode":"0872","phone":"(08) 8956 8503","public_email":"mbunghara.school@education.nt.gov.au","contact_form_url":"","website_url":"https://bushtel.nt.gov.au/profile/102","lat":-23.29019,"lon":132.35687},{"sector":"government","school_name":"Middle Point School","suburb":"Middle Point","postcode":"0822","phone":"(08) 8988 1688","public_email":"middle.pt@education.nt.gov.au","contact_form_url":"http://www.middlepointschool.nt.edu.au/","website_url":"http://www.middlepointschool.nt.edu.au/","lat":-12.57599,"lon":131.31486},{"sector":"government","school_name":"Milikapiti School","suburb":"Milikapiti","postcode":"0822","phone":"(08) 8978 3960","public_email":"katrina.vanstraalen@education.nt.gov.au","contact_form_url":"","website_url":"https://n/a","lat":-11.4194,"lon":130.6711},{"sector":"government","school_name":"Milyakburra School","suburb":"Milyakburra","postcode":"0822","phone":"(08) 8987 6084","public_email":"teach.det@education.nt.gov.au","contact_form_url":"https://app4.vision6.com.au/em/forms/subscribe.php?db=833291&s=826215&a=110991&k=nvC2NAaWEnq9wAj7eriWv7oIKfnhXNkUECJGj1YJqCk&va=5","website_url":"https://n/a","lat":-13.7818,"lon":136.1956},{"sector":"government","school_name":"Minyerri School","suburb":"Miniyeri","postcode":"0852","phone":"(08) 8975 9972","public_email":"teach.det@education.nt.gov.au","contact_form_url":"https://app4.vision6.com.au/em/forms/subscribe.php?db=833291&s=826215&a=110991&k=nvC2NAaWEnq9wAj7eriWv7oIKfnhXNkUECJGj1YJqCk&va=5","website_url":"https://n/a","lat":-15.221225,"lon":134.08281},{"sector":"government","school_name":"Mount Allan School","suburb":"Yuelamu","postcode":"0872","phone":"(08) 8956 8860","public_email":"dowreen.lata@education.nt.gov.au","contact_form_url":"","website_url":"https://www.australiaedu.info/nt-mount-allan-school/","lat":-22.2566,"lon":132.2081},{"sector":"government","school_name":"Murray Downs School","suburb":"Ali Curung","postcode":"0872","phone":"(08) 8964 1951","public_email":"teach.det@education.nt.gov.au","contact_form_url":"https://app4.vision6.com.au/em/forms/subscribe.php?db=833291&s=826215&a=110991&k=nvC2NAaWEnq9wAj7eriWv7oIKfnhXNkUECJGj1YJqCk&va=5","website_url":"https://n/a","lat":-21.0477,"lon":134.67685},{"sector":"government","school_name":"Mutitjulu School","suburb":"Mutitjulu","postcode":"0872","phone":"(08) 8956 2547","public_email":"contact@nc.nt.edu.au","contact_form_url":"http://www.nyangatjatjaracollege.org.au/contact","website_url":"http://www.nyangatjatjaracollege.org.au/campuses/mutitjulu","lat":-25.3481,"lon":131.064},{"sector":"government","school_name":"Neutral Junction School","suburb":"Barrow Creek","postcode":"0872","phone":"(08) 8956 9754","public_email":"ruth.rawnsley@education.nt.gov.au","contact_form_url":"","website_url":"https://n/a","lat":-21.515756,"lon":133.994783},{"sector":"government","school_name":"Newcastle Waters School","suburb":"Newcastle Waters","postcode":"0862","phone":"(08) 8964 4566","public_email":"mia.roseblade-kuhn@education.nt.gov.au","contact_form_url":"","website_url":"https://n/a","lat":-17.37253,"lon":133.41007},{"sector":"government","school_name":"Nganmarriyanga School","suburb":"Nganmarriyanga","postcode":"0822","phone":"(08) 8978 2380","public_email":"tracy.brislane@education.nt.gov.au","contact_form_url":"","website_url":"http://","lat":-14.3528,"lon":129.882},{"sector":"government","school_name":"Ntaria School","suburb":"Hermannsburg","postcode":"0872","phone":"(08) 8956 7424","public_email":"ebony.arthur@education.nt.gov.au","contact_form_url":"","website_url":"https://www.facebook.com/people/Ntaria-School/100057140032771/","lat":-23.94262,"lon":132.776051},{"sector":"government","school_name":"Nyirripi School","suburb":"Nyirripi","postcode":"0872","phone":"(08) 8956 8880","public_email":"clarice.oleary@education.nt.gov.au","contact_form_url":"","website_url":"https://www.facebook.com/NyirrpiSchool/","lat":-22.64994,"lon":130.55281},{"sector":"government","school_name":"Papunya School","suburb":"Papunya","postcode":"0872","phone":"(08) 8956 8515","public_email":"papunya.admin@education.nt.gov.au","contact_form_url":"","website_url":"http://","lat":-23.20283,"lon":131.91031},{"sector":"government","school_name":"Peppimenarti School","suburb":"Peppimenarti","postcode":"0822","phone":"0447 395 828","public_email":"peppimenarti.school@education.nt.gov.au","contact_form_url":"","website_url":"https://www.peppimenartischool.nt.edu.au/","lat":-14.14978,"lon":130.077},{"sector":"government","school_name":"Nitjpurru School","suburb":"Nitjpurru","postcode":"0852","phone":"(08) 8975 0812","public_email":"teach.det@education.nt.gov.au","contact_form_url":"https://app4.vision6.com.au/em/forms/subscribe.php?db=833291&s=826215&a=110991&k=nvC2NAaWEnq9wAj7eriWv7oIKfnhXNkUECJGj1YJqCk&va=5","website_url":"https://n/a","lat":-16.81439,"lon":131.22025},{"sector":"government","school_name":"Pine Creek School","suburb":"Pine Creek","postcode":"0847","phone":"(08) 8976 1228","public_email":"jo.moon@education.nt.gov.au","contact_form_url":"","website_url":"https://directory.ntschools.net/#/schools/details/pinecsch","lat":-13.8219,"lon":131.836},{"sector":"government","school_name":"Pularumpi School","suburb":"Pirlangimpi","postcode":"0822","phone":"(08) 8978 3961","public_email":"kane.griffin@education.nt.gov.au","contact_form_url":"","website_url":"https://n/a","lat":-11.4036,"lon":130.417},{"sector":"government","school_name":"Robinson River School","suburb":"Robinson River","postcode":"0852","phone":"(08) 8975 9956","public_email":"samuel.sailor@education.nt.gov.au","contact_form_url":"","website_url":"https://www.facebook.com/profile.php?id=100057281446140","lat":-16.7597,"lon":136.981},{"sector":"government","school_name":"Stirling School","suburb":"Wilora","postcode":"0872","phone":"(08) 8956 9759","public_email":"tony.tree@education.nt.gov.au","contact_form_url":"","website_url":"https://n/a","lat":-21.73983,"lon":133.73247},{"sector":"government","school_name":"Ti Tree School","suburb":"Ti Tree","postcode":"0872","phone":"(08) 8956 9743","public_email":"teach.det@education.nt.gov.au","contact_form_url":"https://app4.vision6.com.au/em/forms/subscribe.php?db=833291&s=826215&a=110991&k=nvC2NAaWEnq9wAj7eriWv7oIKfnhXNkUECJGj1YJqCk&va=5","website_url":"https://n/a","lat":-22.12793,"lon":133.41976},{"sector":"government","school_name":"Timber Creek School","suburb":"Timber Creek","postcode":"0852","phone":"(08) 8975 0714","public_email":"teach.det@education.nt.gov.au","contact_form_url":"https://app4.vision6.com.au/em/forms/subscribe.php?db=833291&s=826215&a=110991&k=nvC2NAaWEnq9wAj7eriWv7oIKfnhXNkUECJGj1YJqCk&va=5","website_url":"https://n/a","lat":-15.6481,"lon":130.46513},{"sector":"government","school_name":"Tipperary Station School","suburb":"Tipperary","postcode":"0822","phone":"(08) 8978 2765","public_email":"rebecca.evans1@education.nt.gov.au","contact_form_url":"","website_url":"https://n/a","lat":-13.73335,"lon":131.04168},{"sector":"government","school_name":"Titjikala School","suburb":"Titjikala","postcode":"0872","phone":"(08) 8956 0927","public_email":"titjikala.school@education.nt.gov.au","contact_form_url":"https://www.goodschools.com.au/compare-schools/search","website_url":"https://www.goodschools.com.au/compare-schools/in-titjikala-872/titjikala-school","lat":-24.67244,"lon":134.07331},{"sector":"government","school_name":"Alyarrmandumanja Umbakumba School","suburb":"Umbakumba","postcode":"0822","phone":"(08) 8987 6793","public_email":"admin.umbakumba@education.nt.gov.au","contact_form_url":"https://www.alyarrmandumanja.nt.edu.au/","website_url":"https://www.alyarrmandumanja.nt.edu.au/","lat":-13.85975,"lon":136.81193},{"sector":"government","school_name":"Urapunga School","suburb":"Wilton","postcode":"0852","phone":"(08) 8975 4645","public_email":"teach.det@education.nt.gov.au","contact_form_url":"https://app4.vision6.com.au/em/forms/subscribe.php?db=833291&s=826215&a=110991&k=nvC2NAaWEnq9wAj7eriWv7oIKfnhXNkUECJGj1YJqCk&va=5","website_url":"https://n/a","lat":-14.710481,"lon":134.564289},{"sector":"government","school_name":"Wallace Rockhole School","suburb":"Wallace Rockhole","postcode":"0872","phone":"(08) 8956 7330","public_email":"teach.det@education.nt.gov.au","contact_form_url":"https://app4.vision6.com.au/em/forms/subscribe.php?db=833291&s=826215&a=110991&k=nvC2NAaWEnq9wAj7eriWv7oIKfnhXNkUECJGj1YJqCk&va=5","website_url":"https://n/a","lat":-24.1233,"lon":133.085237},{"sector":"government","school_name":"Walungurru School","suburb":"Kintore","postcode":"0872","phone":"(08)  8964 6056","public_email":"walungurru.school@education.nt.gov.au","contact_form_url":"https://directory.ntschools.net/#/schools/details/walunsch","website_url":"https://walungurruschool.nt.edu.au/","lat":-23.27712,"lon":129.38771},{"sector":"government","school_name":"Warruwi School","suburb":"Warruwi","postcode":"0822","phone":"(08) 8979 0222","public_email":"teach.det@education.nt.gov.au","contact_form_url":"https://app4.vision6.com.au/em/forms/subscribe.php?db=833291&s=826215&a=110991&k=nvC2NAaWEnq9wAj7eriWv7oIKfnhXNkUECJGj1YJqCk&va=5","website_url":"https://n/a","lat":-11.64742,"lon":133.38947},{"sector":"government","school_name":"Watiyawanu School","suburb":"Mount Liebig","postcode":"0872","phone":"(08) 8956 8555","public_email":"rachael.cole@education.nt.gov.au","contact_form_url":"","website_url":"https://n/a","lat":-23.266169,"lon":131.274489},{"sector":"government","school_name":"Willowra School","suburb":"Willowra","postcode":"0872","phone":"(08) 8956 8408","public_email":"willowra.school@education.nt.gov.au","contact_form_url":"","website_url":"https://n/a","lat":-21.244506,"lon":132.616106},{"sector":"government","school_name":"Rockhampton Downs School","suburb":"Tablelands","postcode":"0862","phone":"(08) 8964 4675","public_email":"cindy.thomson@education.nt.gov.au","contact_form_url":"","website_url":"https://www.facebook.com/wogyalacommunity/","lat":-18.947861,"lon":135.19435},{"sector":"government","school_name":"Woolianna School","suburb":"Daly River","postcode":"0822","phone":"(08) 8978 2984","public_email":"woolianna.school@education.nt.gov.au","contact_form_url":"","website_url":"http://","lat":-13.7109,"lon":130.681},{"sector":"government","school_name":"Wugularr School","suburb":"Beswick","postcode":"0852","phone":"(08) 8975 4529","public_email":"teach.det@education.nt.gov.au","contact_form_url":"https://app4.vision6.com.au/em/forms/subscribe.php?db=833291&s=826215&a=110991&k=nvC2NAaWEnq9wAj7eriWv7oIKfnhXNkUECJGj1YJqCk&va=5","website_url":"https://n/a","lat":-14.5614,"lon":133.118},{"sector":"government","school_name":"Yarralin School","suburb":"Yarralin","postcode":"0852","phone":"(08) 8975 0809","public_email":"teach.det@education.nt.gov.au","contact_form_url":"https://app4.vision6.com.au/em/forms/subscribe.php?db=833291&s=826215&a=110991&k=nvC2NAaWEnq9wAj7eriWv7oIKfnhXNkUECJGj1YJqCk&va=5","website_url":"https://n/a","lat":-16.44684,"lon":130.88179},{"sector":"government","school_name":"Yulara School","suburb":"Yulara","postcode":"0872","phone":"(08) 8956 2014","public_email":"yulara.school@education.nt.gov.au","contact_form_url":"https://yularaschool.nt.edu.au/","website_url":"https://yularaschool.nt.edu.au/","lat":-25.23514,"lon":130.98364},{"sector":"government","school_name":"Manyallaluk School","suburb":"Eva Valley","postcode":"0822","phone":"(08) 8975 4438","public_email":"teach.det@education.nt.gov.au","contact_form_url":"https://app4.vision6.com.au/em/forms/subscribe.php?db=833291&s=826215&a=110991&k=nvC2NAaWEnq9wAj7eriWv7oIKfnhXNkUECJGj1YJqCk&va=5","website_url":"https://n/a","lat":-14.2666,"lon":132.829},{"sector":"government","school_name":"Amanbidji School","suburb":"Timber Creek","postcode":"0852","phone":"(08) 9168 7380","public_email":"teach.det@education.nt.gov.au","contact_form_url":"https://app4.vision6.com.au/em/forms/subscribe.php?db=833291&s=826215&a=110991&k=nvC2NAaWEnq9wAj7eriWv7oIKfnhXNkUECJGj1YJqCk&va=5","website_url":"https://n/a","lat":-16.427522,"lon":129.617986},{"sector":"government","school_name":"Baniyala Garrangali School","suburb":"East Arnhem","postcode":"0822","phone":"(08) 8987 9114","public_email":"teach.det@education.nt.gov.au","contact_form_url":"https://app4.vision6.com.au/em/forms/subscribe.php?db=833291&s=826215&a=110991&k=nvC2NAaWEnq9wAj7eriWv7oIKfnhXNkUECJGj1YJqCk&va=5","website_url":"https://n/a","lat":-13.2004,"lon":136.2261},{"sector":"government","school_name":"Darwin Middle School","suburb":"The Gardens","postcode":"0820","phone":"(08) 894 25200","public_email":"admin.darwinmiddle@education.nt.gov.au","contact_form_url":"https://darwinmiddle.nt.edu.au/teacher-contacts/","website_url":"http://www.darwinmiddle.nt.edu.au","lat":-12.4384,"lon":130.836},{"sector":"government","school_name":"Centralian Middle School","suburb":"Alice Springs","postcode":"0870","phone":"(08) 895 52333","public_email":"centralian.middle@education.nt.gov.au","contact_form_url":"https://www.cms.nt.edu.au/site-search","website_url":"https://www.cms.nt.edu.au/","lat":-23.7091,"lon":133.866},{"sector":"catholic","school_name":"Ltyentye Apurte Catholic School","suburb":"Santa Teresa","postcode":"0872","phone":"(08) 8956 0937","public_email":"la.admin@nt.catholic.edu.au","contact_form_url":"http://www.lacecnt.catholic.edu.au/search-results","website_url":"http://www.lacecnt.catholic.edu.au/","lat":-24.12922,"lon":134.37461},{"sector":"catholic","school_name":"Murrupurtiyanuwu Catholic Primary School","suburb":"Wurrumiyanga","postcode":"0822","phone":"(08) 8978 3986","public_email":"kellie.mcginlay@nt.catholic.edu.au","contact_form_url":"https://www.mcpsbathurst.com.au/contact","website_url":"https://www.mcpsbathurst.com.au/","lat":-11.758671,"lon":130.638203},{"sector":"catholic","school_name":"Our Lady of the Sacred Heart Thamarrurr Catholic College","suburb":"Wadeye","postcode":"0822","phone":"(08) 8978 2477","public_email":"wa.adminbox@nt.catholic.edu.au","contact_form_url":"http://www.olshtnt.catholic.edu.au/communication/contact/","website_url":"http://www.olshtnt.catholic.edu.au/","lat":-14.2404,"lon":129.5205},{"sector":"catholic","school_name":"St Francis Xavier Catholic School","suburb":"Daly River","postcode":"0822","phone":"(08) 8978 2427","public_email":"admin.dalyriver@nt.catholic.edu.au","contact_form_url":"http://www.sfxnt.catholic.edu.au/search/","website_url":"http://www.sfxnt.catholic.edu.au/","lat":-13.75194,"lon":130.68797},{"sector":"catholic","school_name":"Xavier Catholic College","suburb":"Bathurst Island","postcode":"0822","phone":"(08) 8978 3970","public_email":"admin.xcec@nt.catholic.edu.au","contact_form_url":"http://www.xcecnt.catholic.edu.au/search-results","website_url":"http://www.xcecnt.catholic.edu.au/","lat":-11.757347,"lon":130.63894},{"sector":"independent","school_name":"The Essington School","suburb":"Rapid Creek","postcode":"0810","phone":"(08) 8985 0100","public_email":"administration@essington.nt.edu.au","contact_form_url":"http://www.essington.nt.edu.au/search","website_url":"http://www.essington.nt.edu.au/","lat":-12.38071,"lon":130.855996},{"sector":"independent","school_name":"Haileybury Rendall School","suburb":"Berrimah","postcode":"0828","phone":"(08) 8922 1611","public_email":"haileyburyrendall@haileybury.com.au","contact_form_url":"https://www.createsend.com/t/subscribeerror?description=","website_url":"http://www.haileyburyrendall.com.au","lat":-12.44235,"lon":130.92232},{"sector":"independent","school_name":"Sattler Christian College","suburb":"Freds Pass","postcode":"0822","phone":"7922 1500","public_email":"admin.scc@ntschools.net","contact_form_url":"https://scc.nt.edu.au/contact-us/","website_url":"http://www.scc.nt.edu.au","lat":-12.54134,"lon":131.05488},{"sector":"independent","school_name":"Living Waters Lutheran School","suburb":"Alice Springs","postcode":"0871","phone":"(08) 8950 0700","public_email":"living.waters@ntschools.net","contact_form_url":"http://www.livingwaterslutheranschool.nt.edu.au/contact-us/","website_url":"http://www.livingwaterslutheranschool.nt.edu.au","lat":-23.69766,"lon":133.83155},{"sector":"independent","school_name":"Marrara Christian College","suburb":"Marrara","postcode":"0812","phone":"(08) 8920 2000","public_email":"admin.mcc@ntschools.net","contact_form_url":"https://www.mcc.nt.edu.au/contact-us/","website_url":"http://www.mcc.nt.edu.au/","lat":-12.40983686,"lon":130.91763078},{"sector":"independent","school_name":"Palmerston Christian College","suburb":"Marlow Lagoon","postcode":"0830","phone":"(08) 7922 5600","public_email":"admin.pcc@ntschools.net","contact_form_url":"https://www.pcc.nt.edu.au/contact-us/","website_url":"https://www.pcc.nt.edu.au/","lat":-12.49057,"lon":130.9645},{"sector":"independent","school_name":"St Philip's College","suburb":"Alice Springs","postcode":"0871","phone":"(08) 8950 4511","public_email":"info@stphilips.nt.edu.au","contact_form_url":"https://www.stphilips.nt.edu.au/search","website_url":"http://www.stphilips.nt.edu.au/","lat":-23.690364169117,"lon":133.883128746033},{"sector":"independent","school_name":"Yirara College","suburb":"Alice Springs","postcode":"0872","phone":"(08) 8950 5644","public_email":"info@yirara.nt.edu.au","contact_form_url":"https://yirara.nt.edu.au/","website_url":"https://yirara.nt.edu.au/","lat":-23.762231,"lon":133.868978},{"sector":"independent","school_name":"Alice Springs Steiner School","suburb":"Ross","postcode":"0873","phone":"(08) 8952 3897","public_email":"office@alicesteiner.nt.edu.au","contact_form_url":"http://www.alicesteiner.nt.edu.au/search/","website_url":"http://www.alicesteiner.nt.edu.au","lat":-23.743824,"lon":133.881575},{"sector":"independent","school_name":"Nhulunbuy Christian College","suburb":"Nhulunbuy","postcode":"0881","phone":"(08) 8965 2900","public_email":"admin.mcc@ntschools.net","contact_form_url":"http://www.ncc.nt.edu.au/contact-us/","website_url":"http://www.ncc.nt.edu.au/","lat":-12.18901,"lon":136.79099},{"sector":"independent","school_name":"Nyangatjatjara College","suburb":"Yulara","postcode":"0872","phone":"(08) 8956 2257","public_email":"contact@nc.nt.edu.au","contact_form_url":"http://www.nyangatjatjaracollege.org.au/contact","website_url":"http://www.nyangatjatjaracollege.org.au/","lat":-25.228808,"lon":130.971231},{"sector":"independent","school_name":"Yipirinya School","suburb":"Alice Springs","postcode":"0871","phone":"(08) 8952 5633","public_email":"reception.yipirinya@yipirinya.nt.edu.au","contact_form_url":"https://www.yipirinya.com.au","website_url":"http://www.yipirinya.com.au","lat":-23.69766,"lon":133.8581},{"sector":"independent","school_name":"Milkwood Steiner School","suburb":"Berrimah","postcode":"0828","phone":"08 8947 1669","public_email":"admin@milkwood.nt.edu.au","contact_form_url":"","website_url":"http://www.milkwood.nt.edu.au","lat":-12.414473,"lon":130.922305},{"sector":"independent","school_name":"Gawa Christian School","suburb":"Galiwinku","postcode":"0822","phone":"8970 5212","public_email":"admin.gcs@ntschools.net","contact_form_url":"https://gcs.nt.edu.au/contact-us/","website_url":"http://www.gcs.nt.edu.au/","lat":-11.759762,"lon":135.903958},{"sector":"independent","school_name":"Tiwi College","suburb":"Tiwi Islands","postcode":"0822","phone":"08 89709024","public_email":"adminmanager@tiwicollege.nt.edu.au","contact_form_url":"http://www.tiwicollege.com/","website_url":"http://www.tiwicollege.com/","lat":-11.76667,"lon":130.88972},{"sector":"government","school_name":"Rosebery Primary School","suburb":"Rosebery","postcode":"0832","phone":"(08) 792 30100","public_email":"roseberyps.admin@education.nt.gov.au","contact_form_url":"http://roseberyprimary.nt.edu.au/search","website_url":"http://roseberyprimary.nt.edu.au/","lat":-12.51111,"lon":130.993714},{"sector":"government","school_name":"Nganambala School","suburb":"Peppimenarti","postcode":"0822","phone":"(08) 8978 2001","public_email":"alex.small@education.nt.gov.au","contact_form_url":"","website_url":"https://n/a","lat":-14.1701,"lon":130.32521},{"sector":"government","school_name":"Mulga Bore School","suburb":"Ti Tree","postcode":"0872","phone":"(08) 8956 9712","public_email":"info@australianschoolsdirectory.com.au","contact_form_url":"https://www.australianschoolsdirectory.com.au/contact.php","website_url":"https://www.australianschoolsdirectory.com.au/10110/mulga-bore-school-alice-springs","lat":-22.452287,"lon":134.211096},{"sector":"catholic","school_name":"St Joseph's Catholic Flexible School","suburb":"Alice Springs","postcode":"0870","phone":"","public_email":"stjosephsasflc@youthplus.edu.au","contact_form_url":"","website_url":"http://www.youthplus.edu.au/st-josephs-catholic-flc-alice-springs","lat":-23.703629,"lon":133.873888},{"sector":"catholic","school_name":"MacKillop Catholic College","suburb":"Johnston","postcode":"0832","phone":"08 8930 5757","public_email":"mackilloopcollege@nt.catholic.edu.au","contact_form_url":"https://mackillopnt.catholic.edu.au/","website_url":"http://www.mackillopnt.catholic.edu.au","lat":-12.49811605229597,"lon":131.00909330359656},{"sector":"government","school_name":"Forrest Parade School","suburb":"Bellamack","postcode":"0832","phone":"(08) 8997 7111","public_email":"admin.forrestps@education.nt.gov.au","contact_form_url":"https://forrestparadeschool.nt.edu.au/wp/","website_url":"https://forrestparadeschool.nt.edu.au/wp/","lat":-12.513504,"lon":130.980774},{"sector":"government","school_name":"Top End School of Flexible Learning","suburb":"Malak","postcode":"0812","phone":"(08) 899 77199","public_email":"admin.tesofl@education.nt.gov.au","contact_form_url":"https://topendschoolofflexiblelearning.nt.edu.au","website_url":"https://topendschoolofflexiblelearning.nt.edu.au","lat":-12.396194,"lon":130.904415},{"sector":"catholic","school_name":"Mother Teresa Catholic Primary School","suburb":"Zuccoli","postcode":"0832","phone":"(08) 7969 5600","public_email":"admin.mtcps@nt.catholic.edu.au","contact_form_url":"https://www.mtcpsnt.catholic.edu.au/contact/","website_url":"https://www.mtcpsnt.catholic.edu.au/","lat":-12.509629,"lon":131.005781},{"sector":"government","school_name":"Palmerston College","suburb":"Driver","postcode":"0830","phone":"(08) 899 77999","public_email":"palmerston.college@education.nt.gov.au","contact_form_url":"https://www.palmerstoncollege.nt.edu.au/","website_url":"https://www.palmerstoncollege.nt.edu.au/","lat":-12.49487,"lon":130.97198},{"sector":"independent","school_name":"Nawarddeken Academy Kabulwarnamyo School","suburb":"West Arnhem Land","postcode":"0822","phone":"","public_email":"admin@nawarddeken.org.au","contact_form_url":"https://nawarddeken.org.au/contact/","website_url":"https://www.nawarddekenacademy.com","lat":-12.764671,"lon":133.845033},{"sector":"government","school_name":"Zuccoli Primary School","suburb":"Zuccoli","postcode":"0830","phone":"(08) 792 30222","public_email":"zuccoliprimary@education.nt.gov.au","contact_form_url":"https://zuccoliprimary.nt.edu.au/site-search","website_url":"https://zuccoliprimary.nt.edu.au","lat":-12.51105,"lon":131.006152},{"sector":"independent","school_name":"Dhupuma Barker","suburb":"East Arnhem","postcode":"0880","phone":"(08) 8438 7201","public_email":"reception@barker.nsw.edu.au","contact_form_url":"https://www.barker.college/search-result/","website_url":"https://www.barker.college/about-barker/indigenous-education/dhupuma-barker/","lat":-12.21816265,"lon":136.7055423},{"sector":"independent","school_name":"Nawarddeken Academy Mamadawerre School","suburb":"West Arnhem Land","postcode":"0886","phone":"0459 216 141","public_email":"admin@nawarddeken.org.au","contact_form_url":"https://nawarddeken.org.au/contact/","website_url":"https://www.nawarddekenacademy.com","lat":-12.25745447,"lon":133.523957},{"sector":"independent","school_name":"Nawarddeken Academy Manmoyi School","suburb":"West Arnhem Land","postcode":"0886","phone":"0459 216 141","public_email":"admin@nawarddeken.org.au","contact_form_url":"https://nawarddeken.org.au/contact/","website_url":"https://www.nawarddekenacademy.com","lat":-12.54418519,"lon":134.1134967},{"sector":"independent","school_name":"Australian International Islamic College Darwin","suburb":"Berrimah","postcode":"0828","phone":"","public_email":"admin@aiic.qld.edu.au","contact_form_url":"https://aiic.qld.edu.au/contact-us/","website_url":"https://aiic.qld.edu.au/our-campuses/#Darwin-Campus","lat":-12.41994528,"lon":130.9175261},{"sector":"independent","school_name":"SEDA College NT","suburb":"Fannie Bay","postcode":"0820","phone":"1300 337 332","public_email":"info@sedacollege.nt.edu.au","contact_form_url":"https://seda.nt.edu.au/search","website_url":"https://seda.nt.edu.au","lat":-12.42397113,"lon":130.8377671},{"sector":"independent","school_name":"Nawarddeken Academy Kunmayali School","suburb":"West Arnhem Land","postcode":"0822","phone":"0459 216 141","public_email":"admin@nawarddeken.org.au","contact_form_url":"https://nawarddeken.org.au/contact/","website_url":"https://nawarddeken.org.au/","lat":-12.764670372009276,"lon":133.84500122070312}]