[{"sector":"independent","school_name":"Sunrise Christian School Fullarton","suburb":"Fullarton","postcode":"5063","phone":"","public_email":"info@sunrise.sa.edu.au","contact_form_url":"https://sunrise.sa.edu.au/search/results","website_url":"http://www.sunrise.sa.edu.au","lat":-34.954499,"lon":138.621828},{"sector":"government","school_name":"Port Neill Primary School","suburb":"Port Neill","postcode":"5604","phone":"","public_email":"dl.0361.info@schools.sa.edu.au","contact_form_url":"https://ptneill.sa.edu.au/","website_url":"http://www.ptneill.sa.edu.au","lat":-34.11700739,"lon":136.34277034},{"sector":"government","school_name":"Thebarton Senior College","suburb":"Torrensville","postcode":"5031","phone":"","public_email":"","contact_form_url":"","website_url":"http://www.tsc.sa.edu.au","lat":-34.917275,"lon":138.562772},{"sector":"independent","school_name":"Sunrise Christian School Marion","suburb":"Marion","postcode":"5043","phone":"","public_email":"info@sunrise.sa.edu.au","contact_form_url":"https://sunrise.sa.edu.au/search/results","website_url":"https://sunrise.sa.edu.au/marion/","lat":-35.016798,"lon":138.557341},{"sector":"independent","school_name":"Muirden Senior College","suburb":"Adelaide","postcode":"5000","phone":"","public_email":"muirden@muirden.sa.edu.au","contact_form_url":"http://www.muirden.sa.edu.au/#wpcf7-f18116-p15676-o1","website_url":"http://www.muirden.sa.edu.au","lat":-34.933349,"lon":138.600554},{"sector":"catholic","school_name":"Sacred Heart College","suburb":"Somerton Park","postcode":"5044","phone":"","public_email":"enquiries@shc.sa.edu.au","contact_form_url":"https://www.shc.sa.edu.au/","website_url":"http://www.shc.sa.edu.au","lat":-34.9921,"lon":138.5291},{"sector":"government","school_name":"Northern Adelaide Senior College","suburb":"Elizabeth","postcode":"5112","phone":"","public_email":"","contact_form_url":"","website_url":"http://www.northernadelaidesc.sa.edu.au","lat":-34.71345547,"lon":138.67101822},{"sector":"government","school_name":"Marden Senior College","suburb":"Marden","postcode":"5070","phone":"","public_email":"msc.info494@schools.sa.edu.au","contact_form_url":"https://msc.sa.edu.au","website_url":"https://www.msc.sa.edu.au","lat":-34.891954,"lon":138.63523},{"sector":"government","school_name":"Port Lincoln Junior Primary School","suburb":"Port Lincoln","postcode":"5606","phone":"","public_email":"dl.1277.info@schools.sa.edu.au","contact_form_url":"https://lincolnjp.sa.edu.au/contact/","website_url":"http://www.lincolnjp.sa.edu.au","lat":-34.724303,"lon":135.857806},{"sector":"government","school_name":"Youth Education Centre","suburb":"Cavan","postcode":"5072","phone":"","public_email":"dl.0195.info@schools.sa.edu.au","contact_form_url":"https://yec.sa.edu.au/contact-us/","website_url":"http://www.yec.sa.edu.au","lat":-34.914575,"lon":138.6853},{"sector":"government","school_name":"Australian Science and Mathematics School","suburb":"Bedford Park","postcode":"5042","phone":"","public_email":"info@asms.sa.edu.au","contact_form_url":"https://asms.sa.edu.au/contact/","website_url":"https://www.asms.sa.edu.au/","lat":-35.024872,"lon":138.573379},{"sector":"independent","school_name":"University Senior College at Adelaide University","suburb":"Adelaide University","postcode":"5005","phone":"","public_email":"","contact_form_url":"https://adelaideuni.edu.au/search/","website_url":"http://www.usc.adelaide.edu.au","lat":-34.8972,"lon":138.5717},{"sector":"catholic","school_name":"St Patrick's Technical College","suburb":"Edinburgh North","postcode":"5113","phone":"","public_email":"","contact_form_url":"","website_url":"http://www.stpatstech.sa.edu.au","lat":-34.710863,"lon":138.664167},{"sector":"independent","school_name":"Trinity College Senior","suburb":"Evanston South","postcode":"5116","phone":"","public_email":"foundation@trinity.sa.edu.au","contact_form_url":"https://www.trinity.sa.edu.au/search/results","website_url":"http://www.trinity.sa.edu.au","lat":-34.63298246,"lon":138.73444239},{"sector":"catholic","school_name":"Nazareth Catholic College","suburb":"Flinders Park","postcode":"5025","phone":"","public_email":"","contact_form_url":"","website_url":"https://www.nazareth.org.au/","lat":-34.911249999999995,"lon":138.53505},{"sector":"independent","school_name":"Pinnacle College","suburb":"Elizabeth East","postcode":"5112","phone":"","public_email":"elizabetheast@pinnacle.sa.edu.au","contact_form_url":"https://pinnacle.sa.edu.au","website_url":"http://www.pinnacle.sa.edu.au","lat":-34.73278333333334,"lon":138.67305},{"sector":"government","school_name":"John Hartley School B-6","suburb":"Smithfield Plains","postcode":"5114","phone":"","public_email":"dl.1901_info@schools.sa.edu.au","contact_form_url":"https://hartley.sa.edu.au/contact-us/","website_url":"http://www.hartley.sa.edu.au","lat":-34.680413,"lon":138.673586},{"sector":"government","school_name":"Coromandel Valley Primary School","suburb":"Coromandel Valley","postcode":"5051","phone":"","public_email":"","contact_form_url":"http://www.coromandps.sa.edu.au/site-search","website_url":"http://www.coromandps.sa.edu.au","lat":-35.033562,"lon":138.626758},{"sector":"government","school_name":"Cowandilla Primary School","suburb":"Cowandilla","postcode":"5033","phone":"","public_email":"dl.0106.info@schools.sa.edu.au","contact_form_url":"http://www.cowandilla.sa.edu.au/contact-us.htm","website_url":"http://www.cowandilla.sa.edu.au","lat":-34.93416,"lon":138.559877},{"sector":"government","school_name":"Crafers Primary School","suburb":"Crafers","postcode":"5152","phone":"","public_email":"dl.0107_info@schools.sa.edu.au","contact_form_url":"http://www.crafersps.sa.edu.au/#gf_1","website_url":"http://www.crafersps.sa.edu.au","lat":-34.993387,"lon":138.71348},{"sector":"government","school_name":"Crystal Brook Primary School","suburb":"Crystal Brook","postcode":"5523","phone":"","public_email":"dl.0111.admin@schools.sa.edu.au","contact_form_url":"https://crystalbps.sa.edu.au/","website_url":"http://www.crystalbps.sa.edu.au","lat":-33.352948,"lon":138.213543},{"sector":"government","school_name":"Curramulka Primary School","suburb":"Curramulka","postcode":"5580","phone":"","public_email":"dl.0114.info@schools.sa.edu.au","contact_form_url":"https://curramulka.sa.edu.au/","website_url":"https://curramulka.sa.edu.au/","lat":-34.695502,"lon":137.713697},{"sector":"government","school_name":"Murray Bridge Special School","suburb":"Murray Bridge","postcode":"5253","phone":"","public_email":"vicki.smith551@schools.sa.edu.au","contact_form_url":"http://www.mbss.sa.edu.au/contact.htm","website_url":"http://www.mbss.sa.edu.au","lat":-35.116966,"lon":139.271426},{"sector":"government","school_name":"Gilles Street Primary School","suburb":"Adelaide","postcode":"5000","phone":"","public_email":"","contact_form_url":"","website_url":"http://www.gillesstps.sa.edu.au","lat":-34.93449,"lon":138.604464},{"sector":"government","school_name":"Echunga Primary and Preschool","suburb":"Echunga","postcode":"5153","phone":"","public_email":"dl.0123.info@schools.sa.edu.au","contact_form_url":"https://echungaps.sa.edu.au/contact/","website_url":"http://www.echungaps.sa.edu.au","lat":-35.09763397,"lon":138.79139351},{"sector":"government","school_name":"Eden Hills Primary School","suburb":"Eden Hills","postcode":"5050","phone":"","public_email":"dl.0124.info@schools.sa.edu.au","contact_form_url":"http://www.edenhillps.sa.edu.au/site-search","website_url":"http://www.edenhillps.sa.edu.au","lat":-35.020546,"lon":138.595317},{"sector":"government","school_name":"Edwardstown Primary School","suburb":"Melrose Park","postcode":"5039","phone":"","public_email":"dl.0127.info@schools.sa.edu.au","contact_form_url":"https://edwardps.sa.edu.au/","website_url":"http://www.edwardps.sa.edu.au","lat":-34.978729,"lon":138.57801},{"sector":"government","school_name":"Elliston Area School","suburb":"Elliston","postcode":"5670","phone":"","public_email":"","contact_form_url":"","website_url":"http://www.ellistonas.sa.edu.au","lat":-33.644153,"lon":134.892451},{"sector":"government","school_name":"Norwood Primary School","suburb":"Norwood","postcode":"5067","phone":"","public_email":"dl.0131.admin@schools.sa.edu.au","contact_form_url":"https://www.norwoodps.sa.edu.au/contact/","website_url":"http://www.norwoodps.sa.edu.au","lat":-34.922403,"lon":138.63167},{"sector":"government","school_name":"Flinders Park Primary School","suburb":"Flinders Park","postcode":"5025","phone":"","public_email":"dl.0135.info@schools.sa.edu.au","contact_form_url":"http://www.flindspkps.sa.edu.au/Contact.html","website_url":"http://www.flindspkps.sa.edu.au","lat":-34.91064,"lon":138.548871},{"sector":"government","school_name":"Lenswood Primary School","suburb":"Lenswood","postcode":"5240","phone":"","public_email":"dl.0136.info@schools.sa.edu.au","contact_form_url":"http://www.lenswoodps.sa.edu.au","website_url":"http://www.lenswoodps.sa.edu.au","lat":-34.922274,"lon":138.823468},{"sector":"government","school_name":"Frances Primary School","suburb":"Frances","postcode":"5262","phone":"","public_email":"dl.0138.info@schools.sa.edu.au","contact_form_url":"http://www.francesps.sa.edu.au/contact.htm","website_url":"http://www.francesps.sa.edu.au","lat":-36.70864019,"lon":140.95684181},{"sector":"government","school_name":"Freeling Primary School","suburb":"Freeling","postcode":"5372","phone":"","public_email":"","contact_form_url":"","website_url":"http://www.freelingps.sa.edu.au","lat":-34.457842,"lon":138.811414},{"sector":"government","school_name":"Gawler Primary School","suburb":"Gawler","postcode":"5118","phone":"","public_email":"dl.0141.info@schools.sa.edu.au","contact_form_url":"http://www.gawlerps.sa.edu.au/search","website_url":"http://www.gawlerps.sa.edu.au/","lat":-34.597541,"lon":138.740692},{"sector":"government","school_name":"Evanston Gardens Primary School","suburb":"Evanston Gardens","postcode":"5116","phone":"","public_email":"","contact_form_url":"","website_url":"http://www.evangdns.sa.edu.au/","lat":-34.623986,"lon":138.720025},{"sector":"government","school_name":"Gladstone Primary School","suburb":"Gladstone","postcode":"5473","phone":"","public_email":"dl.0147.info@schools.sa.edu.au","contact_form_url":"https://gladstoneps.sa.edu.au/","website_url":"http://www.gladstoneps.sa.edu.au","lat":-33.266137,"lon":138.350584},{"sector":"government","school_name":"Glenburnie Primary School","suburb":"Glenburnie","postcode":"5291","phone":"","public_email":"","contact_form_url":"","website_url":"http://www.glenburnps.sa.edu.au","lat":-37.84041,"lon":140.863876},{"sector":"government","school_name":"Glen Osmond Primary School","suburb":"Myrtle Bank","postcode":"5064","phone":"","public_email":"dl.0152.info@schools.sa.edu.au","contact_form_url":"https://glenosps.sa.edu.au/contact-us/","website_url":"http://www.glenosps.sa.edu.au","lat":-34.957051,"lon":138.637255},{"sector":"government","school_name":"Glossop Community School","suburb":"Glossop","postcode":"5344","phone":"","public_email":"dl.0153.info@schools.sa.edu.au","contact_form_url":"https://glossopps.sa.edu.au/","website_url":"http://www.glossopps.sa.edu.au/","lat":-34.271342,"lon":140.524768},{"sector":"government","school_name":"Goodwood Primary School","suburb":"Goodwood","postcode":"5034","phone":"","public_email":"dl.0156.info@schools.sa.edu.au","contact_form_url":"https://www.goodwoodps.sa.edu.au/","website_url":"http://www.goodwoodps.sa.edu.au","lat":-34.951478,"lon":138.588905},{"sector":"government","school_name":"Goolwa Primary School","suburb":"Goolwa","postcode":"5214","phone":"","public_email":"dl.0157.info@schools.sa.edu.au","contact_form_url":"http://www.goolwaps.sa.edu.au/search","website_url":"http://www.goolwaps.sa.edu.au","lat":-35.497553,"lon":138.780252},{"sector":"government","school_name":"Greenock Primary School","suburb":"Greenock","postcode":"5360","phone":"","public_email":"dl.0160.info@schools.sa.edu.au","contact_form_url":"https://greenockps.sa.edu.au/contact-us/","website_url":"http://www.greenockps.sa.edu.au","lat":-34.459939,"lon":138.921793},{"sector":"government","school_name":"Gumeracha Primary School","suburb":"Gumeracha","postcode":"5233","phone":"","public_email":"dl.0162.info@schools.sa.edu.au","contact_form_url":"https://gumerachr7.sa.edu.au/contact-us/","website_url":"http://www.gumerachr7.sa.edu.au","lat":-34.824981,"lon":138.880956},{"sector":"government","school_name":"Hahndorf Primary School","suburb":"Hahndorf","postcode":"5245","phone":"","public_email":"","contact_form_url":"","website_url":"http://www.hahndorfps.sa.edu.au","lat":-35.027474,"lon":138.810676},{"sector":"government","school_name":"Hamley Bridge Primary School","suburb":"Hamley Bridge","postcode":"5401","phone":"","public_email":"dl.0167.info@schools.sa.edu.au","contact_form_url":"https://hamleybridgeps.sa.edu.au/contact-us/","website_url":"http://www.hamleybridgeps.sa.edu.au","lat":-34.354549,"lon":138.684929},{"sector":"government","school_name":"Rose Park Primary School","suburb":"Rose Park","postcode":"5067","phone":"","public_email":"dl.0169.info@schools.sa.edu.au","contact_form_url":"https://roseparkps.sa.edu.au/","website_url":"http://www.roseparkps.sa.edu.au","lat":-34.93161,"lon":138.628893},{"sector":"government","school_name":"Happy Valley Primary School","suburb":"Happy Valley","postcode":"5159","phone":"","public_email":"dl.0171.info@schools.sa.edu.au","contact_form_url":"https://happyvalley.sa.edu.au/","website_url":"http://www.happyvalley.sa.edu.au","lat":-35.086923,"lon":138.583583},{"sector":"government","school_name":"Hawker Area School","suburb":"Hawker","postcode":"5434","phone":"","public_email":"dl.0175.info@schools.sa.edu.au","contact_form_url":"http://www.hawkeras.sa.edu.au/contact","website_url":"http://www.hawkeras.sa.edu.au","lat":-31.89042,"lon":138.427892},{"sector":"government","school_name":"Heathfield Primary School","suburb":"Heathfield","postcode":"5153","phone":"","public_email":"","contact_form_url":"","website_url":"http://www.heathfieldps.sa.edu.au/","lat":-35.029961,"lon":138.727279},{"sector":"government","school_name":"Henley Beach Primary School","suburb":"Henley Beach South","postcode":"5022","phone":"","public_email":"dl.0177.info@schools.sa.edu.au","contact_form_url":"https://henleyps.sa.edu.au/contact-us/","website_url":"http://www.henleyps.sa.edu.au","lat":-34.929734,"lon":138.499429},{"sector":"government","school_name":"North Adelaide Primary School","suburb":"North Adelaide","postcode":"5006","phone":"","public_email":"dl.0179.admin@schools.sa.edu.au","contact_form_url":"https://nthadelaideps.sa.edu.au/contact-us/","website_url":"http://www.nthadelaideps.sa.edu.au","lat":-34.905096,"lon":138.597558},{"sector":"government","school_name":"Jervois Primary School","suburb":"Jervois","postcode":"5259","phone":"","public_email":"dl.0194.info@schools.sa.edu.au","contact_form_url":"https://www.jervoisps.sa.edu.au/","website_url":"http://www.jervoisps.sa.edu.au","lat":-35.266177,"lon":139.437094},{"sector":"government","school_name":"Kalangadoo Primary School","suburb":"Kalangadoo","postcode":"5278","phone":"","public_email":"","contact_form_url":"","website_url":"http://www.kdoops.sa.edu.au","lat":-37.56535658,"lon":140.69556079},{"sector":"government","school_name":"Kangarilla Primary School","suburb":"Kangarilla","postcode":"5157","phone":"","public_email":"","contact_form_url":"","website_url":"http://www.kangaps.sa.edu.au","lat":-35.147815,"lon":138.659484},{"sector":"government","school_name":"Kapunda Primary School","suburb":"Kapunda","postcode":"5373","phone":"","public_email":"dl.0200.info@schools.sa.edu.au","contact_form_url":"https://www.kapundaps.sa.edu.au/","website_url":"http://www.kapundaps.sa.edu.au","lat":-34.337884,"lon":138.918053},{"sector":"government","school_name":"Alberton Primary School","suburb":"Queenstown","postcode":"5014","phone":"","public_email":"dl.0202.info@schools.sa.edu.au","contact_form_url":"https://albertonps.sa.edu.au/contact-us/","website_url":"http://www.albertonps.sa.edu.au","lat":-34.862679,"lon":138.512645},{"sector":"government","school_name":"Kersbrook Primary School","suburb":"Kersbrook","postcode":"5231","phone":"","public_email":"","contact_form_url":"","website_url":"http://www.kersbrookps.sa.edu.au","lat":-34.782369,"lon":138.849721},{"sector":"government","school_name":"Keyneton Primary School","suburb":"Keyneton","postcode":"5353","phone":"","public_email":"dl.0205.info@schools.sa.edu.au","contact_form_url":"https://keynetonps.sa.edu.au/contact-us/","website_url":"http://www.keynetonps.sa.edu.au","lat":-34.554333,"lon":139.1338},{"sector":"government","school_name":"Kilkenny Primary School","suburb":"West Croydon","postcode":"5008","phone":"","public_email":"","contact_form_url":"https://www.kilkennyp6.sa.edu.au/contact-us/","website_url":"https://www.kilkennyp6.sa.edu.au/","lat":-34.890875,"lon":138.552927},{"sector":"government","school_name":"Kingston-on-Murray Primary School","suburb":"Kingston On Murray","postcode":"5331","phone":"","public_email":"dl.0209.info@schools.sa.edu.au","contact_form_url":"https://komps.sa.edu.au/contact-us/","website_url":"http://www.komps.sa.edu.au","lat":-34.222619,"lon":140.346866},{"sector":"government","school_name":"Aldgate Primary School","suburb":"Aldgate","postcode":"5154","phone":"","public_email":"","contact_form_url":"","website_url":"http://www.aldgateps.sa.edu.au/","lat":-35.019502,"lon":138.748939},{"sector":"government","school_name":"Kongorong Primary School","suburb":"Kongorong","postcode":"5291","phone":"","public_email":"","contact_form_url":"","website_url":"http://www.kongoc7.sa.edu.au","lat":-37.902247,"lon":140.561148},{"sector":"government","school_name":"Koolunga Primary School","suburb":"Koolunga","postcode":"5464","phone":"","public_email":"","contact_form_url":"","website_url":"http://www.koolungaps.sa.edu.au","lat":-33.580835,"lon":138.335026},{"sector":"government","school_name":"Mid North Education Centre","suburb":"Port Pirie","postcode":"5540","phone":"","public_email":"dl.0214.info@schools.sa.edu.au","contact_form_url":"https://midnorthec.sa.edu.au/contact-us/","website_url":"https://midnorthec.sa.edu.au/","lat":-33.17503,"lon":138.005415},{"sector":"government","school_name":"Largs Bay School","suburb":"Largs Bay","postcode":"5016","phone":"","public_email":"dl.0219.info@schools.sa.edu.au","contact_form_url":"http://www.largsbayr7.sa.edu.au/contact-us/","website_url":"http://www.largsbayr7.sa.edu.au","lat":-34.823666,"lon":138.494282},{"sector":"government","school_name":"Laura Primary School","suburb":"Laura","postcode":"5480","phone":"","public_email":"dl.0220.info@schools.sa.edu.au","contact_form_url":"http://www.lauraps.sa.edu.au/site-search","website_url":"http://www.lauraps.sa.edu.au","lat":-33.18682857,"lon":138.30449459},{"sector":"government","school_name":"Le Fevre Peninsula Primary School","suburb":"Birkenhead","postcode":"5015","phone":"","public_email":"dl.0221.info@schools.sa.edu.au","contact_form_url":"http://www.lefevreps.sa.edu.au/site-search","website_url":"http://www.lefevreps.sa.edu.au","lat":-34.840072,"lon":138.495412},{"sector":"government","school_name":"Aldinga Beach Primary School","suburb":"Aldinga","postcode":"5173","phone":"","public_email":"","contact_form_url":"","website_url":"http://www.aldingar7.sa.edu.au/","lat":-35.269294,"lon":138.461896},{"sector":"government","school_name":"Light Pass Primary School","suburb":"Light Pass","postcode":"5355","phone":"","public_email":"dl.0223.info@schools.sa.edu.au","contact_form_url":"https://lightpassps.sa.edu.au/contact-us/","website_url":"http://www.lightpassps.sa.edu.au","lat":-34.46919,"lon":139.025019},{"sector":"government","school_name":"Littlehampton Primary School","suburb":"Littlehampton","postcode":"5250","phone":"","public_email":"dl.0225.info@schools.sa.edu.au","contact_form_url":"https://littlehamptonps.sa.edu.au/","website_url":"https://littlehamptonps.sa.edu.au/","lat":-35.049417,"lon":138.868095},{"sector":"government","school_name":"Lobethal Primary School","suburb":"Lobethal","postcode":"5241","phone":"","public_email":"dl.0227.info@schools.sa.edu.au","contact_form_url":"https://lobethalps.sa.edu.au/contact-us/","website_url":"http://www.lobethalps.sa.edu.au","lat":-34.901735,"lon":138.871761},{"sector":"government","school_name":"Lock Area School","suburb":"Lock","postcode":"5633","phone":"","public_email":"dl.0230.info@schools.sa.edu.au","contact_form_url":"https://lockas.sa.edu.au/contact-us/","website_url":"http://www.lockas.sa.edu.au","lat":-33.567298,"lon":135.754637},{"sector":"government","school_name":"Brooklyn Park Primary School","suburb":"Brooklyn Park","postcode":"5032","phone":"","public_email":"","contact_form_url":"","website_url":"https://brooklynparkps.sa.edu.au/","lat":-34.930203,"lon":138.535095},{"sector":"government","school_name":"Lyndoch Primary School","suburb":"Lyndoch","postcode":"5351","phone":"","public_email":"dl.0237_info@schools.sa.edu.au","contact_form_url":"https://lyndochps.sa.edu.au/contact-us/","website_url":"http://www.lyndochps.sa.edu.au","lat":-34.60554,"lon":138.885678},{"sector":"government","school_name":"Macclesfield Primary School","suburb":"Macclesfield","postcode":"5153","phone":"","public_email":"wendy.silvestri669@schools.sa.edu.au","contact_form_url":"http://www.maccyps.sa.edu.au/search","website_url":"http://www.maccyps.sa.edu.au/","lat":-35.171315,"lon":138.83847},{"sector":"government","school_name":"Mallala Primary School","suburb":"Mallala","postcode":"5502","phone":"","public_email":"dl.0241.info@schools.sa.edu.au","contact_form_url":"https://mallalac7.sa.edu.au/contact-us/","website_url":"http://www.mallalac7.sa.edu.au","lat":-34.43456,"lon":138.510526},{"sector":"government","school_name":"Angaston Primary School","suburb":"Angaston","postcode":"5353","phone":"","public_email":"dl.0242.info@schools.sa.edu.au","contact_form_url":"https://angastonps.sa.edu.au/","website_url":"http://www.angastonps.sa.edu.au/","lat":-34.499092,"lon":139.050833},{"sector":"government","school_name":"Manoora Primary School","suburb":"Manoora","postcode":"5414","phone":"","public_email":"dl.0245.info@schools.sa.edu.au","contact_form_url":"https://manooraps.sa.edu.au/contactus/","website_url":"http://www.manooraps.sa.edu.au","lat":-34.006284,"lon":138.814121},{"sector":"government","school_name":"Marree Aboriginal School","suburb":"Marree","postcode":"5733","phone":"","public_email":"dl.0248.info@schools.sa.edu.au","contact_form_url":"https://marreeab.sa.edu.au/contact-us/","website_url":"http://www.marreeab.sa.edu.au","lat":-29.649185,"lon":138.061054},{"sector":"government","school_name":"Marryatville Primary School","suburb":"Kensington","postcode":"5068","phone":"","public_email":"dl.0249_info@schools.sa.edu.au","contact_form_url":"https://marryatps.sa.edu.au/","website_url":"http://www.marryatps.sa.edu.au","lat":-34.924542,"lon":138.649185},{"sector":"government","school_name":"McLaren Flat Primary School","suburb":"Mclaren Flat","postcode":"5171","phone":"","public_email":"dl.0250_info@schools.sa.edu.au","contact_form_url":"https://mclflatps.sa.edu.au/contact-us/","website_url":"http://www.mclflatps.sa.edu.au","lat":-35.206114,"lon":138.587248},{"sector":"government","school_name":"McLaren Vale Primary School","suburb":"Mclaren Vale","postcode":"5171","phone":"","public_email":"dl.0251.admin@schools.sa.edu.au","contact_form_url":"https://mclarenvps.sa.edu.au/contact-us/","website_url":"http://www.mclarenvps.sa.edu.au","lat":-35.211655,"lon":138.531438},{"sector":"government","school_name":"Meadows Primary School","suburb":"Meadows","postcode":"5201","phone":"","public_email":"dl.0252.info@schools.sa.edu.au","contact_form_url":"https://meadowsps.sa.edu.au/contact-us/","website_url":"http://www.meadowsps.sa.edu.au","lat":-35.180498,"lon":138.761924},{"sector":"government","school_name":"Melrose Primary School","suburb":"Melrose","postcode":"5483","phone":"","public_email":"dl.0253.info@schools.sa.edu.au","contact_form_url":"https://melroseps.sa.edu.au/contact-us/","website_url":"http://www.melroseps.sa.edu.au","lat":-32.823832,"lon":138.187995},{"sector":"government","school_name":"Angle Vale Primary School","suburb":"Angle Vale","postcode":"5117","phone":"","public_email":"","contact_form_url":"","website_url":"http://www.avps.sa.edu.au","lat":-34.643346,"lon":138.647362},{"sector":"government","school_name":"Mil Lel Primary School","suburb":"Mil Lel","postcode":"5291","phone":"","public_email":"","contact_form_url":"","website_url":"http://www.millelps.sa.edu.au","lat":-37.781125,"lon":140.825631},{"sector":"government","school_name":"Mitcham Primary School","suburb":"Kingswood","postcode":"5062","phone":"","public_email":"dl.0270.info@schools.sa.edu.au","contact_form_url":"http://www.mitchamps.sa.edu.au/contact","website_url":"http://www.mitchamps.sa.edu.au/","lat":-34.972708,"lon":138.616124},{"sector":"government","school_name":"Modbury School P-6","suburb":"Modbury North","postcode":"5092","phone":"","public_email":"","contact_form_url":"","website_url":"https://modburyp6.sa.edu.au/","lat":-34.825869,"lon":138.69228},{"sector":"government","school_name":"Monash Primary and Preschool","suburb":"Monash","postcode":"5342","phone":"","public_email":"dl.0274.info@schools.sa.edu.au","contact_form_url":"https://monashps.sa.edu.au/contact-us/","website_url":"http://www.monashps.sa.edu.au","lat":-34.236306,"lon":140.559419},{"sector":"government","school_name":"Moorak Primary School","suburb":"Moorak","postcode":"5291","phone":"","public_email":"","contact_form_url":"","website_url":"http://www.moorakps.sa.edu.au","lat":-37.86419411,"lon":140.73666799},{"sector":"government","school_name":"Morgan Primary School","suburb":"Morgan","postcode":"5320","phone":"","public_email":"dl.0282.info@schools.sa.edu.au","contact_form_url":"https://morganps.sa.edu.au/contact-us/","website_url":"http://www.morganps.sa.edu.au","lat":-34.030239,"lon":139.670103},{"sector":"government","school_name":"Mount Barker Primary School","suburb":"Mount Barker","postcode":"5251","phone":"","public_email":"dl.0285.info@schools.sa.edu.au","contact_form_url":"http://www.mtbarkerps.sa.edu.au/search","website_url":"http://www.mtbarkerps.sa.edu.au","lat":-35.067641,"lon":138.853522},{"sector":"government","school_name":"Mount Burr Primary School","suburb":"Mount Burr","postcode":"5279","phone":"","public_email":"dl.0288.info@schools.sa.edu.au","contact_form_url":"http://www.mtburrps.sa.edu.au#contact","website_url":"http://www.mtburrps.sa.edu.au","lat":-37.541193,"lon":140.4591},{"sector":"government","school_name":"Mount Compass Area School","suburb":"Mount Compass","postcode":"5210","phone":"","public_email":"dl.0289.info@schools.sa.edu.au","contact_form_url":"http://compassas.sa.edu.au/","website_url":"http://www.compassas.sa.edu.au","lat":-35.350245,"lon":138.619809},{"sector":"government","school_name":"Reidy Park Primary School","suburb":"Mount Gambier","postcode":"5290","phone":"","public_email":"","contact_form_url":"","website_url":"http://www.reidyprkps.sa.edu.au","lat":-37.834544,"lon":140.771765},{"sector":"government","school_name":"Mount Pleasant Primary School","suburb":"Mount Pleasant","postcode":"5235","phone":"","public_email":"dl.0293.info@schools.sa.edu.au","contact_form_url":"https://mtplesntps.sa.edu.au/contact-us/","website_url":"http://www.mtplesntps.sa.edu.au","lat":-34.774374,"lon":139.053842},{"sector":"government","school_name":"Mundulla Primary School","suburb":"Mundulla","postcode":"5270","phone":"","public_email":"dl.0297.info@schools.sa.edu.au","contact_form_url":"https://mundullaps.sa.edu.au/","website_url":"http://www.mundullaps.sa.edu.au","lat":-36.357628,"lon":140.693069},{"sector":"government","school_name":"Murray Bridge North School","suburb":"Murray Bridge","postcode":"5253","phone":"","public_email":"dl.0299.info@schools.sa.edu.au","contact_form_url":"http://www.google.com/search","website_url":"http://www.mbnorthps.sa.edu.au/","lat":-35.116966,"lon":139.271426},{"sector":"government","school_name":"Mylor Primary School","suburb":"Mylor","postcode":"5153","phone":"","public_email":"dl.0301.info@schools.sa.edu.au","contact_form_url":"https://mylorps.sa.edu.au/contact-us/","website_url":"http://www.mylorps.sa.edu.au","lat":-35.040998,"lon":138.760099},{"sector":"government","school_name":"Mypolonga Primary School","suburb":"Mypolonga","postcode":"5254","phone":"","public_email":"","contact_form_url":"","website_url":"http://mypolongaps.sa.edu.au/","lat":-35.040591,"lon":139.357523},{"sector":"government","school_name":"Myponga Primary School","suburb":"Myponga","postcode":"5202","phone":"","public_email":"dl.0303_info@schools.sa.edu.au","contact_form_url":"https://mypongaps.sa.edu.au/contact-us/","website_url":"http://www.mypongaps.sa.edu.au","lat":-35.3927497,"lon":138.46425608},{"sector":"government","school_name":"Nailsworth Primary School","suburb":"Nailsworth","postcode":"5083","phone":"","public_email":"dl.0305.info@schools.sa.edu.au","contact_form_url":"https://nailps.sa.edu.au/contact-us/","website_url":"http://www.nailps.sa.edu.au","lat":-34.8829157832097,"lon":138.60388611045073},{"sector":"government","school_name":"Nairne School - Preschool and Primary","suburb":"Nairne","postcode":"5252","phone":"","public_email":"dl.0306.info@schools.sa.edu.au","contact_form_url":"https://nairneps.sa.edu.au/contact-us/","website_url":"http://www.nairneps.sa.edu.au","lat":-35.038365,"lon":138.903587},{"sector":"government","school_name":"Napperby Primary School","suburb":"Napperby","postcode":"5540","phone":"","public_email":"dl.0308.info@schools.sa.edu.au","contact_form_url":"https://napperbyps.sa.edu.au/contact-us/","website_url":"http://www.napperbyps.sa.edu.au","lat":-33.15317163,"lon":138.11414129},{"sector":"government","school_name":"Naracoorte Primary School","suburb":"Naracoorte","postcode":"5271","phone":"","public_email":"","contact_form_url":"","website_url":"https://naracoorteprimaryschool.sa.edu.au/","lat":-36.951082,"lon":140.738119},{"sector":"government","school_name":"Old Noarlunga Primary School","suburb":"Old Noarlunga","postcode":"5168","phone":"","public_email":"dl.0313.info@schools.sa.edu.au","contact_form_url":"https://www.onps.sa.edu.au/contact/","website_url":"http://www.onps.sa.edu.au","lat":-35.182997,"lon":138.500633},{"sector":"government","school_name":"Northfield Primary School","suburb":"Northfield","postcode":"5085","phone":"","public_email":"dl.0314.info@schools.sa.edu.au","contact_form_url":"https://northfldps.sa.edu.au/wp/wp-login.php","website_url":"http://www.northfldps.sa.edu.au","lat":-34.848975,"lon":138.619862},{"sector":"government","school_name":"Norton Summit Primary School","suburb":"Norton Summit","postcode":"5136","phone":"","public_email":"dl.0316_info@schools.sa.edu.au","contact_form_url":"https://nortonps.sa.edu.au/contact/","website_url":"http://www.nortonps.sa.edu.au","lat":-34.927695,"lon":138.728837},{"sector":"government","school_name":"Nuriootpa Primary School","suburb":"Nuriootpa","postcode":"5355","phone":"","public_email":"","contact_form_url":"","website_url":"http://www.nurihs.sa.edu.au/","lat":-34.472908,"lon":139.001322},{"sector":"government","school_name":"One Tree Hill Primary School","suburb":"One Tree Hill","postcode":"5114","phone":"","public_email":"dl.0322.info@schools.sa.edu.au","contact_form_url":"https://othc7.sa.edu.au/contact-us/","website_url":"http://www.othc7.sa.edu.au","lat":-34.713273,"lon":138.766521},{"sector":"government","school_name":"Coorara Primary School","suburb":"Morphett Vale","postcode":"5162","phone":"","public_email":"dl.0323.info@schools.sa.edu.au","contact_form_url":"http://www.cooraraps.sa.edu.au/contact-us","website_url":"http://www.cooraraps.sa.edu.au","lat":-35.131326,"lon":138.542009},{"sector":"government","school_name":"Oodnadatta Aboriginal School","suburb":"Oodnadatta","postcode":"5734","phone":"","public_email":"dl.0324.info@schools.sa.edu.au","contact_form_url":"https://oodnadattaab.sa.edu.au/contact-us/","website_url":"http://www.oodnadattaab.sa.edu.au","lat":-27.548502,"lon":135.445814},{"sector":"government","school_name":"Owen Primary School","suburb":"Owen","postcode":"5460","phone":"","public_email":"dl.0325.info@schools.sa.edu.au","contact_form_url":"https://owenps.sa.edu.au/contact-us/","website_url":"http://www.owenps.sa.edu.au","lat":-34.271731,"lon":138.543051},{"sector":"government","school_name":"Palmer Primary School","suburb":"Palmer","postcode":"5237","phone":"","public_email":"dl.0326_info@schools.sa.edu.au","contact_form_url":"https://www.palmerps.sa.edu.au/contact-us/","website_url":"http://www.palmerps.sa.edu.au","lat":-34.854365,"lon":139.160882},{"sector":"government","school_name":"Paracombe Primary and Preschool","suburb":"Paracombe","postcode":"5132","phone":"","public_email":"","contact_form_url":"","website_url":"http://www.paracombps.sa.edu.au","lat":-34.851674,"lon":138.781984},{"sector":"government","school_name":"Parkside Primary School","suburb":"Parkside","postcode":"5063","phone":"","public_email":"dl.0328_admin@schools.sa.edu.au","contact_form_url":"http://parksideps.sa.edu.au/","website_url":"http://www.parksideps.sa.edu.au","lat":-34.944657,"lon":138.620087},{"sector":"government","school_name":"Pennington School R-6","suburb":"Pennington","postcode":"5013","phone":"","public_email":"dl.0337.info@schools.sa.edu.au","contact_form_url":"https://penningtonr6.sa.edu.au/contact-us/","website_url":"https://penningtonr6.sa.edu.au/","lat":-34.857424,"lon":138.53236},{"sector":"government","school_name":"Penong Primary School","suburb":"Penong","postcode":"5690","phone":"","public_email":"","contact_form_url":"","website_url":"http://www.penongps.sa.edu.au","lat":-31.928614,"lon":133.005406},{"sector":"government","school_name":"Peterborough Primary School","suburb":"Peterborough","postcode":"5422","phone":"","public_email":"dl.0339.info@schools.sa.edu.au","contact_form_url":"https://peterboroughps.sa.edu.au/contact-us/","website_url":"http://www.peterboroughps.sa.edu.au","lat":-32.971345,"lon":138.83202},{"sector":"government","school_name":"Ascot Park Primary School","suburb":"Park Holme","postcode":"5043","phone":"","public_email":"dl.0340.info@schools.sa.edu.au","contact_form_url":"http://ascotpkps.sa.edu.au/","website_url":"http://www.ascotpkps.sa.edu.au/","lat":-34.990774,"lon":138.554376},{"sector":"government","school_name":"Plympton Primary School","suburb":"Plympton","postcode":"5038","phone":"","public_email":"dl.0346.info@schools.sa.edu.au","contact_form_url":"https://plymptonps.sa.edu.au/","website_url":"http://www.plymptonps.sa.edu.au","lat":-34.96108793,"lon":138.55656934},{"sector":"government","school_name":"Poonindie Community Learning Centre","suburb":"Poonindie","postcode":"5607","phone":"","public_email":"dl.0351.info@schools.sa.edu.au","contact_form_url":"https://poonindieps.sa.edu.au/contact/","website_url":"http://www.poonindieps.sa.edu.au","lat":-34.58049457,"lon":135.8806603},{"sector":"government","school_name":"Pooraka Primary School","suburb":"Pooraka","postcode":"5095","phone":"","public_email":"dl.0352.info@schools.sa.edu.au","contact_form_url":"https://poorakaps.sa.edu.au/","website_url":"http://www.poorakaps.sa.edu.au","lat":-34.833519,"lon":138.613108},{"sector":"government","school_name":"Port Augusta West Primary School","suburb":"Port Augusta West","postcode":"5700","phone":"","public_email":"","contact_form_url":"http://www.pawps.sa.edu.au/site-search","website_url":"http://www.pawps.sa.edu.au","lat":-32.483205,"lon":137.754202},{"sector":"government","school_name":"Port Elliot Primary School","suburb":"Port Elliot","postcode":"5212","phone":"","public_email":"dl.0356.info@schools.sa.edu.au","contact_form_url":"http://www.ptelliotps.sa.edu.au/contact-port-elliot-primary-school","website_url":"http://www.ptelliotps.sa.edu.au","lat":-35.523024,"lon":138.677243},{"sector":"government","school_name":"Port Lincoln Primary School","suburb":"Port Lincoln","postcode":"5606","phone":"","public_email":"dl.0359.info@schools.sa.edu.au","contact_form_url":"https://plps.sa.edu.au/contact-us/","website_url":"http://www.plps.sa.edu.au","lat":-34.723909,"lon":135.857158},{"sector":"government","school_name":"Port Noarlunga Primary School","suburb":"Port Noarlunga","postcode":"5167","phone":"","public_email":"dl.0362.admin@schools.sa.edu.au","contact_form_url":"https://www.portnoarps.sa.edu.au/","website_url":"http://www.portnoarps.sa.edu.au","lat":-35.143866,"lon":138.473063},{"sector":"government","school_name":"Port Pirie West Primary School","suburb":"Port Pirie","postcode":"5540","phone":"","public_email":"dl.0363.info@schools.sa.edu.au","contact_form_url":"https://piriewps.sa.edu.au/contact-us/","website_url":"http://www.piriewps.sa.edu.au","lat":-33.181868,"lon":138.002596},{"sector":"government","school_name":"Port Wakefield Primary School","suburb":"Port Wakefield","postcode":"5550","phone":"","public_email":"dl.0366.info@schools.sa.edu.au","contact_form_url":"https://portwakefieldps.sa.edu.au/contact-us/","website_url":"http://www.portwakefieldps.sa.edu.au","lat":-34.187379,"lon":138.149302},{"sector":"government","school_name":"Prospect Primary School","suburb":"Prospect","postcode":"5082","phone":"","public_email":"","contact_form_url":"","website_url":"http://www.prospectps.sa.edu.au","lat":-34.884916,"lon":138.59012},{"sector":"government","school_name":"Ramco Primary School","suburb":"Ramco","postcode":"5322","phone":"","public_email":"dl.0372_info@schools.sa.edu.au","contact_form_url":"https://ramcops.sa.edu.au/","website_url":"https://ramcops.sa.edu.au/","lat":-34.169812,"lon":139.932662},{"sector":"government","school_name":"Rendelsham Primary School","suburb":"Rendelsham","postcode":"5280","phone":"","public_email":"","contact_form_url":"","website_url":"http://www.rendelshps.sa.edu.au","lat":-37.551353,"lon":140.225103},{"sector":"government","school_name":"Renmark Primary School","suburb":"Renmark","postcode":"5341","phone":"","public_email":"dl.0376.info@schools.sa.edu.au","contact_form_url":"https://renmarkps.sa.edu.au/contact-us/","website_url":"https://renmarkps.sa.edu.au/","lat":-34.172644,"lon":140.74104},{"sector":"government","school_name":"Renmark North School","suburb":"Renmark North","postcode":"5341","phone":"","public_email":"dl.0377.info@schools.sa.edu.au","contact_form_url":"https://rennorth.sa.edu.au/contact-us/","website_url":"http://www.rennorth.sa.edu.au","lat":-34.120509,"lon":140.720156},{"sector":"government","school_name":"Renmark West Primary School","suburb":"Renmark","postcode":"5341","phone":"","public_email":"dl.0378.info@schools.sa.edu.au","contact_form_url":"https://rnmkwestps.sa.edu.au/","website_url":"http://www.rnmkwestps.sa.edu.au","lat":-34.166218,"lon":140.710298},{"sector":"government","school_name":"Reynella Primary School","suburb":"Old Reynella","postcode":"5161","phone":"","public_email":"","contact_form_url":"","website_url":"http://www.reynellaps.sa.edu.au/","lat":-35.100928,"lon":138.537502},{"sector":"government","school_name":"Richmond Primary School","suburb":"Keswick","postcode":"5035","phone":"","public_email":"dl.0381.info@schools.sa.edu.au","contact_form_url":"https://richmondps.sa.edu.au/contact-us/","website_url":"https://richmondps.sa.edu.au/","lat":-34.943391,"lon":138.571798},{"sector":"government","school_name":"Riverton Primary School","suburb":"Riverton","postcode":"5412","phone":"","public_email":"dl.0383.info@schools.sa.edu.au","contact_form_url":"https://rivertonps.sa.edu.au/contact-us/","website_url":"http://www.rivertonps.sa.edu.au","lat":-34.15606,"lon":138.744199},{"sector":"government","school_name":"Robe Primary School","suburb":"Robe","postcode":"5276","phone":"","public_email":"","contact_form_url":"","website_url":"http://www.robeps.sa.edu.au","lat":-37.163742,"lon":139.761639},{"sector":"government","school_name":"Robertstown Primary School","suburb":"Robertstown","postcode":"5381","phone":"","public_email":"","contact_form_url":"","website_url":"http://www.robertsps.sa.edu.au","lat":-33.989691,"lon":139.084056},{"sector":"government","school_name":"Roseworthy Primary School","suburb":"Roseworthy","postcode":"5371","phone":"","public_email":"dl.0387.info@schools.sa.edu.au","contact_form_url":"http://www.rosewthyps.sa.edu.au#contact","website_url":"http://www.rosewthyps.sa.edu.au","lat":-34.53392,"lon":138.748218},{"sector":"government","school_name":"Saddleworth Primary School","suburb":"Saddleworth","postcode":"5413","phone":"","public_email":"dl.0389.info@schools.sa.edu.au","contact_form_url":"https://saddleps.sa.edu.au/contact-us/","website_url":"http://www.saddleps.sa.edu.au","lat":-34.084411,"lon":138.784802},{"sector":"government","school_name":"St Leonards Primary School","suburb":"Glenelg North","postcode":"5045","phone":"","public_email":"dl.0391.admin@schools.sa.edu.au","contact_form_url":"https://sleonrdsps.sa.edu.au/contact-us/","website_url":"http://www.sleonrdsps.sa.edu.au","lat":-34.972261,"lon":138.519785},{"sector":"government","school_name":"Salisbury Primary School","suburb":"Salisbury","postcode":"5108","phone":"","public_email":"dl.1041.info@schools.sa.edu.au","contact_form_url":"https://salisburyprimaryschool.sa.edu.au/contact-us/","website_url":"https://salisburyprimaryschool.sa.edu.au/","lat":-34.766984,"lon":138.647399},{"sector":"government","school_name":"Sandy Creek Primary School","suburb":"Cockatoo Valley","postcode":"5351","phone":"","public_email":"dl.0395.info@schools.sa.edu.au","contact_form_url":"http://sandycrkps.sa.edu.au/","website_url":"http://www.sandycrkps.sa.edu.au","lat":-34.610068,"lon":138.829663},{"sector":"government","school_name":"Scott Creek Primary School","suburb":"Scott Creek","postcode":"5153","phone":"","public_email":"dl.0396.info@schools.sa.edu.au","contact_form_url":"https://scps.sa.edu.au/contact-us/","website_url":"http://www.scps.sa.edu.au","lat":-35.056668,"lon":138.706377},{"sector":"government","school_name":"Seaton Park Primary School","suburb":"Seaton","postcode":"5023","phone":"","public_email":"dl.0397.info@schools.sa.edu.au","contact_form_url":"https://seatonpk.sa.edu.au/contact-us/","website_url":"http://www.seatonpk.sa.edu.au","lat":-34.895535,"lon":138.519943},{"sector":"government","school_name":"Solomontown Primary School","suburb":"Port Pirie","postcode":"5540","phone":"","public_email":"dl.0406.info@schools.sa.edu.au","contact_form_url":"https://solomontownps.sa.edu.au/contact/","website_url":"https://solomontownps.sa.edu.au/","lat":-33.18994,"lon":138.019589},{"sector":"government","school_name":"Spalding Primary School","suburb":"Spalding","postcode":"5454","phone":"","public_email":"dl.0407.info@schools.sa.edu.au","contact_form_url":"https://spaldingps.sa.edu.au/contact-us/","website_url":"http://www.spaldingps.sa.edu.au","lat":-33.496312,"lon":138.611066},{"sector":"government","school_name":"Springton Primary School","suburb":"Springton","postcode":"5235","phone":"","public_email":"dl.0408.info@schools.sa.edu.au","contact_form_url":"https://springtnps.sa.edu.au/contact-us/","website_url":"http://www.springtnps.sa.edu.au","lat":-34.706581,"lon":139.088713},{"sector":"government","school_name":"Stansbury Primary School","suburb":"Stansbury","postcode":"5582","phone":"","public_email":"dl.0411.info@schools.sa.edu.au","contact_form_url":"https://stansburyps.sa.edu.au/contact-us/","website_url":"http://www.stansburyps.sa.edu.au","lat":-34.907642,"lon":137.794689},{"sector":"government","school_name":"Stirling East Primary School","suburb":"Stirling","postcode":"5152","phone":"","public_email":"","contact_form_url":"","website_url":"https://stives-h.schools.nsw.gov.au/","lat":-35.002222,"lon":138.734746},{"sector":"government","school_name":"Athelstone School","suburb":"Athelstone","postcode":"5076","phone":"","public_email":"dl.0419_info@schools.sa.edu.au","contact_form_url":"https://athelstone.sa.edu.au/contact-us/","website_url":"http://www.athelstone.sa.edu.au","lat":-34.867392,"lon":138.699416},{"sector":"government","school_name":"Suttontown Primary School","suburb":"Suttontown","postcode":"5291","phone":"","public_email":"","contact_form_url":"","website_url":"http://www.suttownps.sa.edu.au","lat":-37.797141,"lon":140.76955},{"sector":"government","school_name":"Swan Reach Area School","suburb":"Swan Reach","postcode":"5354","phone":"","public_email":"","contact_form_url":"","website_url":"http://www.swanrchas.sa.edu.au","lat":-34.57182086,"lon":139.60274529},{"sector":"government","school_name":"Tailem Bend Primary School","suburb":"Tailem Bend","postcode":"5260","phone":"","public_email":"","contact_form_url":"","website_url":"http://www.tailembdps.sa.edu.au","lat":-35.259104,"lon":139.457249},{"sector":"government","school_name":"Auburn Primary School","suburb":"Auburn","postcode":"5451","phone":"","public_email":"dl.0425.info@schools.sa.edu.au","contact_form_url":"https://auburnps.sa.edu.au/contact-us/","website_url":"http://www.auburnps.sa.edu.au","lat":-34.026245,"lon":138.683689},{"sector":"government","school_name":"Tanunda Primary School","suburb":"Tanunda","postcode":"5352","phone":"","public_email":"dl.0427_info@schools.sa.edu.au","contact_form_url":"http://www.tanundaps.sa.edu.au/contact.html","website_url":"http://www.tanundaps.sa.edu.au","lat":-34.526253,"lon":138.959337},{"sector":"government","school_name":"Tarlee Primary School","suburb":"Tarlee","postcode":"5411","phone":"","public_email":"dl.0430.info@schools.sa.edu.au","contact_form_url":"https://tarleeps.sa.edu.au/contact-us/","website_url":"http://www.tarleeps.sa.edu.au","lat":-34.269925,"lon":138.772668},{"sector":"government","school_name":"Tea Tree Gully Primary School","suburb":"Tea Tree Gully","postcode":"5091","phone":"","public_email":"","contact_form_url":"","website_url":"https://www.ttgps.sa.edu.au","lat":-34.822942,"lon":138.727177},{"sector":"government","school_name":"Tintinara Area School","suburb":"Tintinara","postcode":"5266","phone":"","public_email":"dl.0438.info@schools.sa.edu.au","contact_form_url":"https://tas.sa.edu.au/contact-us/","website_url":"http://www.tas.sa.edu.au","lat":-35.883195,"lon":140.059952},{"sector":"government","school_name":"Truro Primary School","suburb":"Truro","postcode":"5356","phone":"","public_email":"dl.0442.info@schools.sa.edu.au","contact_form_url":"https://trurops.sa.edu.au/contact-us/","website_url":"http://www.trurops.sa.edu.au","lat":-34.41121,"lon":139.126378},{"sector":"government","school_name":"Two Wells Primary School","suburb":"Two Wells","postcode":"5501","phone":"","public_email":"","contact_form_url":"","website_url":"http://www.twowellsps.sa.edu.au","lat":-34.59263489,"lon":138.51705599},{"sector":"government","school_name":"Ungarra Primary School","suburb":"Ungarra","postcode":"5607","phone":"","public_email":"dl.0446.info@schools.sa.edu.au","contact_form_url":"https://ungarraps.sa.edu.au/","website_url":"http://www.ungarraps.sa.edu.au","lat":-34.180902,"lon":136.046934},{"sector":"government","school_name":"Unley Primary School","suburb":"Unley","postcode":"5061","phone":"","public_email":"","contact_form_url":"","website_url":"http://www.unleyps.sa.edu.au","lat":-34.954188,"lon":138.609128},{"sector":"government","school_name":"Upper Sturt Primary School","suburb":"Upper Sturt","postcode":"5156","phone":"","public_email":"dl.0448.info@schools.sa.edu.au","contact_form_url":"https://uppersturtps.sa.edu.au/contact-us/","website_url":"http://www.uppersturtps.sa.edu.au","lat":-35.018986,"lon":138.683375},{"sector":"government","school_name":"Uraidla Primary School","suburb":"Uraidla","postcode":"5142","phone":"","public_email":"dl.4614.info@schools.sa.edu.au","contact_form_url":"https://uraidlaps.sa.edu.au/contactus/","website_url":"http://uraidlaps.sa.edu.au","lat":-34.95915027,"lon":138.74384238},{"sector":"government","school_name":"Victor Harbor Primary School","suburb":"Victor Harbor","postcode":"5211","phone":"","public_email":"0453.info@schools.sa.edu.au","contact_form_url":"https://vhps.sa.edu.au/?page_id=295","website_url":"http://www.victorr7.sa.edu.au","lat":-35.541373,"lon":138.624567},{"sector":"government","school_name":"Virginia Primary School","suburb":"Virginia","postcode":"5120","phone":"","public_email":"","contact_form_url":"","website_url":"http://www.virginiaps.sa.edu.au","lat":-34.664655,"lon":138.555957},{"sector":"government","school_name":"Waikerie Primary School","suburb":"Waikerie","postcode":"5330","phone":"","public_email":"dl.0456.info@schools.sa.edu.au","contact_form_url":"http://www.waikerieps.sa.edu.au/contact-us/","website_url":"http://www.waikerieps.sa.edu.au","lat":-34.181117,"lon":139.981115},{"sector":"government","school_name":"Walkerville Primary School","suburb":"Walkerville","postcode":"5081","phone":"","public_email":"dl.0457.info@schools.sa.edu.au","contact_form_url":"https://walkervilleps.sa.edu.au/contact-us/","website_url":"https://walkervilleps.sa.edu.au/","lat":-34.895194,"lon":138.613241},{"sector":"government","school_name":"Wallaroo Primary School","suburb":"Wallaroo","postcode":"5556","phone":"","public_email":"","contact_form_url":"","website_url":"http://www.wallaroops.sa.edu.au","lat":-33.932746,"lon":137.624271},{"sector":"government","school_name":"Wallaroo Mines Primary School","suburb":"Kadina","postcode":"5554","phone":"","public_email":"dl.0460.info@schools.sa.edu.au","contact_form_url":"https://walminesps.sa.edu.au/","website_url":"http://www.walminesps.sa.edu.au","lat":-33.965894,"lon":137.69872},{"sector":"government","school_name":"Warooka Primary School","suburb":"Warooka","postcode":"5577","phone":"","public_email":"","contact_form_url":"","website_url":"http://www.warookaps.sa.edu.au","lat":-34.990564,"lon":137.39902},{"sector":"government","school_name":"Wasleys Primary School","suburb":"Wasleys","postcode":"5400","phone":"","public_email":"dl.0469.info@schools.sa.edu.au","contact_form_url":"https://wasleysps.sa.edu.au/contact-us/","website_url":"http://www.wasleysps.sa.edu.au","lat":-34.471456,"lon":138.680418},{"sector":"government","school_name":"Watervale Primary School","suburb":"Watervale","postcode":"5452","phone":"","public_email":"dl.0470.info@schools.sa.edu.au","contact_form_url":"https://watervalps.sa.edu.au/","website_url":"http://www.watervalps.sa.edu.au","lat":-33.960982,"lon":138.644648},{"sector":"government","school_name":"Allenby Gardens Primary School","suburb":"Allenby Gardens","postcode":"5009","phone":"","public_email":"","contact_form_url":"","website_url":"http://www.allenbyps.sa.edu.au","lat":-34.902081,"lon":138.554563},{"sector":"government","school_name":"Trinity Gardens School","suburb":"Trinity Gardens","postcode":"5068","phone":"","public_email":"","contact_form_url":"","website_url":"https://www.trinitygs.sa.edu.au/","lat":-34.908388,"lon":138.641387},{"sector":"government","school_name":"Westbourne Park Primary School","suburb":"Westbourne Park","postcode":"5041","phone":"","public_email":"dl.0475.info@schools.sa.edu.au","contact_form_url":"https://www.wbourneps.sa.edu.au/contact-us/","website_url":"http://www.wbourneps.sa.edu.au","lat":-34.969224,"lon":138.591941},{"sector":"government","school_name":"Adelaide North Special School","suburb":"Munno Para West","postcode":"5115","phone":"","public_email":"","contact_form_url":"","website_url":"https://anss.sa.edu.au/","lat":-34.663611,"lon":138.68494},{"sector":"government","school_name":"Balaklava Primary School","suburb":"Balaklava","postcode":"5461","phone":"","public_email":"dl.0477.info@schools.sa.edu.au","contact_form_url":"https://balakr7.sa.edu.au/contact-us/","website_url":"http://www.balakr7.sa.edu.au","lat":-34.151438,"lon":138.416488},{"sector":"government","school_name":"Whyalla Town Primary School","suburb":"Whyalla","postcode":"5600","phone":"","public_email":"dl.0478_info@schools.sa.edu.au","contact_form_url":"https://whytownps.sa.edu.au/","website_url":"http://www.whytownps.sa.edu.au","lat":-33.035938,"lon":137.584382},{"sector":"government","school_name":"Memorial Oval Primary School","suburb":"Whyalla","postcode":"5600","phone":"","public_email":"dl.0479.info@schools.sa.edu.au","contact_form_url":"https://mops.sa.edu.au/contact-us/","website_url":"http://www.mops.sa.edu.au","lat":-33.033445,"lon":137.568711},{"sector":"government","school_name":"Williamstown Primary School","suburb":"Williamstown","postcode":"5351","phone":"","public_email":"dl.0482.info@schools.sa.edu.au","contact_form_url":"http://www.williamstownps.sa.edu.au/contact/","website_url":"http://www.williamstownps.sa.edu.au","lat":-34.66877581,"lon":138.89015185},{"sector":"government","school_name":"Wilmington Primary School","suburb":"Wilmington","postcode":"5485","phone":"","public_email":"dl.0483.info@schools.sa.edu.au","contact_form_url":"https://wilmngtnps.sa.edu.au/contact-us/","website_url":"http://www.wilmngtnps.sa.edu.au","lat":-32.6511089,"lon":138.10117531},{"sector":"government","school_name":"Woodside Primary School","suburb":"Woodside","postcode":"5244","phone":"","public_email":"dl.0495.info@schools.sa.edu.au","contact_form_url":"https://woodsideps.sa.edu.au/","website_url":"http://www.woodsideps.sa.edu.au","lat":-34.952342,"lon":138.879672},{"sector":"government","school_name":"Woodville Primary School","suburb":"Woodville South","postcode":"5011","phone":"","public_email":"","contact_form_url":"","website_url":"http://www.wvilleps.sa.edu.au","lat":-34.880569,"lon":138.532716},{"sector":"government","school_name":"Yahl Primary School","suburb":"Yahl","postcode":"5291","phone":"","public_email":"","contact_form_url":"","website_url":"http://www.yahlps.sa.edu.au","lat":-37.879293,"lon":140.832014},{"sector":"government","school_name":"Barmera Primary School","suburb":"Barmera","postcode":"5345","phone":"","public_email":"dl.0506.info@schools.sa.edu.au","contact_form_url":"https://barmeraps.sa.edu.au/contact-us/","website_url":"http://www.barmeraps.sa.edu.au","lat":-34.25159,"lon":140.478058},{"sector":"government","school_name":"Andamooka Primary School","suburb":"Andamooka","postcode":"5722","phone":"","public_email":"dl.0509.info@schools.sa.edu.au","contact_form_url":"https://www.andamooka.sa.edu.au/site-search","website_url":"https://www.andamooka.sa.edu.au/","lat":-30.449978,"lon":137.167467},{"sector":"government","school_name":"Basket Range Primary School","suburb":"Basket Range","postcode":"5138","phone":"","public_email":"","contact_form_url":"","website_url":"http://www.basketrangeps.sa.edu.au/","lat":-34.938262,"lon":138.766577},{"sector":"government","school_name":"Beachport Primary School","suburb":"Beachport","postcode":"5280","phone":"","public_email":"","contact_form_url":"","website_url":"http://www.beachportps.sa.edu.au","lat":-37.475436,"lon":140.009715},{"sector":"government","school_name":"Belair Primary School","suburb":"Belair","postcode":"5052","phone":"","public_email":"belair.ps415@schools.sa.edu.au","contact_form_url":"http://belairps.sa.edu.au/","website_url":"http://belairps.sa.edu.au/","lat":-35.00488,"lon":138.625814},{"sector":"government","school_name":"Eastern Fleurieu R-12 School","suburb":"Strathalbyn","postcode":"5255","phone":"","public_email":"dl.1884.finance@schools.sa.edu.au","contact_form_url":"http://www.easternfleurieu.sa.edu.au/site-search","website_url":"http://www.easternfleurieu.sa.edu.au/","lat":-35.258179,"lon":138.903269},{"sector":"government","school_name":"Berri Primary School","suburb":"Berri","postcode":"5343","phone":"","public_email":"dl.0532.info@schools.sa.edu.au","contact_form_url":"https://berrips.sa.edu.au/contact-us/","website_url":"http://www.berrips.sa.edu.au","lat":-34.279661,"lon":140.594112},{"sector":"government","school_name":"Wynn Vale School","suburb":"Wynn Vale","postcode":"5127","phone":"","public_email":"","contact_form_url":"","website_url":"https://wynnvaleschool.sa.edu.au/","lat":-34.799662,"lon":138.687828},{"sector":"government","school_name":"Aberfoyle Hub Primary School","suburb":"Aberfoyle Park","postcode":"5159","phone":"","public_email":"","contact_form_url":"","website_url":"http://www.ahs.sa.edu.au/","lat":-35.078139,"lon":138.595142},{"sector":"government","school_name":"Parafield Gardens Primary School","suburb":"Parafield Gardens","postcode":"5107","phone":"","public_email":"dl.0537.info@schools.sa.edu.au","contact_form_url":"https://pgardens.sa.edu.au/","website_url":"http://www.pgardens.sa.edu.au","lat":-34.785192,"lon":138.616383},{"sector":"government","school_name":"Birdwood Primary School","suburb":"Birdwood","postcode":"5234","phone":"","public_email":"dl.0547.info@schools.sa.edu.au","contact_form_url":"https://birdwoodps.sa.edu.au/contact-us/","website_url":"http://www.birdwoodps.sa.edu.au","lat":-34.821593,"lon":138.959001},{"sector":"government","school_name":"Black Forest Primary School","suburb":"Black Forest","postcode":"5035","phone":"","public_email":"dl.0548.info@schools.sa.edu.au","contact_form_url":"https://blackforestps.sa.edu.au/","website_url":"https://blackforestps.sa.edu.au/","lat":-34.960682,"lon":138.573308},{"sector":"government","school_name":"Whyalla Special Education Centre","suburb":"Whyalla Norrie","postcode":"5608","phone":"","public_email":"dl.0559.info@schools.sa.edu.au","contact_form_url":"http://whyallasp.sa.edu.au/contact/","website_url":"http://www.whyallasp.sa.edu.au","lat":-33.029861,"lon":137.548506},{"sector":"government","school_name":"Lake Wangary School","suburb":"Wangary","postcode":"5607","phone":"","public_email":"dl.0563.info@schools.sa.edu.au","contact_form_url":"https://lakewangaryschool.sa.edu.au/contact-us/","website_url":"http://lakewangaryschool.sa.edu.au","lat":-34.550294,"lon":135.479343},{"sector":"government","school_name":"Blackwood Primary School","suburb":"Eden Hills","postcode":"5050","phone":"","public_email":"dl.0565.info@schools.sa.edu.au","contact_form_url":"https://blackwoodps.sa.edu.au/contact-us/","website_url":"http://www.blackwoodps.sa.edu.au","lat":-35.026849,"lon":138.605897},{"sector":"government","school_name":"Blanchetown Primary School","suburb":"Blanchetown","postcode":"5357","phone":"","public_email":"dl.0571.info@schools.sa.edu.au","contact_form_url":"https://blanchtnps.sa.edu.au/","website_url":"http://www.blanchtnps.sa.edu.au","lat":-34.350655,"lon":139.61118},{"sector":"government","school_name":"Para Hills High School","suburb":"Para Hills West","postcode":"5096","phone":"","public_email":"dl.0574.info@schools.sa.edu.au","contact_form_url":"https://www.phhs.sa.edu.au/our-school/contact/","website_url":"http://www.phhs.sa.edu.au","lat":-34.799266,"lon":138.650711},{"sector":"government","school_name":"Blyth Primary School","suburb":"Blyth","postcode":"5462","phone":"","public_email":"dl.0586.info@schools.sa.edu.au","contact_form_url":"https://blythps.sa.edu.au/contact/","website_url":"http://www.blythps.sa.edu.au","lat":-33.843766,"lon":138.490696},{"sector":"government","school_name":"Nangwarry Primary School","suburb":"Nangwarry","postcode":"5277","phone":"","public_email":"dl.0592.info@schools.sa.edu.au","contact_form_url":"https://nangwaryps.sa.edu.au/contact-us/","website_url":"http://www.nangwaryps.sa.edu.au","lat":-37.541501,"lon":140.818328},{"sector":"government","school_name":"Padthaway Primary School","suburb":"Padthaway","postcode":"5271","phone":"","public_email":"","contact_form_url":"","website_url":"https://padthawayps.sa.edu.au/","lat":-36.593103,"lon":140.496881},{"sector":"government","school_name":"Highbury Primary School","suburb":"Hope Valley","postcode":"5090","phone":"","public_email":"dl.0596.info@schools.sa.edu.au","contact_form_url":"https://highburyps.sa.edu.au/contact-us/","website_url":"http://www.highburyps.sa.edu.au","lat":-34.847954,"lon":138.709995},{"sector":"government","school_name":"Booborowie Primary School","suburb":"Booborowie","postcode":"5417","phone":"","public_email":"dl.0600.info@schools.sa.edu.au","contact_form_url":"https://boobps.sa.edu.au/contact-us/","website_url":"http://www.boobps.sa.edu.au","lat":-33.56690979003906,"lon":138.75961303710938},{"sector":"government","school_name":"Millicent North Primary School","suburb":"Millicent","postcode":"5280","phone":"","public_email":"dl.0605.info@schools.sa.edu.au","contact_form_url":"http://www.millnthps.sa.edu.au/contact","website_url":"http://www.millnthps.sa.edu.au","lat":-37.592968,"lon":140.343376},{"sector":"government","school_name":"Whyalla Stuart Primary School R-6","suburb":"Whyalla Stuart","postcode":"5608","phone":"","public_email":"dl.0625.info@schools.sa.edu.au","contact_form_url":"https://whystuarps.sa.edu.au/","website_url":"http://www.whystuarps.sa.edu.au","lat":-33.015064,"lon":137.517105},{"sector":"government","school_name":"Keller Road Primary School","suburb":"Salisbury East","postcode":"5109","phone":"","public_email":"dl.0632.info@schools.sa.edu.au","contact_form_url":"https://kellerrdps.sa.edu.au","website_url":"http://www.kellerrdps.sa.edu.au","lat":-34.792341,"lon":138.656283},{"sector":"government","school_name":"Bridgewater Primary School","suburb":"Bridgewater","postcode":"5155","phone":"","public_email":"dl.0636.info@schools.sa.edu.au","contact_form_url":"https://bridgeps.sa.edu.au/contact/","website_url":"http://www.bridgeps.sa.edu.au","lat":-35.00499562,"lon":138.76169186},{"sector":"government","school_name":"Brighton Primary School","suburb":"Brighton","postcode":"5048","phone":"","public_email":"","contact_form_url":"","website_url":"http://www.brightonps.sa.edu.au","lat":-35.015974,"lon":138.526228},{"sector":"government","school_name":"Wirreanda Secondary School","suburb":"Morphett Vale","postcode":"5162","phone":"","public_email":"","contact_form_url":"","website_url":"http://www.wirreandasecondary.sa.edu.au","lat":-35.12807898,"lon":138.53323288},{"sector":"government","school_name":"Hallett Cove School","suburb":"Hallett Cove","postcode":"5158","phone":"","public_email":"info@hcs.sa.edu.au","contact_form_url":"https://hcs.sa.edu.au/","website_url":"http://www.hcs.sa.edu.au","lat":-35.075965,"lon":138.511116},{"sector":"government","school_name":"Seaford Secondary College","suburb":"Seaford","postcode":"5169","phone":"","public_email":"dl.0641.info@schools.sa.edu.au","contact_form_url":"https://www.seafordhs.sa.edu.au","website_url":"http://www.seafordhs.sa.edu.au","lat":-35.187173,"lon":138.482221},{"sector":"government","school_name":"Brompton Primary School","suburb":"Renown Park","postcode":"5008","phone":"","public_email":"","contact_form_url":"","website_url":"http://www.bromptonps.sa.edu.au","lat":-34.893989,"lon":138.581272},{"sector":"government","school_name":"Linden Park Primary School","suburb":"Linden Park","postcode":"5065","phone":"","public_email":"dl.0647.info@schools.sa.edu.au","contact_form_url":"https://www.lindenpk.sa.edu.au","website_url":"https://www.lindenpk.sa.edu.au/","lat":-34.94781,"lon":138.645603},{"sector":"government","school_name":"Madison Park School","suburb":"Salisbury East","postcode":"5109","phone":"","public_email":"","contact_form_url":"","website_url":"http://www.madisonps.sa.edu.au/","lat":-34.783863,"lon":138.662355},{"sector":"government","school_name":"Rapid Bay Primary School","suburb":"Rapid Bay","postcode":"5204","phone":"","public_email":"dl.0650_info@schools.sa.edu.au","contact_form_url":"https://rapidbayps.sa.edu.au/","website_url":"http://www.rapidbayps.sa.edu.au","lat":-35.526676,"lon":138.193855},{"sector":"government","school_name":"Forbes Primary School","suburb":"South Plympton","postcode":"5038","phone":"","public_email":"dl.0658.info@schools.sa.edu.au","contact_form_url":"http://www.forbesps.sa.edu.au/cart","website_url":"http://www.forbesps.sa.edu.au","lat":-34.97818822,"lon":138.55739693},{"sector":"government","school_name":"Enfield Primary School","suburb":"Enfield","postcode":"5085","phone":"","public_email":"","contact_form_url":"","website_url":"http://www.enfieldps.sa.edu.au","lat":-34.865392,"lon":138.60299},{"sector":"government","school_name":"Salisbury North Primary School","suburb":"Salisbury North","postcode":"5108","phone":"","public_email":"","contact_form_url":"","website_url":"http://www.salisburynorth.sa.edu.au/","lat":-34.753217,"lon":138.63533},{"sector":"government","school_name":"Hillcrest Primary School","suburb":"Hillcrest","postcode":"5086","phone":"","public_email":"","contact_form_url":"","website_url":"http://www.hillcrstps.sa.edu.au","lat":-34.866383,"lon":138.638678},{"sector":"government","school_name":"Darlington Primary School","suburb":"Seacombe Gardens","postcode":"5047","phone":"","public_email":"dl.0666.info@schools.sa.edu.au","contact_form_url":"https://www.darlngtnps.sa.edu.au/contact/","website_url":"http://www.darlngtnps.sa.edu.au","lat":-35.027204,"lon":138.546916},{"sector":"government","school_name":"Paringa Park Primary School","suburb":"North Brighton","postcode":"5048","phone":"","public_email":"dl.0668_info@schools.sa.edu.au","contact_form_url":"https://paringpkps.sa.edu.au/contact-us/","website_url":"http://www.paringpkps.sa.edu.au","lat":-35.002543,"lon":138.525628},{"sector":"government","school_name":"Hendon Primary School","suburb":"Royal Park","postcode":"5014","phone":"","public_email":"","contact_form_url":"","website_url":"http://www.hendonps.sa.edu.au","lat":-34.877824,"lon":138.510886},{"sector":"government","school_name":"Nicolson Avenue Primary School","suburb":"Whyalla Norrie","postcode":"5608","phone":"","public_email":"dl.0677.info@schools.sa.edu.au","contact_form_url":"https://nicolsonps.sa.edu.au/contact-us/","website_url":"https://nicolsonps.sa.edu.au/","lat":-33.029095,"lon":137.549705},{"sector":"government","school_name":"Loxton North School","suburb":"Loxton North","postcode":"5333","phone":"","public_email":"dl.0678.info@schools.sa.edu.au","contact_form_url":"https://lnorthschool.sa.edu.au/","website_url":"http://www.lnorthschool.sa.edu.au","lat":-34.413133,"lon":140.624328},{"sector":"government","school_name":"Willsden Primary School","suburb":"Port Augusta","postcode":"5700","phone":"","public_email":"dl.0679.info@schools.sa.edu.au","contact_form_url":"https://willsdenps.sa.edu.au/contact-us/","website_url":"http://www.willsdenps.sa.edu.au","lat":-32.506303,"lon":137.780351},{"sector":"government","school_name":"Risdon Park Primary School","suburb":"Port Pirie","postcode":"5540","phone":"","public_email":"dl.0685.info@schools.sa.edu.au","contact_form_url":"https://risdonpkps.sa.edu.au/","website_url":"http://www.risdonpkps.sa.edu.au","lat":-33.203247,"lon":138.008071},{"sector":"government","school_name":"Elizabeth South Primary School","suburb":"Elizabeth South","postcode":"5112","phone":"","public_email":"","contact_form_url":"","website_url":"http://www.elizsthps.sa.edu.au","lat":-34.73111,"lon":138.66211},{"sector":"government","school_name":"Hampstead Primary School","suburb":"Greenacres","postcode":"5086","phone":"","public_email":"","contact_form_url":"","website_url":"http://www.hampsteadps.sa.edu.au","lat":-34.870813,"lon":138.625981},{"sector":"government","school_name":"Burnside Primary School","suburb":"Burnside","postcode":"5066","phone":"","public_email":"","contact_form_url":"","website_url":"http://www.burnsideps.sa.edu.au/","lat":-34.935601,"lon":138.661574},{"sector":"government","school_name":"Bute Early Learning and Primary School","suburb":"Bute","postcode":"5560","phone":"","public_email":"dl.0702.info@schools.sa.edu.au","contact_form_url":"https://buteps.sa.edu.au/","website_url":"http://www.buteps.sa.edu.au","lat":-33.864926,"lon":138.003827},{"sector":"government","school_name":"Callington Primary School","suburb":"Callington","postcode":"5254","phone":"","public_email":"dl.0705_info@schools.sa.edu.au","contact_form_url":"https://www.callingtonps.sa.edu.au/","website_url":"https://www.callingtonps.sa.edu.au/","lat":-35.114544,"lon":139.039395},{"sector":"government","school_name":"Challa Gardens Primary School","suburb":"Kilkenny","postcode":"5009","phone":"","public_email":"","contact_form_url":"","website_url":"http://www.challaps.sa.edu.au","lat":-34.877562,"lon":138.555082},{"sector":"government","school_name":"Clare Primary School","suburb":"Clare","postcode":"5453","phone":"","public_email":"dl.0719.info@schools.sa.edu.au","contact_form_url":"https://clareps.sa.edu.au/contact/","website_url":"http://www.clareps.sa.edu.au","lat":-33.840746,"lon":138.618052},{"sector":"government","school_name":"Clarendon Primary School","suburb":"Clarendon","postcode":"5157","phone":"","public_email":"jason.masters703@schools.sa.edu.au","contact_form_url":"https://clarendonps.sa.edu.au/contact-us/","website_url":"http://www.clarendonps.sa.edu.au","lat":-35.101631,"lon":138.633639},{"sector":"government","school_name":"Cobdogla Primary School","suburb":"Cobdogla","postcode":"5346","phone":"","public_email":"dl.0721.info@schools.sa.edu.au","contact_form_url":"https://cobdoglaps.sa.edu.au/contact-us/","website_url":"http://www.cobdoglaps.sa.edu.au/","lat":-34.242439,"lon":140.406113},{"sector":"government","school_name":"Colonel Light Gardens Primary School","suburb":"Colonel Light Gardens","postcode":"5041","phone":"","public_email":"dl.0723.info@schools.sa.edu.au","contact_form_url":"https://clgps.sa.edu.au/site-search","website_url":"https://clgps.sa.edu.au/","lat":-34.986809,"lon":138.59544},{"sector":"government","school_name":"Compton Primary School","suburb":"Suttontown","postcode":"5291","phone":"","public_email":"","contact_form_url":"","website_url":"http://www.comptonps.sa.edu.au","lat":-37.801357,"lon":140.728606},{"sector":"government","school_name":"Coomandook Area School","suburb":"Coomandook","postcode":"5261","phone":"","public_email":"dl.0729.info@schools.sa.edu.au","contact_form_url":"https://www.coomyas.sa.edu.au/contact-us/","website_url":"http://www.coomyas.sa.edu.au","lat":-35.475958,"lon":139.708742},{"sector":"government","school_name":"Ardrossan Area School","suburb":"Ardrossan","postcode":"5571","phone":"","public_email":"dl.0732.info@schools.sa.edu.au","contact_form_url":"https://ardas.sa.edu.au/contact-us/","website_url":"http://www.ardas.sa.edu.au/","lat":-34.423756,"lon":137.91592},{"sector":"government","school_name":"Bordertown Primary School","suburb":"Bordertown","postcode":"5268","phone":"","public_email":"","contact_form_url":"","website_url":"https://bordertownps.sa.edu.au/","lat":-36.31465,"lon":140.76598},{"sector":"government","school_name":"Ceduna Area School","suburb":"Ceduna","postcode":"5690","phone":"","public_email":"","contact_form_url":"","website_url":"http://www.cedunaas.sa.edu.au","lat":-32.137676,"lon":133.671396},{"sector":"government","school_name":"Cowell Area School","suburb":"Cowell","postcode":"5602","phone":"","public_email":"dl.0735.info@schools.sa.edu.au","contact_form_url":"https://cowellas.sa.edu.au/contact-us/","website_url":"http://www.cowellas.sa.edu.au","lat":-33.682729,"lon":136.918442},{"sector":"government","school_name":"Kimba Area School","suburb":"Kimba","postcode":"5641","phone":"","public_email":"dl.0736_info@schools.sa.edu.au","contact_form_url":"http://www.kimbaas.sa.edu.au/more?groupId=82f3ae52-06d7-563b-abfb-a0c6a5647f9f","website_url":"http://www.kimbaas.sa.edu.au","lat":-33.135605,"lon":136.419417},{"sector":"government","school_name":"Kingston Community School","suburb":"Kingston Se","postcode":"5275","phone":"","public_email":"dl.0737.info@schools.sa.edu.au","contact_form_url":"https://kingstoncs.sa.edu.au/","website_url":"http://www.kingstoncs.sa.edu.au","lat":-36.83636633,"lon":139.85766276},{"sector":"government","school_name":"Orroroo Area School","suburb":"Orroroo","postcode":"5431","phone":"","public_email":"","contact_form_url":"","website_url":"http://www.orrorooas.sa.edu.au/","lat":-32.728505,"lon":138.612211},{"sector":"government","school_name":"Port Broughton Area School","suburb":"Port Broughton","postcode":"5522","phone":"","public_email":"dl.0741_info@schools.sa.edu.au","contact_form_url":"http://www.pbas.sa.edu.au/contact/","website_url":"http://www.pbas.sa.edu.au","lat":-33.604039,"lon":137.933111},{"sector":"government","school_name":"Snowtown Primary School","suburb":"Snowtown","postcode":"5520","phone":"","public_email":"dl.0742.info@schools.sa.edu.au","contact_form_url":"https://snowtownps.sa.edu.au/contact-us/","website_url":"https://snowtownps.sa.edu.au/","lat":-33.783548,"lon":138.221653},{"sector":"government","school_name":"Tumby Bay Area School","suburb":"Tumby Bay","postcode":"5605","phone":"","public_email":"dl.0743.info@schools.sa.edu.au","contact_form_url":"https://tbas.sa.edu.au/","website_url":"http://www.tbas.sa.edu.au","lat":-34.37575,"lon":136.099182},{"sector":"government","school_name":"Willunga Primary School","suburb":"Willunga","postcode":"5172","phone":"","public_email":"dl.0744.info@schools.sa.edu.au","contact_form_url":"https://willungaps.sa.edu.au/contact-us/","website_url":"http://www.willungaps.sa.edu.au","lat":-35.26919892,"lon":138.55287645},{"sector":"government","school_name":"Streaky Bay Area School","suburb":"Streaky Bay","postcode":"5680","phone":"","public_email":"","contact_form_url":"","website_url":"http://www.streakybas.sa.edu.au","lat":-32.798217,"lon":134.201213},{"sector":"government","school_name":"Woomera Area School","suburb":"Woomera","postcode":"5720","phone":"","public_email":"dl.0746_admin@schools.sa.edu.au","contact_form_url":"https://woomera.sa.edu.au/contact-us/","website_url":"http://www.woomera.sa.edu.au","lat":-31.19727554,"lon":136.82552519},{"sector":"government","school_name":"Cambrai Primary School","suburb":"Cambrai","postcode":"5353","phone":"","public_email":"dl.0747.admin@schools.sa.edu.au","contact_form_url":"https://cambraips.sa.edu.au/contact-us/","website_url":"https://cambraips.sa.edu.au/","lat":-34.652888,"lon":139.280966},{"sector":"government","school_name":"Leigh Creek Area School","suburb":"Leigh Creek","postcode":"5731","phone":"","public_email":"dl.0748.info@schools.sa.edu.au","contact_form_url":"http://www.leighcreekas.sa.edu.au/site-search","website_url":"http://www.leighcreekas.sa.edu.au","lat":-30.592851,"lon":138.401496},{"sector":"government","school_name":"Lucindale Area School","suburb":"Lucindale","postcode":"5272","phone":"","public_email":"dl.0749.info@schools.sa.edu.au","contact_form_url":"https://las.sa.edu.au/contact-us/","website_url":"http://www.las.sa.edu.au","lat":-36.964206,"lon":140.370633},{"sector":"government","school_name":"Meningie Area School","suburb":"Meningie","postcode":"5264","phone":"","public_email":"dl.0750_info@schools.sa.edu.au","contact_form_url":"https://meningieas.sa.edu.au/","website_url":"http://www.meningieas.sa.edu.au","lat":-35.682635,"lon":139.342158},{"sector":"government","school_name":"Allendale East Area School","suburb":"Allendale East","postcode":"5291","phone":"","public_email":"dl.info_0751@schools.sa.edu.au","contact_form_url":"http://www.alleastas.sa.edu.au/contact-us.htm","website_url":"http://www.alleastas.sa.edu.au/","lat":-38.00299273,"lon":140.7102306},{"sector":"government","school_name":"Brinkworth Primary and Early Childhood Centre","suburb":"Brinkworth","postcode":"5464","phone":"","public_email":"dl.0752.info@schools.sa.edu.au","contact_form_url":"https://brinkwthpriecc.sa.edu.au/","website_url":"https://brinkwthpriecc.sa.edu.au/","lat":-33.68829943,"lon":138.40421358},{"sector":"government","school_name":"Cleve Area School","suburb":"Cleve","postcode":"5640","phone":"","public_email":"dl.0753.info@schools.sa.edu.au","contact_form_url":"https://cleveas.sa.edu.au/home/contact-us/","website_url":"http://www.cleveas.sa.edu.au","lat":-33.699647,"lon":136.497429},{"sector":"government","school_name":"Cummins Area School","suburb":"Cummins","postcode":"5631","phone":"","public_email":"dl.0754_info@schools.sa.edu.au","contact_form_url":"https://www.cumminsas.sa.edu.au/search","website_url":"http://www.cumminsas.sa.edu.au","lat":-34.263356,"lon":135.72233},{"sector":"government","school_name":"Eudunda Area School","suburb":"Eudunda","postcode":"5374","phone":"","public_email":"dl.0755.info@schools.sa.edu.au","contact_form_url":"https://eudundaas.sa.edu.au/contact-us/","website_url":"http://www.eudundaas.sa.edu.au","lat":-34.183042,"lon":139.091288},{"sector":"government","school_name":"Karoonda Area School","suburb":"Karoonda","postcode":"5307","phone":"","public_email":"dl.0756.info@schools.sa.edu.au","contact_form_url":"https://kas.sa.edu.au/contact-us/","website_url":"http://www.kas.sa.edu.au","lat":-35.092167,"lon":139.89422},{"sector":"government","school_name":"Keith Area School","suburb":"Keith","postcode":"5267","phone":"","public_email":"dl.0757_admin@schools.sa.edu.au","contact_form_url":"https://keithas.sa.edu.au/contact-us/","website_url":"http://www.keithas.sa.edu.au","lat":-36.099603,"lon":140.351249},{"sector":"government","school_name":"Kangaroo Island Community Education","suburb":"Kingscote","postcode":"5223","phone":"","public_email":"dl.1882.info@schools.sa.edu.au","contact_form_url":"https://www.kice.sa.edu.au/contact-us-2/","website_url":"http://www.kice.sa.edu.au","lat":-35.650387,"lon":137.633343},{"sector":"government","school_name":"Lameroo Regional Community School","suburb":"Lameroo","postcode":"5302","phone":"","public_email":"dl.0759.info@schools.sa.edu.au","contact_form_url":"","website_url":"http://www.lameroorcs.sa.edu.au","lat":-35.331434,"lon":140.522579},{"sector":"government","school_name":"Loxton Primary School","suburb":"Loxton","postcode":"5333","phone":"","public_email":"","contact_form_url":"","website_url":"http://www.loxtonps.sa.edu.au/","lat":-34.451324,"lon":140.567155},{"sector":"government","school_name":"Central Yorke School","suburb":"Maitland","postcode":"5573","phone":"","public_email":"dl.0761.info@schools.sa.edu.au","contact_form_url":"https://centralyorkeschool.sa.edu.au/connect/contact/","website_url":"http://centralyorkeschool.sa.edu.au","lat":-34.368261,"lon":137.673481},{"sector":"government","school_name":"Oakbank School","suburb":"Oakbank","postcode":"5243","phone":"","public_email":"dl.0762.info@schools.sa.edu.au","contact_form_url":"https://oakbank.sa.edu.au/contact-us/","website_url":"https://oakbank.sa.edu.au/","lat":-34.988726,"lon":138.837232},{"sector":"government","school_name":"Penola Primary School","suburb":"Penola","postcode":"5277","phone":"","public_email":"dl.0763.info@schools.sa.edu.au","contact_form_url":"https://penolaps.sa.edu.au/","website_url":"http://www.penolaps.sa.edu.au","lat":-37.379147,"lon":140.833229},{"sector":"government","school_name":"Pinnaroo Primary School","suburb":"Pinnaroo","postcode":"5304","phone":"","public_email":"dl.0764_admin@schools.sa.edu.au","contact_form_url":"https://pinnaroops.sa.edu.au/contact-us/","website_url":"http://www.pinnaroops.sa.edu.au","lat":-35.255862,"lon":140.907922},{"sector":"government","school_name":"Wudinna Area School","suburb":"Wudinna","postcode":"5652","phone":"","public_email":"dl.0765.info@schools.sa.edu.au","contact_form_url":"https://wudinnaas.sa.edu.au/contact-us/","website_url":"http://www.wudinnaas.sa.edu.au","lat":-33.044622,"lon":135.462876},{"sector":"government","school_name":"Yankalilla Area School","suburb":"Yankalilla","postcode":"5203","phone":"","public_email":"dl.0766.info@schools.sa.edu.au","contact_form_url":"http://www.yankas.sa.edu.au/site-search","website_url":"http://www.yankas.sa.edu.au","lat":-35.4533,"lon":138.333092},{"sector":"government","school_name":"Yorketown Area School","suburb":"Yorketown","postcode":"5576","phone":"","public_email":"dl.0767.info@schools.sa.edu.au","contact_form_url":"https://yorketownareaschool.sa.edu.au/contact-us/","website_url":"https://yorketownareaschool.sa.edu.au/","lat":-35.015376,"lon":137.615442},{"sector":"government","school_name":"Adelaide High School","suburb":"Adelaide","postcode":"5000","phone":"","public_email":"dl.0768.office@schools.sa.edu.au","contact_form_url":"https://adelaidehs.sa.edu.au/search/results","website_url":"http://www.adelaidehs.sa.edu.au","lat":-34.925733,"lon":138.586678},{"sector":"government","school_name":"Balaklava High School","suburb":"Balaklava","postcode":"5461","phone":"","public_email":"dl.0769.info@schools.sa.edu.au","contact_form_url":"http://www.balakhs.sa.edu.au/site-search","website_url":"http://www.balakhs.sa.edu.au","lat":-34.1503,"lon":138.41511},{"sector":"government","school_name":"Birdwood High School","suburb":"Birdwood","postcode":"5234","phone":"","public_email":"","contact_form_url":"","website_url":"http://www.birdwoodhs.sa.edu.au","lat":-34.821593,"lon":138.959001},{"sector":"government","school_name":"Booleroo Centre District School","suburb":"Booleroo Centre","postcode":"5482","phone":"","public_email":"dl.0771_info@schools.sa.edu.au","contact_form_url":"https://booleroods.sa.edu.au/","website_url":"http://www.booleroods.sa.edu.au","lat":-32.8776,"lon":138.35},{"sector":"government","school_name":"Clare High School","suburb":"Clare","postcode":"5453","phone":"","public_email":"dl.0773.info@schools.sa.edu.au","contact_form_url":"https://clarehs.sa.edu.au/contact/","website_url":"http://www.clarehs.sa.edu.au","lat":-33.822384,"lon":138.596522},{"sector":"government","school_name":"Gawler and District College B-12","suburb":"Evanston","postcode":"5116","phone":"","public_email":"dl.0774.info@schools.sa.edu.au","contact_form_url":"http://www.gdc.sa.edu.au/search.html","website_url":"http://www.gdc.sa.edu.au","lat":-34.619476,"lon":138.736184},{"sector":"government","school_name":"Gladstone High School","suburb":"Gladstone","postcode":"5473","phone":"","public_email":"dl.0775.info@schools.sa.edu.au","contact_form_url":"http://www.gladstonehs.sa.edu.au/site-search","website_url":"http://www.gladstonehs.sa.edu.au","lat":-33.27380028,"lon":138.35234161},{"sector":"government","school_name":"Jamestown Community School","suburb":"Jamestown","postcode":"5491","phone":"","public_email":"dl.0777_info@schools.sa.edu.au","contact_form_url":"https://jcs.sa.edu.au/contact-us/","website_url":"https://jcs.sa.edu.au/","lat":-33.204904,"lon":138.609566},{"sector":"government","school_name":"Kadina Memorial School","suburb":"Kadina","postcode":"5554","phone":"","public_email":"","contact_form_url":"","website_url":"http://www.kms.sa.edu.au","lat":-33.9627,"lon":137.708},{"sector":"government","school_name":"Kapunda High School","suburb":"Kapunda","postcode":"5373","phone":"","public_email":"dl.0779.info@schools.sa.edu.au","contact_form_url":"http://www.kapundahs.sa.edu.au/site-search","website_url":"http://www.kapundahs.sa.edu.au","lat":-34.332945,"lon":138.910495},{"sector":"government","school_name":"Millicent High School","suburb":"Millicent","postcode":"5280","phone":"","public_email":"dl.0780.info@schools.sa.edu.au","contact_form_url":"https://millicenths.sa.edu.au/","website_url":"https://www.millicenths.sa.edu.au/high-school/","lat":-37.590971,"lon":140.358711},{"sector":"government","school_name":"Minlaton District School","suburb":"Minlaton","postcode":"5575","phone":"","public_email":"dl.0781.info@schools.sa.edu.au","contact_form_url":"https://www.minlatonds.sa.edu.au/contact","website_url":"http://www.minlatonds.sa.edu.au","lat":-34.765873,"lon":137.593581},{"sector":"government","school_name":"Mount Barker High School","suburb":"Mount Barker","postcode":"5251","phone":"","public_email":"","contact_form_url":"","website_url":"http://www.mtbhs.sa.edu.au","lat":-35.074991,"lon":138.85705},{"sector":"government","school_name":"Mount Gambier High School","suburb":"Mount Gambier","postcode":"5290","phone":"","public_email":"dl.0784.info@schools.sa.edu.au","contact_form_url":"https://www.mghs.sa.edu.au/","website_url":"http://www.mghs.sa.edu.au","lat":-37.826147,"lon":140.765689},{"sector":"government","school_name":"Murray Bridge High School","suburb":"Murray Bridge","postcode":"5253","phone":"","public_email":"","contact_form_url":"","website_url":"http://www.murraybridgehs.sa.edu.au","lat":-35.135051,"lon":139.285294},{"sector":"government","school_name":"Naracoorte High School","suburb":"Naracoorte","postcode":"5271","phone":"","public_email":"","contact_form_url":"","website_url":"http://www.narahs.sa.edu.au","lat":-36.948548,"lon":140.726873},{"sector":"government","school_name":"Norwood International High School","suburb":"Magill","postcode":"5072","phone":"","public_email":"dl.0787.info@schools.sa.edu.au","contact_form_url":"https://nihs.sa.edu.au","website_url":"https://nihs.sa.edu.au/","lat":-34.918101,"lon":138.672233},{"sector":"government","school_name":"Nuriootpa High School","suburb":"Nuriootpa","postcode":"5355","phone":"","public_email":"","contact_form_url":"","website_url":"http://www.nurihs.sa.edu.au/","lat":-34.470127,"lon":139.003304},{"sector":"government","school_name":"Peterborough High School","suburb":"Peterborough","postcode":"5422","phone":"","public_email":"dl.0789.info@schools.sa.edu.au","contact_form_url":"https://phs.sa.edu.au/contact-us/","website_url":"http://www.phs.sa.edu.au","lat":-32.9787,"lon":138.836212},{"sector":"government","school_name":"Port Augusta Secondary School","suburb":"Port Augusta","postcode":"5700","phone":"","public_email":"dl.0790.info@schools.sa.edu.au","contact_form_url":"https://pass.sa.edu.au/","website_url":"http://www.pass.sa.edu.au","lat":-32.493756,"lon":137.768758},{"sector":"government","school_name":"Port Lincoln High School","suburb":"Port Lincoln","postcode":"5606","phone":"","public_email":"","contact_form_url":"","website_url":"http://www.plhs.sa.edu.au/","lat":-34.723847,"lon":135.853942},{"sector":"government","school_name":"John Pirie Secondary School","suburb":"Port Pirie","postcode":"5540","phone":"","public_email":"dl.0792.info@schools.sa.edu.au","contact_form_url":"http://www.jpss.sa.edu.au/site-search","website_url":"http://www.jpss.sa.edu.au","lat":-33.183024,"lon":138.010153},{"sector":"government","school_name":"Quorn Area School","suburb":"Quorn","postcode":"5433","phone":"","public_email":"dl.0793.info@schools.sa.edu.au","contact_form_url":"http://www.quornas.sa.edu.au/contact","website_url":"http://www.quornas.sa.edu.au","lat":-32.348904,"lon":138.036572},{"sector":"government","school_name":"Renmark High School","suburb":"Renmark","postcode":"5341","phone":"","public_email":"","contact_form_url":"","website_url":"http://www.renmarkhs.sa.edu.au","lat":-34.172088,"lon":140.741263},{"sector":"government","school_name":"Riverton and District High School","suburb":"Riverton","postcode":"5412","phone":"","public_email":"dl.0795.info@schools.sa.edu.au","contact_form_url":"http://www.rdhs.sa.edu.au/contact-us/","website_url":"http://www.rdhs.sa.edu.au","lat":-34.156173,"lon":138.749643},{"sector":"government","school_name":"Unley High School","suburb":"Netherby","postcode":"5062","phone":"","public_email":"dl.0797.info@schools.sa.edu.au","contact_form_url":"https://uhs.sa.edu.au/","website_url":"http://www.uhs.sa.edu.au","lat":-34.970162,"lon":138.620336},{"sector":"government","school_name":"Urrbrae Agricultural High School","suburb":"Netherby","postcode":"5062","phone":"","public_email":"dl.0798.admin@schools.sa.edu.au","contact_form_url":"https://urrbraehs.sa.edu.au","website_url":"http://www.urrbraehs.sa.edu.au","lat":-34.966958,"lon":138.625341},{"sector":"government","school_name":"Victor Harbor High School","suburb":"Victor Harbor","postcode":"5211","phone":"","public_email":"dl.0799.ictsupport@schools.sa.edu.au","contact_form_url":"http://www.vhhs.sa.edu.au/contacts","website_url":"http://www.vhhs.sa.edu.au","lat":-35.556148,"lon":138.611226},{"sector":"government","school_name":"Waikerie High School","suburb":"Waikerie","postcode":"5330","phone":"","public_email":"","contact_form_url":"","website_url":"http://www.waikeriehs.sa.edu.au","lat":-34.184584,"lon":139.973102},{"sector":"government","school_name":"Woodville High School","suburb":"St Clair","postcode":"5011","phone":"","public_email":"dl.0801.info@schools.sa.edu.au","contact_form_url":"https://woodvillehigh.sa.edu.au/","website_url":"https://woodvillehigh.sa.edu.au/","lat":-34.872943,"lon":138.540808},{"sector":"government","school_name":"Brighton Secondary School","suburb":"North Brighton","postcode":"5048","phone":"","public_email":"","contact_form_url":"","website_url":"http://www.brightonss.sa.edu.au","lat":-35.003619,"lon":138.519676},{"sector":"government","school_name":"Findon High School","suburb":"Findon","postcode":"5023","phone":"","public_email":"","contact_form_url":"","website_url":"http://www.findonhs.sa.edu.au","lat":-34.898332,"lon":138.526613},{"sector":"government","school_name":"Henley High School","suburb":"Henley Beach","postcode":"5022","phone":"","public_email":"","contact_form_url":"","website_url":"http://www.henleyhs.sa.edu.au","lat":-34.92287645,"lon":138.50126862},{"sector":"government","school_name":"Le Fevre High School","suburb":"Semaphore South","postcode":"5019","phone":"","public_email":"dl.0814_info@schools.sa.edu.au","contact_form_url":"https://www.lefevrehs.sa.edu.au/","website_url":"http://www.lefevrehs.sa.edu.au","lat":-34.845622,"lon":138.484995},{"sector":"government","school_name":"Marryatville High School","suburb":"Marryatville","postcode":"5068","phone":"","public_email":"dl.0817.info@schools.sa.edu.au","contact_form_url":"https://marryatvillehs.sa.edu.au/","website_url":"http://www.marryatvillehs.sa.edu.au","lat":-34.9291,"lon":138.645443},{"sector":"government","school_name":"Hamilton Secondary College","suburb":"Mitchell Park","postcode":"5043","phone":"","public_email":"dl.0823.info@schools.sa.edu.au","contact_form_url":"https://www.hamcoll.sa.edu.au","website_url":"http://www.hamcoll.sa.edu.au","lat":-34.99837,"lon":138.560781},{"sector":"government","school_name":"Elizabeth North Primary School","suburb":"Elizabeth North","postcode":"5113","phone":"","public_email":"","contact_form_url":"","website_url":"http://www.eliznthc7.sa.edu.au","lat":-34.703341,"lon":138.674156},{"sector":"government","school_name":"The Grove Education Centre","suburb":"Woodville","postcode":"5011","phone":"","public_email":"","contact_form_url":"","website_url":"http://www.thegroveec.sa.edu.au","lat":-34.873425,"lon":138.544354},{"sector":"government","school_name":"Raukkan Aboriginal School","suburb":"Raukkan","postcode":"5259","phone":"","public_email":"dl.0845.info@schools.sa.edu.au","contact_form_url":"https://raukkanab.sa.edu.au/index.php/contact/","website_url":"http://www.raukkanab.sa.edu.au","lat":-35.50823405,"lon":139.13156223},{"sector":"government","school_name":"Open Access College","suburb":"Marden","postcode":"5070","phone":"","public_email":"library@openaccess.edu.au","contact_form_url":"http://www.openaccess.edu.au/search","website_url":"http://www.openaccess.edu.au","lat":-34.891954,"lon":138.63523},{"sector":"government","school_name":"Salisbury High School","suburb":"Salisbury North","postcode":"5108","phone":"","public_email":"","contact_form_url":"","website_url":"http://www.salisburyhigh.sa.edu.au","lat":-34.755983,"lon":138.640772},{"sector":"government","school_name":"Seaview High School","suburb":"Seacombe Heights","postcode":"5047","phone":"","public_email":"dl.0893.info@schools.sa.edu.au","contact_form_url":"https://www.seaviewhs.sa.edu.au/","website_url":"http://www.seaviewhs.sa.edu.au","lat":-35.030039,"lon":138.547313},{"sector":"government","school_name":"Bordertown High School","suburb":"Bordertown","postcode":"5268","phone":"","public_email":"dl.0894.info@schools.sa.edu.au","contact_form_url":"https://borderhs.sa.edu.au/","website_url":"http://www.borderhs.sa.edu.au","lat":-36.31465,"lon":140.76598},{"sector":"government","school_name":"Loxton High School","suburb":"Loxton","postcode":"5333","phone":"","public_email":"dl.0895.info@schools.sa.edu.au","contact_form_url":"https://loxtonhs.sa.edu.au/","website_url":"http://www.loxtonhs.sa.edu.au/","lat":-34.443732,"lon":140.584808},{"sector":"government","school_name":"Elizabeth Grove Primary School","suburb":"Elizabeth Grove","postcode":"5112","phone":"","public_email":"","contact_form_url":"","website_url":"http://www.elizgrps.sa.edu.au","lat":-34.731832,"lon":138.671495},{"sector":"government","school_name":"Klemzig Primary School","suburb":"Klemzig","postcode":"5087","phone":"","public_email":"dl.0898.info@schools.sa.edu.au","contact_form_url":"http://www.klemzigps.sa.edu.au","website_url":"http://www.klemzigps.sa.edu.au","lat":-34.877176,"lon":138.637665},{"sector":"government","school_name":"Kirton Point Primary School","suburb":"Port Lincoln","postcode":"5606","phone":"","public_email":"dl.0899_info@schools.sa.edu.au","contact_form_url":"https://kirtonpps.sa.edu.au/contact-us/","website_url":"http://www.kirtonpps.sa.edu.au","lat":-34.731891,"lon":135.868237},{"sector":"government","school_name":"Mitcham Girls High School","suburb":"Kingswood","postcode":"5062","phone":"","public_email":"dl.0903.info@schools.sa.edu.au","contact_form_url":"","website_url":"http://www.mitchamgirlshs.sa.edu.au/","lat":-34.969865,"lon":138.610036},{"sector":"government","school_name":"Blackwood High School","suburb":"Eden Hills","postcode":"5050","phone":"","public_email":"bhs.info994@schools.sa.edu.au","contact_form_url":"https://www.bhs.sa.edu.au/","website_url":"http://www.bhs.sa.edu.au","lat":-35.026849,"lon":138.605897},{"sector":"government","school_name":"Avenues College","suburb":"Windsor Gardens","postcode":"5087","phone":"","public_email":"","contact_form_url":"","website_url":"http://www.avenuescollege.sa.edu.au","lat":-34.861073,"lon":138.656806},{"sector":"government","school_name":"Plympton International College","suburb":"Plympton","postcode":"5038","phone":"","public_email":"dl.0907.info@schools.sa.edu.au","contact_form_url":"https://plymptoncollege.sa.edu.au/contact/","website_url":"http://www.plymptoncollege.sa.edu.au","lat":-34.964442,"lon":138.547829},{"sector":"government","school_name":"Ocean View P-12 College","suburb":"Taperoo","postcode":"5017","phone":"","public_email":"dl.0908.info@schools.sa.edu.au","contact_form_url":"https://oceanview.sa.edu.au","website_url":"http://www.oceanview.sa.edu.au","lat":-34.805538,"lon":138.498125},{"sector":"government","school_name":"Willunga High School","suburb":"Willunga","postcode":"5172","phone":"","public_email":"dl.0909.info@schools.sa.edu.au","contact_form_url":"http://www.whs.sa.edu.au/#gf_2","website_url":"http://www.whs.sa.edu.au","lat":-35.263056,"lon":138.555471},{"sector":"government","school_name":"Playford International College","suburb":"Elizabeth","postcode":"5112","phone":"","public_email":"dl.0910.info@schools.sa.edu.au","contact_form_url":"https://playford.sa.edu.au/#wpcf7-f405-o1","website_url":"https://playford.sa.edu.au/","lat":-34.723738,"lon":138.665902},{"sector":"government","school_name":"Lockleys North Primary School","suburb":"Lockleys","postcode":"5032","phone":"","public_email":"dl.0911.info@schools.sa.edu.au","contact_form_url":"http://www.lnps.sa.edu.au/contact-us/","website_url":"http://www.lnps.sa.edu.au","lat":-34.920591,"lon":138.537668},{"sector":"government","school_name":"Seacliff Primary School","suburb":"Seacliff","postcode":"5049","phone":"","public_email":"","contact_form_url":"","website_url":"http://www.seacliff.sa.edu.au","lat":-35.037444,"lon":138.523767},{"sector":"government","school_name":"Coober Pedy Area School","suburb":"Coober Pedy","postcode":"5723","phone":"","public_email":"dl.0920.info@schools.sa.edu.au","contact_form_url":"http://www.cooberpedy.sa.edu.au/ContactInfo.html","website_url":"http://www.cooberpedy.sa.edu.au","lat":-29.012416,"lon":134.752049},{"sector":"government","school_name":"Christies Beach Primary School","suburb":"Christies Beach","postcode":"5165","phone":"","public_email":"dl.0921.info@schools.sa.edu.au","contact_form_url":"https://www.cbeachps.sa.edu.au/","website_url":"http://www.cbeachps.sa.edu.au","lat":-35.138009,"lon":138.479076},{"sector":"government","school_name":"Stradbroke School","suburb":"Rostrevor","postcode":"5073","phone":"","public_email":"dl.0923.info@schools.sa.edu.au","contact_form_url":"https://stradsch.sa.edu.au/contact-us/","website_url":"http://www.stradsch.sa.edu.au","lat":-34.89348,"lon":138.684457},{"sector":"government","school_name":"Ingle Farm East Primary School","suburb":"Ingle Farm","postcode":"5098","phone":"","public_email":"","contact_form_url":"","website_url":"http://www.ingleastps.sa.edu.au","lat":-34.833826,"lon":138.651948},{"sector":"government","school_name":"Heathfield High School","suburb":"Heathfield","postcode":"5153","phone":"","public_email":"dl.0926.info@schools.sa.edu.au","contact_form_url":"http://www.hhs.sa.edu.au/site-search","website_url":"http://www.hhs.sa.edu.au","lat":-35.020536,"lon":138.712609},{"sector":"government","school_name":"Glenunga International High School","suburb":"Glenunga","postcode":"5064","phone":"","public_email":"dl.0927.glenunga@schools.sa.edu.au","contact_form_url":"https://gihs.sa.edu.au","website_url":"http://www.gihs.sa.edu.au","lat":-34.949336,"lon":138.635192},{"sector":"government","school_name":"Grant High School","suburb":"Mount Gambier","postcode":"5290","phone":"","public_email":"dl.0928.info@schools.sa.edu.au","contact_form_url":"https://web.granths.sa.edu.au/","website_url":"http://web.granths.sa.edu.au/ghs/","lat":-37.84719,"lon":140.796014},{"sector":"government","school_name":"Penola High School","suburb":"Penola","postcode":"5277","phone":"","public_email":"","contact_form_url":"","website_url":"http://www.penolahs.sa.edu.au","lat":-37.373662,"lon":140.843789},{"sector":"government","school_name":"Clovelly Park Primary School","suburb":"Clovelly Park","postcode":"5042","phone":"","public_email":"","contact_form_url":"","website_url":"http://www.clovellyps.sa.edu.au","lat":-34.998429,"lon":138.565416},{"sector":"government","school_name":"Warradale Primary School","suburb":"Warradale","postcode":"5046","phone":"","public_email":"dl.0933.info@schools.sa.edu.au","contact_form_url":"https://warradaleps.sa.edu.au/","website_url":"https://warradaleps.sa.edu.au/","lat":-35.003708,"lon":138.537005},{"sector":"government","school_name":"Fulham Gardens Primary School","suburb":"Henley Beach","postcode":"5022","phone":"","public_email":"dl.0934_info@schools.sa.edu.au","contact_form_url":"https://fulhmgdnps.sa.edu.au/contact-us/","website_url":"http://www.fulhmgdnps.sa.edu.au","lat":-34.912392,"lon":138.503289},{"sector":"government","school_name":"Para Hills School","suburb":"Para Hills","postcode":"5096","phone":"","public_email":"dl.0935.info@schools.sa.edu.au","contact_form_url":"https://parahillsschool.sa.edu.au/contact/","website_url":"https://parahillsschool.sa.edu.au/","lat":-34.812358,"lon":138.653129},{"sector":"government","school_name":"Naracoorte South Primary School","suburb":"Naracoorte","postcode":"5271","phone":"","public_email":"dl.0936.admin@schools.sa.edu.au","contact_form_url":"https://narsouthps.sa.edu.au/contact-us/","website_url":"http://www.narsouthps.sa.edu.au","lat":-36.97269,"lon":140.746742},{"sector":"government","school_name":"Hincks Avenue Primary School","suburb":"Whyalla Norrie","postcode":"5608","phone":"","public_email":"dl.0938.info@schools.sa.edu.au","contact_form_url":"https://hincksps.sa.edu.au/contact-us/","website_url":"http://www.hincksps.sa.edu.au","lat":-33.018515,"lon":137.544825},{"sector":"government","school_name":"Seaton High School","suburb":"Seaton","postcode":"5023","phone":"","public_email":"dl.0941.info@schools.sa.edu.au","contact_form_url":"https://seatonhs.sa.edu.au/contact-seaton-high-school/","website_url":"http://www.seatonhs.sa.edu.au","lat":-34.886112,"lon":138.505556},{"sector":"government","school_name":"Elizabeth East Primary School","suburb":"Elizabeth East","postcode":"5112","phone":"","public_email":"dl.0943.info@schools.sa.edu.au","contact_form_url":"https://elizeastr6.sa.edu.au/contact/","website_url":"https://elizeastr6.sa.edu.au/","lat":-34.725069,"lon":138.677471},{"sector":"government","school_name":"Elizabeth Downs Primary School","suburb":"Elizabeth Downs","postcode":"5113","phone":"","public_email":"dl.0947.info@schools.sa.edu.au","contact_form_url":"https://elizdownc7.sa.edu.au/","website_url":"http://www.elizdownc7.sa.edu.au","lat":-34.698783,"lon":138.69474},{"sector":"government","school_name":"Elizabeth Park Primary School","suburb":"Elizabeth Park","postcode":"5113","phone":"","public_email":"","contact_form_url":"","website_url":"http://www.elizparkc7.sa.edu.au","lat":-34.712946,"lon":138.684899},{"sector":"government","school_name":"Elizabeth Vale Primary School","suburb":"Elizabeth Vale","postcode":"5112","phone":"","public_email":"","contact_form_url":"","website_url":"http://www.elizvale.sa.edu.au","lat":-34.746118,"lon":138.669137},{"sector":"government","school_name":"Murray Bridge South Primary School","suburb":"Murray Bridge","postcode":"5253","phone":"","public_email":"","contact_form_url":"","website_url":"http://www.mbsouthps.sa.edu.au","lat":-35.132254,"lon":139.282374},{"sector":"government","school_name":"Clapham Primary School","suburb":"Clapham","postcode":"5062","phone":"","public_email":"dl.0952.info@schools.sa.edu.au","contact_form_url":"https://claphamps.sa.edu.au/","website_url":"http://www.claphamps.sa.edu.au/","lat":-34.99406,"lon":138.604347},{"sector":"government","school_name":"Mount Gambier North Primary School","suburb":"Mount Gambier","postcode":"5290","phone":"","public_email":"","contact_form_url":"","website_url":"http://www.mtgnorthps.sa.edu.au","lat":-37.81683,"lon":140.775534},{"sector":"government","school_name":"Kangaroo Inn Area School","suburb":"Kangaroo Inn","postcode":"5280","phone":"","public_email":"","contact_form_url":"","website_url":"http://www.kangainnas.sa.edu.au","lat":-37.337672,"lon":140.244361},{"sector":"government","school_name":"Riverland Special School","suburb":"Berri","postcode":"5343","phone":"","public_email":"dl.0962.info@schools.sa.edu.au","contact_form_url":"https://riverlansp.sa.edu.au/contact-us/","website_url":"http://www.riverlansp.sa.edu.au/","lat":-34.278394549839,"lon":140.6106734},{"sector":"government","school_name":"Modbury High School","suburb":"Modbury","postcode":"5092","phone":"","public_email":"dl.0964.info@schools.sa.edu.au","contact_form_url":"https://www.modburyhs.sa.edu.au/","website_url":"http://www.modburyhs.sa.edu.au","lat":-34.836789,"lon":138.697008},{"sector":"government","school_name":"Underdale High School","suburb":"Underdale","postcode":"5032","phone":"","public_email":"dl.0965.info@schools.sa.edu.au","contact_form_url":"https://www.underdale.sa.edu.au/contact-us/","website_url":"http://www.underdale.sa.edu.au","lat":-34.918948,"lon":138.544174},{"sector":"government","school_name":"Vale Park Primary School","suburb":"Vale Park","postcode":"5081","phone":"","public_email":"","contact_form_url":"","website_url":"http://www.valeparkps.sa.edu.au","lat":-34.885256,"lon":138.626323},{"sector":"government","school_name":"Fisk Street Primary School","suburb":"Whyalla Norrie","postcode":"5608","phone":"","public_email":"dl.0968.info@schools.sa.edu.au","contact_form_url":"https://fiskstps.sa.edu.au/contact-us/","website_url":"http://www.fiskstps.sa.edu.au","lat":-33.0166545,"lon":137.53235498},{"sector":"government","school_name":"Newbery Park Primary School","suburb":"Millicent","postcode":"5280","phone":"","public_email":"dl.0970.info@schools.sa.edu.au","contact_form_url":"https://newberypkps.sa.edu.au/contact-us/","website_url":"http://www.newberypkps.sa.edu.au","lat":-37.60813772,"lon":140.36250817},{"sector":"government","school_name":"East Torrens Primary School","suburb":"Hectorville","postcode":"5073","phone":"","public_email":"","contact_form_url":"","website_url":"http://www.etorrensps.sa.edu.au","lat":-34.889946,"lon":138.666334},{"sector":"government","school_name":"Hawthorndene Primary School","suburb":"Hawthorndene","postcode":"5051","phone":"","public_email":"dl.0972_info@schools.sa.edu.au","contact_form_url":"https://hthdeneps.sa.edu.au/","website_url":"http://www.hthdeneps.sa.edu.au","lat":-35.020774,"lon":138.636088},{"sector":"government","school_name":"Paradise Primary School","suburb":"Paradise","postcode":"5075","phone":"","public_email":"dl.0973.info@schools.sa.edu.au","contact_form_url":"https://www.paradiser6.sa.edu.au/contact/","website_url":"https://www.paradiser6.sa.edu.au/","lat":-34.870802,"lon":138.68457},{"sector":"government","school_name":"Springbank Secondary College","suburb":"Pasadena","postcode":"5042","phone":"","public_email":"dl.0975.info@schools.sa.edu.au","contact_form_url":"https://springbanksc.sa.edu.au/","website_url":"https://www.springbanksc.sa.edu.au/","lat":-34.993333,"lon":138.590102},{"sector":"government","school_name":"Craigmore High School","suburb":"Blakeview","postcode":"5114","phone":"","public_email":"dl.0976.info@schools.sa.edu.au","contact_form_url":"https://craigmorehs.sa.edu.au/","website_url":"http://www.craigmorehs.sa.edu.au","lat":-34.69116,"lon":138.701176},{"sector":"government","school_name":"Airdale Primary School","suburb":"Port Pirie","postcode":"5540","phone":"","public_email":"","contact_form_url":"https://airdaleps.sa.edu.au/contact/","website_url":"http://www.airdaleps.sa.edu.au","lat":-33.200515,"lon":137.990371},{"sector":"government","school_name":"Carlton School","suburb":"Port Augusta","postcode":"5700","phone":"","public_email":"dl.0981.info@schools.sa.edu.au","contact_form_url":"http://www.carltonschool.sa.edu.au/site-search","website_url":"http://www.carltonschool.sa.edu.au","lat":-32.489832,"lon":137.77222},{"sector":"government","school_name":"Dernancourt School","suburb":"Dernancourt","postcode":"5075","phone":"","public_email":"dl.0982.info@schools.sa.edu.au","contact_form_url":"https://dernancts.sa.edu.au/contact-us/","website_url":"http://www.dernancts.sa.edu.au","lat":-34.861164,"lon":138.673148},{"sector":"government","school_name":"Brahma Lodge Primary School","suburb":"Brahma Lodge","postcode":"5109","phone":"","public_email":"","contact_form_url":"","website_url":"http://www.brahmar7.sa.edu.au","lat":-34.775528,"lon":138.650326},{"sector":"government","school_name":"Seaview Downs Primary School","suburb":"Seaview Downs","postcode":"5049","phone":"","public_email":"dl.0984.info@schools.sa.edu.au","contact_form_url":"https://www.seaviewdps.sa.edu.au/","website_url":"http://www.seaviewdps.sa.edu.au","lat":-35.041379,"lon":138.536114},{"sector":"government","school_name":"Mawson Lakes School","suburb":"Mawson Lakes","postcode":"5095","phone":"","public_email":"","contact_form_url":"","website_url":"http://www.mawsonlakes.sa.edu.au","lat":-34.809171,"lon":138.61436},{"sector":"government","school_name":"Augusta Park Primary School","suburb":"Port Augusta","postcode":"5700","phone":"","public_email":"dl.0990.info@schools.sa.edu.au","contact_form_url":"https://apps.sa.edu.au/contact-us/","website_url":"http://www.apps.sa.edu.au","lat":-32.495595,"lon":137.784949},{"sector":"government","school_name":"Marion Primary School","suburb":"Marion","postcode":"5043","phone":"","public_email":"dl.0993.info@schools.sa.edu.au","contact_form_url":"https://marionps.sa.edu.au/","website_url":"https://marionps.sa.edu.au/","lat":-35.00407914,"lon":138.55564467},{"sector":"government","school_name":"Wandana Primary School","suburb":"Gilles Plains","postcode":"5086","phone":"","public_email":"","contact_form_url":"","website_url":"http://www.wandanac7.sa.edu.au","lat":-34.849122,"lon":138.661511},{"sector":"government","school_name":"Kidman Park Primary School","suburb":"Kidman Park","postcode":"5025","phone":"","public_email":"dl.0996.admin@schools.sa.edu.au","contact_form_url":"https://kidmanpkps.sa.edu.au/contact-us/","website_url":"http://www.kidmanpkps.sa.edu.au","lat":-34.911672,"lon":138.523797},{"sector":"government","school_name":"Adelaide East Education Centre","suburb":"Campbelltown","postcode":"5074","phone":"","public_email":"","contact_form_url":"","website_url":"http://www.adelaideeastec.sa.edu.au/","lat":-34.873042,"lon":138.672971},{"sector":"government","school_name":"Yalata Anangu School","suburb":"Yalata","postcode":"5690","phone":"","public_email":"dl.0999.info@schools.sa.edu.au","contact_form_url":"https://yalataab.sa.edu.au/","website_url":"http://www.yalataab.sa.edu.au","lat":-31.480046,"lon":131.843571},{"sector":"government","school_name":"Amata Anangu School","suburb":"Amata","postcode":"5710","phone":"","public_email":"dl.1001.info@schools.sa.edu.au","contact_form_url":"https://amata.sa.edu.au/contact-us/","website_url":"http://www.amata.sa.edu.au","lat":-26.152169,"lon":131.137746},{"sector":"government","school_name":"Koonibba Aboriginal School","suburb":"Koonibba","postcode":"5690","phone":"","public_email":"dl.1003.info@schools.sa.edu.au","contact_form_url":"https://koonibbaab.sa.edu.au/contact/","website_url":"http://www.koonibbaab.sa.edu.au","lat":-31.902744,"lon":133.425975},{"sector":"government","school_name":"West Beach Primary School","suburb":"West Beach","postcode":"5024","phone":"","public_email":"","contact_form_url":"","website_url":"http://www.wbeachps.sa.edu.au","lat":-34.937821,"lon":138.508809},{"sector":"government","school_name":"Gawler East Primary School","suburb":"Gawler East","postcode":"5118","phone":"","public_email":"dl.1008.info@schools.sa.edu.au","contact_form_url":"https://gaweastps.sa.edu.au/contact/","website_url":"http://www.gaweastps.sa.edu.au","lat":-34.598085,"lon":138.761294},{"sector":"government","school_name":"Oak Valley Aboriginal School","suburb":"Oak Valley","postcode":"5690","phone":"","public_email":"dl.1009.info@schools.sa.edu.au","contact_form_url":"https://oakvalleyab.sa.edu.au/#contact","website_url":"http://www.oakvalleyab.sa.edu.au","lat":-29.402589,"lon":130.738549},{"sector":"government","school_name":"Salisbury East High School","suburb":"Salisbury East","postcode":"5109","phone":"","public_email":"","contact_form_url":"","website_url":"http://www.sehs.sa.edu.au","lat":-34.775903,"lon":138.667185},{"sector":"government","school_name":"Christies Beach High School","suburb":"Christie Downs","postcode":"5164","phone":"","public_email":"dl.1013.info@schools.sa.edu.au","contact_form_url":"https://www.cbhs.sa.edu.au/","website_url":"http://www.cbhs.sa.edu.au","lat":-35.136982,"lon":138.497694},{"sector":"government","school_name":"SA School and Services for Vision Impaired","suburb":"Park Holme","postcode":"5043","phone":"","public_email":"dl.1014.admin@schools.sa.edu.au","contact_form_url":"https://sassvi.sa.edu.au/contact/","website_url":"https://sassvi.sa.edu.au/","lat":-34.991605,"lon":138.555007},{"sector":"government","school_name":"Banksia Park School R-6","suburb":"Banksia Park","postcode":"5091","phone":"","public_email":"","contact_form_url":"","website_url":"http://www.banksiar7.sa.edu.au","lat":-34.808854,"lon":138.72609},{"sector":"government","school_name":"Charles Campbell College","suburb":"Paradise","postcode":"5075","phone":"","public_email":"dl.1028.info@schools.sa.edu.au","contact_form_url":"http://www.ccc.sa.edu.au/contact-us.html","website_url":"http://www.ccc.sa.edu.au","lat":-34.8746243455682,"lon":138.673265830689},{"sector":"government","school_name":"Ernabella Anangu School","suburb":"Ghan","postcode":"0872","phone":"","public_email":"dl.1034.info@schools.sa.edu.au","contact_form_url":"https://ernabella.sa.edu.au/contact-us/","website_url":"http://www.ernabella.sa.edu.au","lat":-26.283792,"lon":132.135237},{"sector":"government","school_name":"Taparra Primary School","suburb":"Elizabeth Downs","postcode":"5113","phone":"","public_email":"","contact_form_url":"","website_url":"https://taparraps.sa.edu.au/","lat":-34.706102,"lon":138.685487},{"sector":"government","school_name":"East Marden Primary School","suburb":"Campbelltown","postcode":"5074","phone":"","public_email":"","contact_form_url":"","website_url":"http://www.eastmardps.sa.edu.au","lat":-34.881964,"lon":138.65353},{"sector":"government","school_name":"Reynella South Primary School","suburb":"Reynella","postcode":"5161","phone":"","public_email":"","contact_form_url":"","website_url":"https://rss.sa.edu.au/","lat":-35.103687,"lon":138.524457},{"sector":"government","school_name":"Para Hills West Primary School","suburb":"Para Hills West","postcode":"5096","phone":"","public_email":"dl.1045.info@schools.sa.edu.au","contact_form_url":"https://www.parahilwps.sa.edu.au/contact-us/","website_url":"http://www.parahilwps.sa.edu.au","lat":-34.80070589532208,"lon":138.6526763551865},{"sector":"government","school_name":"Modbury South Primary School","suburb":"Hope Valley","postcode":"5090","phone":"","public_email":"","contact_form_url":"","website_url":"http://www.modsthps.sa.edu.au","lat":-34.840321,"lon":138.697193},{"sector":"government","school_name":"Para Vista Primary School","suburb":"Para Vista","postcode":"5093","phone":"","public_email":"dl.1048.info@schools.sa.edu.au","contact_form_url":"https://www.paravistaps.sa.edu.au","website_url":"https://www.paravistaps.sa.edu.au/","lat":-34.830178,"lon":138.662895},{"sector":"government","school_name":"Ridgehaven Primary School","suburb":"Ridgehaven","postcode":"5097","phone":"","public_email":"","contact_form_url":"","website_url":"http://www.ridgehaven.sa.edu.au","lat":-34.817978,"lon":138.710285},{"sector":"government","school_name":"Hallett Cove East Primary School","suburb":"Hallett Cove","postcode":"5158","phone":"","public_email":"dl.1053.info@schools.sa.edu.au","contact_form_url":"https://halcoveeps.sa.edu.au/","website_url":"http://www.halcoveeps.sa.edu.au","lat":-35.069288,"lon":138.518245},{"sector":"government","school_name":"Hallett Cove South Primary School","suburb":"Hallett Cove","postcode":"5158","phone":"","public_email":"dl.1054.info@schools.sa.edu.au","contact_form_url":"https://hcsps.sa.edu.au/","website_url":"http://www.hcsps.sa.edu.au","lat":-35.082581,"lon":138.503953},{"sector":"government","school_name":"Woodend Primary School","suburb":"Sheidow Park","postcode":"5158","phone":"","public_email":"dl.1056.info@schools.sa.edu.au","contact_form_url":"https://woodendps.sa.edu.au/contact-us/","website_url":"http://www.woodendps.sa.edu.au","lat":-35.079379,"lon":138.533847},{"sector":"government","school_name":"Pimpala Primary School","suburb":"Morphett Vale","postcode":"5162","phone":"","public_email":"","contact_form_url":"","website_url":"http://www.pimpalaps.sa.edu.au","lat":-35.112846,"lon":138.530333},{"sector":"government","school_name":"O'Sullivan Beach Primary School","suburb":"O'Sullivan Beach","postcode":"5166","phone":"","public_email":"","contact_form_url":"","website_url":"http://www.osbs.sa.edu.au","lat":-35.125399,"lon":138.479637},{"sector":"government","school_name":"Hackham East Primary School","suburb":"Hackham","postcode":"5163","phone":"","public_email":"dl.1066.info@schools.sa.edu.au","contact_form_url":"https://hackhame.sa.edu.au/contact-us/","website_url":"http://www.hackhame.sa.edu.au/","lat":-35.13973736,"lon":138.53342158},{"sector":"government","school_name":"Huntfield Heights School P-6","suburb":"Huntfield Heights","postcode":"5163","phone":"","public_email":"dl.1067.info@schools.sa.edu.au","contact_form_url":"http://www.hhps.sa.edu.au/contact.html","website_url":"http://www.hhps.sa.edu.au","lat":-35.15342,"lon":138.518018},{"sector":"government","school_name":"Noarlunga Downs Primary School","suburb":"Noarlunga Downs","postcode":"5168","phone":"","public_email":"dl.1068.info@schools.sa.edu.au","contact_form_url":"https://ndownsps.sa.edu.au/","website_url":"http://www.ndownsps.sa.edu.au","lat":-35.150105,"lon":138.496303},{"sector":"government","school_name":"Moana Primary School","suburb":"Seaford","postcode":"5169","phone":"","public_email":"dl.1071.admin@schools.sa.edu.au","contact_form_url":"https://www.education.sa.gov.au/department/about-department/contact-department/feedback-and-complaints-about-school-or-preschool","website_url":"http://www.moanaps.sa.edu.au","lat":-35.191836,"lon":138.474624},{"sector":"government","school_name":"Redwood Park Primary School","suburb":"Redwood Park","postcode":"5097","phone":"","public_email":"","contact_form_url":"","website_url":"https://redwoodparkps.sa.edu.au/","lat":-34.815018,"lon":138.701072},{"sector":"government","school_name":"St Agnes School P - 6","suburb":"St Agnes","postcode":"5097","phone":"","public_email":"dl.1091.info@schools.sa.edu.au","contact_form_url":"https://sas.sa.edu.au/contact-us/","website_url":"http://www.sas.sa.edu.au","lat":-34.83106,"lon":138.718391},{"sector":"government","school_name":"Lonsdale Heights Primary School","suburb":"Christie Downs","postcode":"5164","phone":"","public_email":"","contact_form_url":"","website_url":"https://lonsdaleheightsps.sa.edu.au/","lat":-35.124772,"lon":138.501556},{"sector":"government","school_name":"Paralowie School","suburb":"Paralowie","postcode":"5108","phone":"","public_email":"","contact_form_url":"","website_url":"http://www.paralowie.sa.edu.au","lat":-34.75282923,"lon":138.62089416},{"sector":"government","school_name":"Surrey Downs Primary School","suburb":"Surrey Downs","postcode":"5126","phone":"","public_email":"","contact_form_url":"","website_url":"https://surreydowns.sa.edu.au","lat":-34.79966396,"lon":138.71345957},{"sector":"government","school_name":"Fairview Park Primary School","suburb":"Fairview Park","postcode":"5126","phone":"","public_email":"dl.1103.info@schools.sa.edu.au","contact_form_url":"https://fairviewparkps.sa.edu.au/contact.html","website_url":"https://fairviewparkps.sa.edu.au/","lat":-34.797794,"lon":138.731846},{"sector":"government","school_name":"Banksia Park International High School","suburb":"Banksia Park","postcode":"5091","phone":"","public_email":"dl.1117.info@schools.sa.edu.au","contact_form_url":"https://bpihs.sa.edu.au","website_url":"http://www.bpihs.sa.edu.au/","lat":-34.814401,"lon":138.726168},{"sector":"government","school_name":"Miltaburra Area School","suburb":"Wirrulla","postcode":"5661","phone":"","public_email":"","contact_form_url":"","website_url":"http://www.miltaburraas.sa.edu.au","lat":-32.375617,"lon":134.33113},{"sector":"government","school_name":"Karcultaby Area School","suburb":"Karcultaby","postcode":"5654","phone":"","public_email":"","contact_form_url":"","website_url":"http://www.karcultas.sa.edu.au","lat":-32.760606,"lon":134.974385},{"sector":"government","school_name":"Long Street Primary School","suburb":"Whyalla Norrie","postcode":"5608","phone":"","public_email":"dl.1133_info@schools.sa.edu.au","contact_form_url":"https://longstps.sa.edu.au/contact-us/","website_url":"http://www.longstps.sa.edu.au","lat":-33.038921,"lon":137.533009},{"sector":"government","school_name":"East Para Primary School","suburb":"Para Hills","postcode":"5096","phone":"","public_email":"","contact_form_url":"","website_url":"http://www.epps.sa.edu.au","lat":-34.81765,"lon":138.666078},{"sector":"government","school_name":"Karrendi Primary School","suburb":"Parafield Gardens","postcode":"5107","phone":"","public_email":"","contact_form_url":"","website_url":"http://www.karrendips.sa.edu.au","lat":-34.790544,"lon":138.618502},{"sector":"government","school_name":"Bellevue Heights Primary School","suburb":"Bellevue Heights","postcode":"5050","phone":"","public_email":"","contact_form_url":"","website_url":"http://www.bellevueps.sa.edu.au","lat":-35.028955,"lon":138.588869},{"sector":"government","school_name":"Parafield Gardens High School","suburb":"Parafield Gardens","postcode":"5107","phone":"","public_email":"dl.1137.info@schools.sa.edu.au","contact_form_url":"https://pghs.sa.edu.au/contact/","website_url":"http://www.pghs.sa.edu.au","lat":-34.786022,"lon":138.618914},{"sector":"government","school_name":"Salisbury Park Primary School","suburb":"Salisbury Park","postcode":"5109","phone":"","public_email":"","contact_form_url":"","website_url":"http://www.salsparkps.sa.edu.au","lat":-34.759701,"lon":138.668718},{"sector":"government","school_name":"Flaxmill School P-6","suburb":"Morphett Vale","postcode":"5162","phone":"","public_email":"","contact_form_url":"","website_url":"http://www.flaxmillps.sa.edu.au/","lat":-35.127831,"lon":138.519309},{"sector":"government","school_name":"Thorndon Park Primary School","suburb":"Athelstone","postcode":"5076","phone":"","public_email":"dl.1154.info@schools.sa.edu.au","contact_form_url":"https://thornpkps.sa.edu.au/contact-us/","website_url":"http://www.thornpkps.sa.edu.au","lat":-34.884079,"lon":138.693612},{"sector":"government","school_name":"Lincoln Gardens Primary School","suburb":"Port Lincoln","postcode":"5606","phone":"","public_email":"dl.1158.info@schools.sa.edu.au","contact_form_url":"https://gardens.sa.edu.au/","website_url":"http://www.gardens.sa.edu.au","lat":-34.741991,"lon":135.847525},{"sector":"government","school_name":"Ingle Farm Primary School","suburb":"Ingle Farm","postcode":"5098","phone":"","public_email":"dl.1162.info@schools.sa.edu.au","contact_form_url":"https://www.ifps.sa.edu.au","website_url":"http://www.ifps.sa.edu.au","lat":-34.827631,"lon":138.643207},{"sector":"government","school_name":"Braeview School","suburb":"Happy Valley","postcode":"5159","phone":"","public_email":"dl.1163.info@schools.sa.edu.au","contact_form_url":"http://braeview.sa.edu.au/contact/","website_url":"http://www.braeview.sa.edu.au","lat":-35.080686,"lon":138.554101},{"sector":"government","school_name":"Fulham North Primary School","suburb":"Henley Beach","postcode":"5022","phone":"","public_email":"","contact_form_url":"","website_url":"http://www.fulnorthps.sa.edu.au","lat":-34.919552,"lon":138.505142},{"sector":"government","school_name":"Mannum Community College","suburb":"Mannum","postcode":"5238","phone":"","public_email":"dl.1170.info@schools.sa.edu.au","contact_form_url":"https://mcc.sa.edu.au/","website_url":"http://www.mcc.sa.edu.au","lat":-34.912544,"lon":139.303495},{"sector":"government","school_name":"Indulkana Anangu School","suburb":"Indulkana","postcode":"0872","phone":"","public_email":"dl.1174.info@schools.sa.edu.au","contact_form_url":"https://indulkana.sa.edu.au/contact/","website_url":"http://www.indulkana.sa.edu.au","lat":-26.965582,"lon":133.310573},{"sector":"government","school_name":"Salisbury Heights Primary School","suburb":"Salisbury Heights","postcode":"5109","phone":"","public_email":"","contact_form_url":"","website_url":"http://www.shps.sa.edu.au","lat":-34.758984,"lon":138.678709},{"sector":"government","school_name":"North Ingle School","suburb":"Ingle Farm","postcode":"5098","phone":"","public_email":"","contact_form_url":"","website_url":"http://www.northingle.sa.edu.au","lat":-34.819255,"lon":138.64517},{"sector":"government","school_name":"Valley View Secondary School","suburb":"Para Vista","postcode":"5093","phone":"","public_email":"dl.1184.info@schools.sa.edu.au","contact_form_url":"http://www.valleyview.sa.edu.au","website_url":"http://www.valleyview.sa.edu.au","lat":-34.83428,"lon":138.656585},{"sector":"government","school_name":"Morphett Vale East School","suburb":"Morphett Vale","postcode":"5162","phone":"","public_email":"dl.1188.info@schools.sa.edu.au","contact_form_url":"https://mveps.sa.edu.au/","website_url":"http://www.mveps.sa.edu.au/","lat":-35.121601,"lon":138.530921},{"sector":"government","school_name":"Salisbury Downs Primary School","suburb":"Salisbury Downs","postcode":"5108","phone":"","public_email":"","contact_form_url":"","website_url":"http://www.sdps.sa.edu.au","lat":-34.771193,"lon":138.622667},{"sector":"government","school_name":"Fregon Anangu School","suburb":"Fregon","postcode":"0872","phone":"","public_email":"dl.1196.info@schools.sa.edu.au","contact_form_url":"https://fregon.sa.edu.au/contact-us/","website_url":"http://www.fregon.sa.edu.au","lat":-26.765074,"lon":132.028403},{"sector":"government","school_name":"Gulfview Heights Primary School","suburb":"Gulfview Heights","postcode":"5096","phone":"","public_email":"dl.1201.info@schools.sa.edu.au","contact_form_url":"https://ghps.sa.edu.au/contact-us/","website_url":"http://www.ghps.sa.edu.au","lat":-34.792078,"lon":138.668666},{"sector":"government","school_name":"Westport Primary School","suburb":"Semaphore Park","postcode":"5019","phone":"","public_email":"dl.1203.info@schools.sa.edu.au","contact_form_url":"http://www.westportps.sa.edu.au/contact-us/","website_url":"http://www.westportps.sa.edu.au","lat":-34.855007,"lon":138.491158},{"sector":"government","school_name":"South Port Primary School","suburb":"Port Noarlunga South","postcode":"5167","phone":"","public_email":"dl.1207.info@schools.sa.edu.au","contact_form_url":"https://southportps.sa.edu.au/contact-us/","website_url":"https://southportps.sa.edu.au/","lat":-35.175691,"lon":138.472006},{"sector":"government","school_name":"Glencoe Central Primary School","suburb":"Glencoe","postcode":"5291","phone":"","public_email":"","contact_form_url":"","website_url":"http://www.glencoeps.sa.edu.au","lat":-37.669641,"lon":140.594383},{"sector":"government","school_name":"Craigburn Primary School","suburb":"Flagstaff Hill","postcode":"5159","phone":"","public_email":"dl.1226.admin@schools.sa.edu.au","contact_form_url":"http://www.craigburn.sa.edu.au","website_url":"http://www.craigburn.sa.edu.au","lat":-35.056187,"lon":138.615495},{"sector":"government","school_name":"West Lakes Shore School","suburb":"West Lakes Shore","postcode":"5020","phone":"","public_email":"","contact_form_url":"","website_url":"http://www.westlakes.sa.edu.au","lat":-34.863454,"lon":138.481808},{"sector":"government","school_name":"Torrensville Primary School","suburb":"Torrensville","postcode":"5031","phone":"","public_email":"","contact_form_url":"","website_url":"http://www.torrensvps.sa.edu.au","lat":-34.919368,"lon":138.556719},{"sector":"government","school_name":"Warriappendi Secondary School","suburb":"Thebarton","postcode":"5031","phone":"","public_email":"dl.1364.info@schools.sa.edu.au","contact_form_url":"https://warriappendi.sa.edu.au/contact-us/","website_url":"http://www.warriappendi.sa.edu.au","lat":-34.9118838747311,"lon":138.567669067633},{"sector":"government","school_name":"Kilparrin Teaching and Assessment School and Services","suburb":"Park Holme","postcode":"5043","phone":"","public_email":"dl.1372.info@schools.sa.edu.au","contact_form_url":"http://www.kilparrin.sa.edu.au/search","website_url":"http://www.kilparrin.sa.edu.au","lat":-34.991605,"lon":138.555007},{"sector":"government","school_name":"North Haven School","suburb":"North Haven","postcode":"5018","phone":"","public_email":"dl.1375.info@schools.sa.edu.au","contact_form_url":"https://nhavenr7.sa.edu.au/contact/","website_url":"http://www.nhavenr7.sa.edu.au","lat":-34.790181,"lon":138.497846},{"sector":"government","school_name":"Fraser Park Primary School","suburb":"Murray Bridge","postcode":"5253","phone":"","public_email":"","contact_form_url":"","website_url":"http://www.fraserpkps.sa.edu.au","lat":-35.140404,"lon":139.281525},{"sector":"government","school_name":"Flinders View Primary School","suburb":"Port Augusta West","postcode":"5700","phone":"","public_email":"dl.1396.info@schools.sa.edu.au","contact_form_url":"https://flindersview.sa.edu.au/contact-us/","website_url":"http://www.flindersview.sa.edu.au","lat":-32.472843,"lon":137.753921},{"sector":"government","school_name":"Port Augusta Special School","suburb":"Port Augusta","postcode":"5700","phone":"","public_email":"dl.1399.info@schools.sa.edu.au","contact_form_url":"https://ptaugsps.sa.edu.au/contact-us/","website_url":"http://www.ptaugsps.sa.edu.au","lat":-32.47313321,"lon":137.75215553},{"sector":"government","school_name":"Modbury Special School","suburb":"Hope Valley","postcode":"5090","phone":"","public_email":"dl.1405_admin@schools.sa.edu.au","contact_form_url":"https://modburyss.sa.edu.au/contact-us/","website_url":"http://www.modburyss.sa.edu.au","lat":-34.840321,"lon":138.697193},{"sector":"government","school_name":"Adelaide West Special Education Centre","suburb":"Taperoo","postcode":"5017","phone":"","public_email":"","contact_form_url":"","website_url":"https://www.adwest.sa.edu.au/","lat":-34.801247,"lon":138.494073},{"sector":"government","school_name":"Errington Special Education Centre","suburb":"Plympton","postcode":"5038","phone":"","public_email":"dl.1415.info@schools.sa.edu.au","contact_form_url":"javascript:void(0);","website_url":"https://www.erringtonsec.sa.edu.au/","lat":-34.962236,"lon":138.547561},{"sector":"government","school_name":"Bowden Brompton Community School","suburb":"Brompton","postcode":"5007","phone":"","public_email":"dl.1418.info@schools.sa.edu.au","contact_form_url":"http://www.bbcs.sa.edu.au/contact.htm","website_url":"http://www.bbcs.sa.edu.au","lat":-34.895043,"lon":138.580071},{"sector":"government","school_name":"Riverdale Primary School","suburb":"Salisbury Downs","postcode":"5108","phone":"","public_email":"","contact_form_url":"","website_url":"https://riverdaleps.sa.edu.au/","lat":-34.766448,"lon":138.613754},{"sector":"government","school_name":"The Heights School","suburb":"Modbury Heights","postcode":"5092","phone":"","public_email":"dl.1430.info@schools.sa.edu.au","contact_form_url":"https://www.theheights.sa.edu.au/","website_url":"http://www.theheights.sa.edu.au/","lat":-34.811143,"lon":138.682725},{"sector":"government","school_name":"Burra Community School","suburb":"Burra","postcode":"5417","phone":"","public_email":"dl.1432.info@schools.sa.edu.au","contact_form_url":"http://www.burracs.sa.edu.au/#wpcf7-f2017-p2808-o1","website_url":"http://www.burracs.sa.edu.au","lat":-33.676848,"lon":138.93781},{"sector":"government","school_name":"Craigmore South Primary School","suburb":"Craigmore","postcode":"5114","phone":"","public_email":"dl.1449_info@schools.sa.edu.au","contact_form_url":"https://css.sa.edu.au/","website_url":"http://www.css.sa.edu.au/","lat":-34.70978,"lon":138.706148},{"sector":"government","school_name":"Stirling North Primary School","suburb":"Stirling North","postcode":"5710","phone":"","public_email":"dl.1481.info@schools.sa.edu.au","contact_form_url":"http://www.stirlingnorth.sa.edu.au/site-search","website_url":"http://www.stirlingnorth.sa.edu.au","lat":-32.513732,"lon":137.837712},{"sector":"government","school_name":"Munno Para Primary School","suburb":"Munno Para","postcode":"5115","phone":"","public_email":"","contact_form_url":"","website_url":"http://www.munnoparaps.sa.edu.au","lat":-34.669751,"lon":138.700613},{"sector":"government","school_name":"Moonta Area School","suburb":"Moonta","postcode":"5558","phone":"","public_email":"dl.1488.info@schools.sa.edu.au","contact_form_url":"http://www.moontaas.sa.edu.au/contact","website_url":"http://www.moontaas.sa.edu.au","lat":-34.070885,"lon":137.59135},{"sector":"government","school_name":"Pipalyatjara Anangu School","suburb":"Pipalyatjara","postcode":"0872","phone":"","public_email":"dl.1526.info@schools.sa.edu.au","contact_form_url":"https://pipalyatjara.sa.edu.au/contact-us/","website_url":"http://www.pipalyatjara.sa.edu.au","lat":-26.162537,"lon":129.172134},{"sector":"government","school_name":"Mimili Anangu School","suburb":"Mimili","postcode":"0872","phone":"","public_email":"dl.1527.info@schools.sa.edu.au","contact_form_url":"http://mimili.sa.edu.au/contact-us/","website_url":"http://www.mimili.sa.edu.au","lat":-27.006258,"lon":132.708658},{"sector":"government","school_name":"Sheidow Park Primary School","suburb":"Sheidow Park","postcode":"5158","phone":"","public_email":"dl.1537.info@schools.sa.edu.au","contact_form_url":"https://sheidowps.sa.edu.au/contact-us/","website_url":"http://www.sheidowps.sa.edu.au","lat":-35.071074,"lon":138.533052},{"sector":"government","school_name":"Mount Barker South Primary School","suburb":"Mount Barker","postcode":"5251","phone":"","public_email":"dl.1539.info@schools.sa.edu.au","contact_form_url":"https://mtbsouthps.sa.edu.au/contact-us/","website_url":"http://www.mtbsouthps.sa.edu.au","lat":-35.080093,"lon":138.859874},{"sector":"government","school_name":"Ardtornish Primary School","suburb":"St Agnes","postcode":"5097","phone":"","public_email":"dl.1540.info@schools.sa.edu.au","contact_form_url":"http://www.decd.sa.gov.au/aboutdept/pages/contact/copyright/","website_url":"http://www.ardtornps.sa.edu.au","lat":-34.833595,"lon":138.704599},{"sector":"government","school_name":"Gordon Education Centre","suburb":"Mount Gambier","postcode":"5290","phone":"","public_email":"dl.1645.info@schools.sa.edu.au","contact_form_url":"http://www.gecsp.sa.edu.au/contact-us.html","website_url":"http://www.gecsp.sa.edu.au","lat":-37.825123,"lon":140.768224},{"sector":"government","school_name":"Mulga Street Primary School","suburb":"Mount Gambier","postcode":"5290","phone":"","public_email":"dl.1650.info@schools.sa.edu.au","contact_form_url":"https://mulgaps.sa.edu.au/contact-us/","website_url":"http://www.mulgaps.sa.edu.au","lat":-37.811663,"lon":140.759988},{"sector":"government","school_name":"Thiele Primary School","suburb":"Aberfoyle Park","postcode":"5159","phone":"","public_email":"dl.1664.info@schools.sa.edu.au","contact_form_url":"https://thieleps.sa.edu.au/contact-us/","website_url":"http://www.thieleps.sa.edu.au","lat":-35.067805,"lon":138.594104},{"sector":"government","school_name":"Aberfoyle Park High School","suburb":"Aberfoyle Park","postcode":"5159","phone":"","public_email":"dl.1673.info@schools.sa.edu.au","contact_form_url":"https://aphs.sa.edu.au","website_url":"http://www.aphs.sa.edu.au","lat":-35.073158,"lon":138.594931},{"sector":"government","school_name":"Adelaide Secondary School of English","suburb":"West Croydon","postcode":"5008","phone":"","public_email":"dl.1686.info@schools.sa.edu.au","contact_form_url":"http://www.adsecenglish.sa.edu.au/site-search","website_url":"http://www.adsecenglish.sa.edu.au","lat":-34.886429,"lon":138.566342},{"sector":"government","school_name":"Kenmore Park Anangu School","suburb":"Alice Springs","postcode":"0872","phone":"","public_email":"dl.1696.info@schools.sa.edu.au","contact_form_url":"http://www.kenmore.sa.edu.au/#contactus","website_url":"http://www.kenmore.sa.edu.au","lat":-26.327188,"lon":132.446337},{"sector":"government","school_name":"Woodcroft Primary School","suburb":"Woodcroft","postcode":"5162","phone":"","public_email":"dl.1776.admin@schools.sa.edu.au","contact_form_url":"https://woodcrofps.sa.edu.au/","website_url":"http://www.woodcrofps.sa.edu.au","lat":-35.10505,"lon":138.556331},{"sector":"government","school_name":"The Pines School","suburb":"Parafield Gardens","postcode":"5107","phone":"","public_email":"dl.1777.info@schools.sa.edu.au","contact_form_url":"https://www.thepines.sa.edu.au/contact/","website_url":"https://www.thepines.sa.edu.au/","lat":-34.77288,"lon":138.607741},{"sector":"government","school_name":"Kaurna Plains School","suburb":"Elizabeth","postcode":"5112","phone":"","public_email":"","contact_form_url":"","website_url":"http://www.kaurnaas.sa.edu.au","lat":-34.725693,"lon":138.664561},{"sector":"government","school_name":"Port Lincoln Special School","suburb":"Port Lincoln","postcode":"5606","phone":"","public_email":"dl.1801.info@schools.sa.edu.au","contact_form_url":"https://plss.sa.edu.au/contact-us/","website_url":"http://www.plss.sa.edu.au","lat":-34.741941,"lon":135.846117},{"sector":"government","school_name":"Roxby Downs Area School","suburb":"Roxby Downs","postcode":"5725","phone":"","public_email":"dl.1817.info@schools.sa.edu.au","contact_form_url":"https://rdas.sa.edu.au/contact-us/","website_url":"http://www.rdas.sa.edu.au","lat":-30.560299,"lon":136.897084},{"sector":"government","school_name":"Golden Grove High School","suburb":"Golden Grove","postcode":"5125","phone":"","public_email":"dl.1834.info@schools.sa.edu.au","contact_form_url":"http://www.goldengrovehs.sa.edu.au/site-search","website_url":"http://www.goldengrovehs.sa.edu.au","lat":-34.792874,"lon":138.696789},{"sector":"government","school_name":"Burton Primary School","suburb":"Burton","postcode":"5110","phone":"","public_email":"","contact_form_url":"","website_url":"http://www.burtonps.sa.edu.au/","lat":-34.741477,"lon":138.597764},{"sector":"government","school_name":"Keithcot Farm Primary School","suburb":"Wynn Vale","postcode":"5127","phone":"","public_email":"","contact_form_url":"","website_url":"http://www.keithcotps.sa.edu.au","lat":-34.800056,"lon":138.676961},{"sector":"government","school_name":"Golden Grove Primary School","suburb":"Golden Grove","postcode":"5125","phone":"","public_email":"dl.1848.info@schools.sa.edu.au","contact_form_url":"https://goldengps.sa.edu.au","website_url":"http://www.goldengps.sa.edu.au","lat":-34.786332,"lon":138.708915},{"sector":"government","school_name":"Settlers Farm Campus R-6","suburb":"Paralowie","postcode":"5108","phone":"","public_email":"dl.1851.info@schools.sa.edu.au","contact_form_url":"https://settlersr6.sa.edu.au/contact-us/","website_url":"https://settlersr6.sa.edu.au/","lat":-34.756588,"lon":138.595761},{"sector":"government","school_name":"Blakeview Primary School","suburb":"Blakeview","postcode":"5114","phone":"","public_email":"","contact_form_url":"","website_url":"http://www.blakevwps.sa.edu.au","lat":-34.687809,"lon":138.699956},{"sector":"government","school_name":"Seaford Rise Primary School","suburb":"Seaford Rise","postcode":"5169","phone":"","public_email":"dl.1855.info@schools.sa.edu.au","contact_form_url":"https://seariseps.sa.edu.au/contact-us/","website_url":"http://www.seariseps.sa.edu.au","lat":-35.199278,"lon":138.487571},{"sector":"government","school_name":"Greenwith Primary School","suburb":"Greenwith","postcode":"5125","phone":"","public_email":"dl.1858.info@schools.sa.edu.au","contact_form_url":"https://greenwith.sa.edu.au/contact-us/","website_url":"http://www.greenwith.sa.edu.au/","lat":-34.77021,"lon":138.720617},{"sector":"government","school_name":"Murputja Anangu School","suburb":"Alice Springs","postcode":"0872","phone":"","public_email":"dl.1859.info@schools.sa.edu.au","contact_form_url":"https://murputja.sa.edu.au/","website_url":"http://www.murputja.sa.edu.au","lat":-26.159381,"lon":130.183673},{"sector":"government","school_name":"Hewett Primary School","suburb":"Hewett","postcode":"5118","phone":"","public_email":"","contact_form_url":"","website_url":"http://www.hewettps.sa.edu.au","lat":-34.57568732,"lon":138.75025811},{"sector":"government","school_name":"Playford Primary School","suburb":"Craigmore","postcode":"5114","phone":"","public_email":"","contact_form_url":"","website_url":"https://playfordps.sa.edu.au/","lat":-34.68844934,"lon":138.7125013},{"sector":"government","school_name":"Sturt Street Community School","suburb":"Adelaide","postcode":"5000","phone":"","public_email":"dl.1881.admin@schools.sa.edu.au","contact_form_url":"https://sturtstcs.sa.edu.au/contact-us/","website_url":"http://sturtstcs.sa.edu.au/","lat":-34.933817,"lon":138.590211},{"sector":"government","school_name":"Mark Oliphant College (B-12)","suburb":"Munno Para West","postcode":"5115","phone":"","public_email":"","contact_form_url":"","website_url":"http://www.moc.sa.edu.au","lat":-34.665475,"lon":138.683575},{"sector":"catholic","school_name":"Catherine McAuley School","suburb":"Craigmore","postcode":"5114","phone":"","public_email":"","contact_form_url":"","website_url":"http://www.cms.catholic.edu.au/","lat":-34.6890139854153,"lon":138.71201166997568},{"sector":"catholic","school_name":"St Francis Xavier's Regional Catholic School","suburb":"Wynn Vale","postcode":"5127","phone":"","public_email":"","contact_form_url":"","website_url":"http://www.sfx.catholic.edu.au","lat":-34.80216,"lon":138.699787},{"sector":"catholic","school_name":"Cardijn College","suburb":"Noarlunga Downs","postcode":"5168","phone":"","public_email":"","contact_form_url":"","website_url":"http://www.cardijn.catholic.edu.au","lat":-35.15786666666667,"lon":138.49886666666666},{"sector":"catholic","school_name":"Gleeson College","suburb":"Golden Grove","postcode":"5125","phone":"","public_email":"","contact_form_url":"http://www.gleeson.sa.edu.au/contact-us.html","website_url":"http://www.gleeson.sa.edu.au/","lat":-34.795321,"lon":138.696688},{"sector":"catholic","school_name":"St Columba College","suburb":"Andrews Farm","postcode":"5114","phone":"","public_email":"","contact_form_url":"","website_url":"http://www.stcolumba.com.au","lat":-34.672019,"lon":138.666137},{"sector":"catholic","school_name":"Samaritan College","suburb":"Whyalla","postcode":"5600","phone":"","public_email":"","contact_form_url":"","website_url":"http://www.samaritan.catholic.edu.au","lat":-33.018550000000005,"lon":137.4318},{"sector":"catholic","school_name":"St Barbara's Parish School","suburb":"Roxby Downs","postcode":"5725","phone":"","public_email":"","contact_form_url":"","website_url":"http://stbarbs.catholic.edu.au","lat":-30.557942,"lon":136.900098},{"sector":"catholic","school_name":"Blackfriars Priory School","suburb":"Prospect","postcode":"5082","phone":"","public_email":"","contact_form_url":"","website_url":"https://blackfriars.sa.edu.au/","lat":-34.894854,"lon":138.594895},{"sector":"catholic","school_name":"Christian Brothers College","suburb":"Adelaide","postcode":"5000","phone":"","public_email":"","contact_form_url":"","website_url":"http://www.cbc.sa.edu.au","lat":-34.9287,"lon":138.5986},{"sector":"catholic","school_name":"St Mary's Memorial School","suburb":"Glenelg","postcode":"5045","phone":"","public_email":"","contact_form_url":"","website_url":"http://www.stmarmem.catholic.edu.au","lat":-34.981292,"lon":138.514716},{"sector":"catholic","school_name":"Dominican School","suburb":"Semaphore","postcode":"5019","phone":"","public_email":"","contact_form_url":"","website_url":"http://www.dominican.catholic.edu.au","lat":-34.837777,"lon":138.483715},{"sector":"catholic","school_name":"Kildare College","suburb":"Holden Hill","postcode":"5088","phone":"","public_email":"","contact_form_url":"","website_url":"http://www.kildare.catholic.edu.au/","lat":-34.856591,"lon":138.671421},{"sector":"catholic","school_name":"Loreto College","suburb":"Marryatville","postcode":"5068","phone":"","public_email":"info@loreto.sa.edu.au","contact_form_url":"http://www.loreto.sa.edu.au/","website_url":"http://www.loreto.sa.edu.au","lat":-34.927394,"lon":138.642036},{"sector":"catholic","school_name":"Tenison Woods College","suburb":"Mount Gambier","postcode":"5290","phone":"","public_email":"","contact_form_url":"","website_url":"http://www.tenison.catholic.edu.au","lat":-37.828252,"lon":140.754855},{"sector":"catholic","school_name":"Mercedes College","suburb":"Springfield","postcode":"5062","phone":"","public_email":"mercedes@mercedes.catholic.edu.au","contact_form_url":"https://www.mercedes.catholic.edu.au/","website_url":"http://www.mercedes.catholic.edu.au","lat":-34.976008,"lon":138.629265},{"sector":"catholic","school_name":"Mount Carmel College","suburb":"Rosewater","postcode":"5013","phone":"","public_email":"","contact_form_url":"","website_url":"http://www.mcc.catholic.edu.au/","lat":-34.849583333333335,"lon":138.5369},{"sector":"catholic","school_name":"Our Lady of the Sacred Heart College","suburb":"Enfield","postcode":"5085","phone":"","public_email":"olsh@olsh.catholic.edu.au","contact_form_url":"http://www.olsh.catholic.edu.au/","website_url":"http://www.olsh.catholic.edu.au/","lat":-34.873,"lon":138.604},{"sector":"catholic","school_name":"Rostrevor College","suburb":"Woodforde","postcode":"5072","phone":"","public_email":"enquiries@rostrevor.sa.edu.au","contact_form_url":"http://www.rostrevor.sa.edu.au/search","website_url":"http://www.rostrevor.sa.edu.au","lat":-34.901122,"lon":138.685159},{"sector":"catholic","school_name":"St Aloysius College","suburb":"Adelaide","postcode":"5000","phone":"","public_email":"","contact_form_url":"","website_url":"https://www.sac.sa.edu.au","lat":-34.928662,"lon":138.602952},{"sector":"catholic","school_name":"St Dominic's Priory College","suburb":"North Adelaide","postcode":"5006","phone":"","public_email":"","contact_form_url":"","website_url":"http://www.stdominics.sa.edu.au/","lat":-34.908618,"lon":138.585765},{"sector":"catholic","school_name":"Saint Ignatius' College","suburb":"Athelstone","postcode":"5076","phone":"","public_email":"admin@ignatius.sa.edu.au","contact_form_url":"http://www.ignatius.sa.edu.au/search","website_url":"http://www.ignatius.sa.edu.au","lat":-34.8702,"lon":138.6999},{"sector":"catholic","school_name":"St Joseph's School","suburb":"Barmera","postcode":"5345","phone":"","public_email":"","contact_form_url":"","website_url":"http://www.stjobarmera.catholic.edu.au","lat":-34.253733,"lon":140.458831},{"sector":"catholic","school_name":"St Joseph's School","suburb":"West Hindmarsh","postcode":"5007","phone":"","public_email":"","contact_form_url":"","website_url":"http://www.sjsh.catholic.edu.au","lat":-34.903945,"lon":138.563327},{"sector":"catholic","school_name":"St Joseph's School","suburb":"Port Lincoln","postcode":"5606","phone":"","public_email":"info@sjspl.catholic.edu.au","contact_form_url":"https://www.sjspl.catholic.edu.au/","website_url":"http://www.sjspl.catholic.edu.au","lat":-34.72671,"lon":135.855854},{"sector":"catholic","school_name":"St Joseph's School","suburb":"Renmark","postcode":"5341","phone":"","public_email":"","contact_form_url":"","website_url":"http://www.sjsr.catholic.edu.au","lat":-34.16671,"lon":140.74961},{"sector":"catholic","school_name":"Mary MacKillop College","suburb":"Kensington","postcode":"5068","phone":"","public_email":"","contact_form_url":"","website_url":"http://www.marymackillop.sa.edu.au/","lat":-34.92323107,"lon":138.64271254},{"sector":"catholic","school_name":"St Mark's College","suburb":"Port Pirie","postcode":"5540","phone":"","public_email":"","contact_form_url":"","website_url":"http://www.stmarkspirie.catholic.edu.au","lat":-33.19835333333334,"lon":138.02794666666665},{"sector":"catholic","school_name":"Cabra Dominican College","suburb":"Cumberland Park","postcode":"5041","phone":"","public_email":"cabra@cabra.catholic.edu.au","contact_form_url":"https://www.cabra.catholic.edu.au","website_url":"http://www.cabra.catholic.edu.au","lat":-34.967266,"lon":138.586651},{"sector":"catholic","school_name":"St Mary's College","suburb":"Adelaide","postcode":"5000","phone":"","public_email":"enquiries@stmarys.sa.edu.au","contact_form_url":"javascript:void(0)","website_url":"http://www.stmarys.sa.edu.au","lat":-34.9281,"lon":138.589},{"sector":"catholic","school_name":"St Paul's College","suburb":"Gilles Plains","postcode":"5086","phone":"","public_email":"","contact_form_url":"","website_url":"http://www.stpauls.sa.edu.au","lat":-34.8472,"lon":138.655},{"sector":"catholic","school_name":"Star of the Sea School","suburb":"Henley Beach","postcode":"5022","phone":"","public_email":"","contact_form_url":"","website_url":"http://www.star.catholic.edu.au","lat":-34.914709,"lon":138.493588},{"sector":"catholic","school_name":"St Michael's College","suburb":"Henley Beach","postcode":"5022","phone":"","public_email":"smcprimary@smc.sa.edu.au","contact_form_url":"https://smc.sa.edu.au","website_url":"http://www.smc.sa.edu.au","lat":-34.9086,"lon":138.4915},{"sector":"catholic","school_name":"Saint David's Parish School","suburb":"Tea Tree Gully","postcode":"5091","phone":"","public_email":"","contact_form_url":"","website_url":"http://www.stdavids.catholic.edu.au","lat":-34.816087,"lon":138.72581},{"sector":"catholic","school_name":"Holy Family Catholic School","suburb":"Parafield Gardens","postcode":"5107","phone":"","public_email":"","contact_form_url":"","website_url":"http://www.holyfamily.catholic.edu.au","lat":-34.781836,"lon":138.60961},{"sector":"catholic","school_name":"Thomas More College","suburb":"Salisbury Downs","postcode":"5108","phone":"","public_email":"tmc@tmc.catholic.edu.au","contact_form_url":"http://www.tmc.catholic.edu.au/contact-us.html","website_url":"http://www.tmc.catholic.edu.au","lat":-34.779061,"lon":138.63089},{"sector":"catholic","school_name":"School of the Nativity","suburb":"Aberfoyle Park","postcode":"5159","phone":"","public_email":"info@nativity.catholic.edu.au","contact_form_url":"https://nativity.catholic.edu.au/","website_url":"http://www.nativity.catholic.edu.au","lat":-35.06909,"lon":138.593075},{"sector":"catholic","school_name":"St Martin de Porres School","suburb":"Sheidow Park","postcode":"5158","phone":"","public_email":"","contact_form_url":"","website_url":"http://www.smdps.catholic.edu.au","lat":-35.07369,"lon":138.526881},{"sector":"catholic","school_name":"Xavier College","suburb":"Gawler Belt","postcode":"5118","phone":"","public_email":"","contact_form_url":"","website_url":"https://www.xavier.catholic.edu.au/","lat":-34.59605625,"lon":138.73668125},{"sector":"catholic","school_name":"Our Lady Queen of Peace School","suburb":"Albert Park","postcode":"5014","phone":"","public_email":"","contact_form_url":"","website_url":"http://www.olqp.catholic.edu.au","lat":-34.880974,"lon":138.521119},{"sector":"catholic","school_name":"Our Lady of the River School","suburb":"Berri","postcode":"5343","phone":"","public_email":"info@olor.catholic.edu.au","contact_form_url":"http://www.olor.catholic.edu.au/site-search","website_url":"http://www.olor.catholic.edu.au/","lat":-34.283556,"lon":140.597655},{"sector":"catholic","school_name":"Immaculate Heart of Mary School","suburb":"Brompton","postcode":"5007","phone":"","public_email":"","contact_form_url":"","website_url":"http://www.ihm.catholic.edu.au","lat":-34.89823701,"lon":138.58185516},{"sector":"catholic","school_name":"St John Bosco School","suburb":"Brooklyn Park","postcode":"5032","phone":"","public_email":"","contact_form_url":"","website_url":"http://www.sjb.catholic.edu.au","lat":-34.929302,"lon":138.549981},{"sector":"catholic","school_name":"St Francis of Assisi School","suburb":"Newton","postcode":"5074","phone":"","public_email":"","contact_form_url":"","website_url":"http://www.sfoa.catholic.edu.au","lat":-34.881915,"lon":138.674519},{"sector":"catholic","school_name":"St John The Apostle Parish School","suburb":"Christies Beach","postcode":"5165","phone":"","public_email":"","contact_form_url":"","website_url":"http://www.stjohns.catholic.edu.au","lat":-35.129465,"lon":138.478262},{"sector":"catholic","school_name":"St Joseph's School","suburb":"Clare","postcode":"5453","phone":"","public_email":"","contact_form_url":"","website_url":"http://stjoclar.catholic.edu.au","lat":-33.836276,"lon":138.609983},{"sector":"catholic","school_name":"St Gabriel's School","suburb":"Enfield","postcode":"5085","phone":"","public_email":"","contact_form_url":"","website_url":"http://www.sgs.catholic.edu.au","lat":-34.851394,"lon":138.603973},{"sector":"catholic","school_name":"St Therese School","suburb":"Colonel Light Gardens","postcode":"5041","phone":"","public_email":"","contact_form_url":"","website_url":"http://www.sts.catholic.edu.au","lat":-34.990002,"lon":138.5933},{"sector":"catholic","school_name":"St Margaret Mary's School","suburb":"Croydon Park","postcode":"5008","phone":"","public_email":"","contact_form_url":"","website_url":"http://www.smms.catholic.edu.au","lat":-34.882934,"lon":138.562492},{"sector":"catholic","school_name":"St Anthony's School","suburb":"Edwardstown","postcode":"5039","phone":"","public_email":"","contact_form_url":"","website_url":"http://www.stantedw.catholic.edu.au","lat":-34.969861,"lon":138.572155},{"sector":"catholic","school_name":"St Patrick's Special School","suburb":"Dulwich","postcode":"5065","phone":"","public_email":"","contact_form_url":"","website_url":"http://www.stpats.catholic.edu.au","lat":-34.937041,"lon":138.63359},{"sector":"catholic","school_name":"St Mary Magdalene's School","suburb":"Elizabeth Grove","postcode":"5112","phone":"","public_email":"info@smm.catholic.edu.au","contact_form_url":"https://www.smm.catholic.edu.au","website_url":"http://www.smm.catholic.edu.au/","lat":-34.733974,"lon":138.666299},{"sector":"catholic","school_name":"St Thomas More School","suburb":"Elizabeth Park","postcode":"5113","phone":"","public_email":"info@sttmore.catholic.edu.au","contact_form_url":"https://sttmore.catholic.edu.au","website_url":"http://www.sttmore.catholic.edu.au","lat":-34.715431,"lon":138.681394},{"sector":"catholic","school_name":"St Joseph's Parish School","suburb":"Gladstone","postcode":"5473","phone":"","public_email":"","contact_form_url":"","website_url":"http://www.stjoglad.catholic.edu.au","lat":-33.265716,"lon":138.351827},{"sector":"catholic","school_name":"Our Lady of La Vang School","suburb":"Flinders Park","postcode":"5025","phone":"","public_email":"","contact_form_url":"","website_url":"http://www.lavang.catholic.edu.au/","lat":-34.906911,"lon":138.538253},{"sector":"catholic","school_name":"Our Lady of Grace School","suburb":"Glengowrie","postcode":"5044","phone":"","public_email":"","contact_form_url":"","website_url":"http://olog.catholic.edu.au","lat":-34.984032,"lon":138.533289},{"sector":"catholic","school_name":"St Thomas' School","suburb":"Goodwood","postcode":"5034","phone":"","public_email":"","contact_form_url":"","website_url":"http://www.stg.catholic.edu.au","lat":-34.953603,"lon":138.592342},{"sector":"catholic","school_name":"St Martin's Catholic Primary School","suburb":"Greenacres","postcode":"5086","phone":"","public_email":"","contact_form_url":"","website_url":"http://www.smg.catholic.edu.au","lat":-34.867085,"lon":138.628602},{"sector":"catholic","school_name":"St Joseph's School","suburb":"Hectorville","postcode":"5073","phone":"","public_email":"info@sjh.catholic.edu.au","contact_form_url":"mailto:info@sjh.catholic.edu.au?subject=Home%20page%20contact","website_url":"http://www.sjh.catholic.edu.au","lat":-34.91332338,"lon":138.6656505},{"sector":"catholic","school_name":"St James School","suburb":"Jamestown","postcode":"5491","phone":"","public_email":"","contact_form_url":"","website_url":"http://www.stjames.catholic.edu.au","lat":-33.206834,"lon":138.611314},{"sector":"catholic","school_name":"St Brigid's School","suburb":"Kilburn","postcode":"5084","phone":"","public_email":"","contact_form_url":"","website_url":"http://www.stb.catholic.edu.au","lat":-34.861678,"lon":138.587265},{"sector":"catholic","school_name":"St Joseph's School","suburb":"Kingswood","postcode":"5062","phone":"","public_email":"","contact_form_url":"","website_url":"http://www.stjk.catholic.edu.au","lat":-34.971049,"lon":138.614053},{"sector":"catholic","school_name":"St Francis School","suburb":"Lockleys","postcode":"5032","phone":"","public_email":"","contact_form_url":"","website_url":"http://www.sflockleys.catholic.edu.au","lat":-34.925853,"lon":138.526172},{"sector":"catholic","school_name":"St Albert's Catholic School","suburb":"Loxton","postcode":"5333","phone":"","public_email":"","contact_form_url":"","website_url":"http://www.stalbert.catholic.edu.au","lat":-34.45484399,"lon":140.57462552},{"sector":"catholic","school_name":"St Patrick's School","suburb":"Mansfield Park","postcode":"5012","phone":"","public_email":"info@stpatsmp.catholic.edu.au","contact_form_url":"http://www.stpatsmp.catholic.edu.au/contact-us.html","website_url":"http://www.stpatsmp.catholic.edu.au","lat":-34.854471,"lon":138.552328},{"sector":"catholic","school_name":"St Anthony's Catholic Primary School","suburb":"Millicent","postcode":"5280","phone":"","public_email":"","contact_form_url":"","website_url":"http://www.sta.catholic.edu.au","lat":-37.600228,"lon":140.359672},{"sector":"catholic","school_name":"St Francis de Sales College","suburb":"Mount Barker","postcode":"5251","phone":"","public_email":"","contact_form_url":"","website_url":"http://www.stfrancis.catholic.edu.au","lat":-35.06656802,"lon":138.8671809},{"sector":"catholic","school_name":"St Joseph's School","suburb":"Murray Bridge","postcode":"5253","phone":"","public_email":"","contact_form_url":"","website_url":"http://www.stjomb.catholic.edu.au","lat":-35.118583,"lon":139.267352},{"sector":"catholic","school_name":"St Joseph's Memorial School","suburb":"Norwood","postcode":"5067","phone":"","public_email":"","contact_form_url":"","website_url":"http://www.sjms.catholic.edu.au","lat":-34.923688,"lon":138.640687},{"sector":"catholic","school_name":"St Joseph's School","suburb":"Ottoway","postcode":"5013","phone":"","public_email":"info@stjotto.catholic.edu.au","contact_form_url":"https://www.stjotto.catholic.edu.au/contact-us.html","website_url":"https://www.stjotto.catholic.edu.au/","lat":-34.846462,"lon":138.538254},{"sector":"catholic","school_name":"St Raphael's School","suburb":"Parkside","postcode":"5063","phone":"","public_email":"","contact_form_url":"","website_url":"http://www.raph.catholic.edu.au/","lat":-34.945278,"lon":138.622685},{"sector":"catholic","school_name":"St Joseph's School","suburb":"Payneham South","postcode":"5070","phone":"","public_email":"","contact_form_url":"","website_url":"http://www.stjopayn.catholic.edu.au","lat":-34.902242,"lon":138.639817},{"sector":"catholic","school_name":"Mary MacKillop Memorial School","suburb":"Penola","postcode":"5277","phone":"","public_email":"","contact_form_url":"","website_url":"http://www.mmms.catholic.edu.au","lat":-37.380561,"lon":140.840272},{"sector":"catholic","school_name":"St Joseph's School","suburb":"Peterborough","postcode":"5422","phone":"","public_email":"","contact_form_url":"","website_url":"http://www.stjopet.catholic.edu.au","lat":-32.975567,"lon":138.841893},{"sector":"catholic","school_name":"St John the Baptist Catholic School","suburb":"Plympton","postcode":"5038","phone":"","public_email":"","contact_form_url":"","website_url":"http://www.stjohnpl.catholic.edu.au","lat":-34.967366,"lon":138.550997},{"sector":"catholic","school_name":"Rosary School","suburb":"Prospect","postcode":"5082","phone":"","public_email":"","contact_form_url":"","website_url":"http://www.rosary.catholic.edu.au","lat":-34.884596,"lon":138.590364},{"sector":"catholic","school_name":"Tenison Woods Catholic Primary School","suburb":"Richmond","postcode":"5033","phone":"","public_email":"","contact_form_url":"","website_url":"http://www.twcs.catholic.edu.au","lat":-34.93943,"lon":138.561084},{"sector":"catholic","school_name":"St Bernadette's School","suburb":"St Marys","postcode":"5042","phone":"","public_email":"","contact_form_url":"","website_url":"http://www.stberna.catholic.edu.au/","lat":-35.002727,"lon":138.576125},{"sector":"catholic","school_name":"St Augustine's Parish School","suburb":"Salisbury","postcode":"5108","phone":"","public_email":"info@saps.catholic.edu.au","contact_form_url":"http://www.saps.catholic.edu.au/search.html","website_url":"http://www.saps.catholic.edu.au","lat":-34.763221,"lon":138.650407},{"sector":"catholic","school_name":"Stella Maris Parish School","suburb":"Seacombe Gardens","postcode":"5047","phone":"","public_email":"","contact_form_url":"","website_url":"http://www.smps.catholic.edu.au","lat":-35.026466,"lon":138.545662},{"sector":"catholic","school_name":"St Catherine's School","suburb":"Stirling","postcode":"5152","phone":"","public_email":"","contact_form_url":"","website_url":"http://www.stcaths.catholic.edu.au/","lat":-35.004028,"lon":138.709651},{"sector":"catholic","school_name":"Our Lady of the Visitation School","suburb":"Taperoo","postcode":"5017","phone":"","public_email":"","contact_form_url":"","website_url":"http://www.olv.catholic.edu.au","lat":-34.805364,"lon":138.500261},{"sector":"catholic","school_name":"St Joseph's School","suburb":"Tranmere","postcode":"5073","phone":"","public_email":"","contact_form_url":"","website_url":"http://www.stjotran.catholic.edu.au","lat":-34.91332338,"lon":138.6656505},{"sector":"catholic","school_name":"St Monica's Parish School","suburb":"Walkerville","postcode":"5081","phone":"","public_email":"","contact_form_url":"","website_url":"http://www.stmonica.catholic.edu.au/","lat":-34.88746,"lon":138.616185},{"sector":"catholic","school_name":"Christ the King School","suburb":"Warradale","postcode":"5046","phone":"","public_email":"","contact_form_url":"","website_url":"http://www.christking.catholic.edu.au","lat":-35.0087,"lon":138.538},{"sector":"catholic","school_name":"St Pius X School","suburb":"Windsor Gardens","postcode":"5087","phone":"","public_email":"","contact_form_url":"","website_url":"http://www.stpiusx.catholic.edu.au","lat":-34.868377,"lon":138.643236},{"sector":"catholic","school_name":"Whitefriars School","suburb":"Woodville Park","postcode":"5011","phone":"","public_email":"","contact_form_url":"","website_url":"http://www.whitefriars.catholic.edu.au","lat":-34.879377,"lon":138.547442},{"sector":"catholic","school_name":"St Columba's Memorial School","suburb":"Yorketown","postcode":"5576","phone":"","public_email":"","contact_form_url":"","website_url":"http://www.scms.catholic.edu.au","lat":-35.019657,"lon":137.599844},{"sector":"catholic","school_name":"Caritas College","suburb":"Port Augusta West","postcode":"5700","phone":"","public_email":"","contact_form_url":"","website_url":"http://www.cc.catholic.edu.au","lat":-32.484292,"lon":137.749093},{"sector":"catholic","school_name":"Antonio Catholic School","suburb":"Morphett Vale","postcode":"5162","phone":"","public_email":"info@antonio.catholic.edu.au","contact_form_url":"http://www.antonio.catholic.edu.au/search.html","website_url":"http://www.antonio.catholic.edu.au","lat":-35.116347,"lon":138.524727},{"sector":"catholic","school_name":"Emmaus Catholic School","suburb":"Woodcroft","postcode":"5162","phone":"","public_email":"","contact_form_url":"","website_url":"http://www.emmaus.catholic.edu.au","lat":-35.103863,"lon":138.558145},{"sector":"catholic","school_name":"All Saints Catholic Primary School","suburb":"Seaford","postcode":"5169","phone":"","public_email":"","contact_form_url":"","website_url":"http://www.allsaints.catholic.edu.au","lat":-35.186059,"lon":138.480264},{"sector":"catholic","school_name":"Our Lady of Hope School","suburb":"Greenwith","postcode":"5125","phone":"","public_email":"info@oloh.catholic.edu.au","contact_form_url":"http://www.oloh.catholic.edu.au/site-search","website_url":"http://www.oloh.catholic.edu.au","lat":-34.769434,"lon":138.719799},{"sector":"independent","school_name":"Prescott College","suburb":"Prospect","postcode":"5082","phone":"","public_email":"","contact_form_url":"https://prescottcollege.com.au/contact/","website_url":"http://www.prescottcollege.com.au","lat":-34.89232523,"lon":138.59663991},{"sector":"independent","school_name":"Heritage College Incorporated","suburb":"Oakden","postcode":"5086","phone":"","public_email":"","contact_form_url":"http://www.heritage.sa.edu.au/site-search","website_url":"http://www.heritage.sa.edu.au","lat":-34.852418,"lon":138.640582},{"sector":"independent","school_name":"Crossways Lutheran School Ceduna","suburb":"Ceduna","postcode":"5690","phone":"","public_email":"admin@crossways.sa.edu.au","contact_form_url":"https://www.crossways.sa.edu.au/","website_url":"http://www.crossways.sa.edu.au/","lat":-32.135305,"lon":133.676981},{"sector":"independent","school_name":"Calvary Lutheran Primary School","suburb":"Morphett Vale","postcode":"5162","phone":"","public_email":"","contact_form_url":"","website_url":"http://www.calvary.sa.edu.au","lat":-35.136467,"lon":138.510797},{"sector":"independent","school_name":"The Hills Christian Community School","suburb":"Verdun","postcode":"5245","phone":"","public_email":"enquiries@hccs.sa.edu.au","contact_form_url":"https://www.hills.sa.edu.au/","website_url":"http://www.hills.sa.edu.au","lat":-35.011201,"lon":138.787052},{"sector":"independent","school_name":"Temple Christian College","suburb":"Mile End","postcode":"5031","phone":"","public_email":"mileend@tcc.sa.edu.au","contact_form_url":"http://www.templecc.sa.edu.au/","website_url":"http://www.templecc.sa.edu.au","lat":-34.92290832,"lon":138.5790301},{"sector":"independent","school_name":"Concordia College","suburb":"Highgate","postcode":"5063","phone":"","public_email":"sjmail@concordia.sa.edu.au","contact_form_url":"http://www.concordia.sa.edu.au/search/","website_url":"http://www.concordia.sa.edu.au","lat":-34.959761,"lon":138.618183},{"sector":"independent","school_name":"Tyndale Christian School Strathalbyn","suburb":"Strathalbyn","postcode":"5255","phone":"","public_email":"strathalbyn@tyndale.sa.edu.au","contact_form_url":"https://st.tyndale.sa.edu.au/","website_url":"https://st.tyndale.sa.edu.au","lat":-35.255362,"lon":138.897646},{"sector":"independent","school_name":"Woodcroft College","suburb":"Morphett Vale","postcode":"5162","phone":"","public_email":"","contact_form_url":"","website_url":"https://www.woodcroft.sa.edu.au/","lat":-35.113848,"lon":138.543969},{"sector":"independent","school_name":"Southern Montessori School","suburb":"O'Sullivan Beach","postcode":"5166","phone":"","public_email":"admin@southernmontessori.sa.edu.au","contact_form_url":"https://southernmontessori.sa.edu.au","website_url":"http://www.southernmontessori.sa.edu.au","lat":-35.1251798,"lon":138.47892175},{"sector":"independent","school_name":"Sunrise Christian School Whyalla","suburb":"Whyalla Norrie","postcode":"5608","phone":"","public_email":"info@sunrise.sa.edu.au","contact_form_url":"https://sunrise.sa.edu.au/search/results","website_url":"https://sunrise.sa.edu.au/whyalla/welcome","lat":-33.04169572,"lon":137.53771883},{"sector":"independent","school_name":"Cornerstone College","suburb":"Mount Barker","postcode":"5251","phone":"","public_email":"mail@cornerstone.sa.edu.au","contact_form_url":"https://www.cornerstone.sa.edu.au/search","website_url":"http://www.cornerstone.sa.edu.au","lat":-35.06023135,"lon":138.85483814},{"sector":"independent","school_name":"Immanuel Primary School","suburb":"Novar Gardens","postcode":"5040","phone":"","public_email":"","contact_form_url":"","website_url":"http://www.immanuelps.sa.edu.au","lat":-34.971648,"lon":138.534865},{"sector":"independent","school_name":"Immanuel College","suburb":"Novar Gardens","postcode":"5040","phone":"","public_email":"","contact_form_url":"","website_url":"http://www.immanuel.sa.edu.au","lat":-34.970855,"lon":138.535954},{"sector":"independent","school_name":"Sunrise Christian School Morphett Vale","suburb":"Morphett Vale","postcode":"5162","phone":"","public_email":"","contact_form_url":"","website_url":"http://www.sunrise.sa.edu.au/morphettvale","lat":-35.105889,"lon":138.537528},{"sector":"independent","school_name":"Sunrise Christian School Paradise","suburb":"Paradise","postcode":"5075","phone":"","public_email":"info@sunrise.sa.edu.au","contact_form_url":"https://sunrise.sa.edu.au/search/results","website_url":"http://www.sunrise.sa.edu.au/paradise","lat":-34.870387,"lon":138.667779},{"sector":"independent","school_name":"Cedar College","suburb":"Northgate","postcode":"5085","phone":"","public_email":"","contact_form_url":"","website_url":"https://www.cedarcollege.sa.edu.au","lat":-34.8546,"lon":138.634651},{"sector":"independent","school_name":"Concordia College (St Peters Campus, Blackwood)","suburb":"Blackwood","postcode":"5051","phone":"","public_email":"sjmail@concordia.sa.edu.au","contact_form_url":"https://www.concordia.sa.edu.au/search/","website_url":"https://www.concordia.sa.edu.au/","lat":-35.032657,"lon":138.610123},{"sector":"independent","school_name":"Saint Spyridon College","suburb":"Unley","postcode":"5061","phone":"","public_email":"","contact_form_url":"","website_url":"http://www.saintspyridon.sa.edu.au","lat":-34.95028569,"lon":138.60871848},{"sector":"independent","school_name":"Annesley College","suburb":"Wayville","postcode":"5034","phone":"","public_email":"enquiries@annesley.sa.edu.au","contact_form_url":"http://www.annesley.sa.edu.au/","website_url":"http://www.annesley.sa.edu.au","lat":-34.942,"lon":138.598},{"sector":"independent","school_name":"Sunrise Christian School Naracoorte","suburb":"Naracoorte","postcode":"5271","phone":"","public_email":"info@sunrise.sa.edu.au","contact_form_url":"https://sunrise.sa.edu.au/search/results","website_url":"https://sunrise.sa.edu.au/naracoorte/","lat":-36.963756,"lon":140.753438},{"sector":"independent","school_name":"Seymour College","suburb":"Glen Osmond","postcode":"5064","phone":"","public_email":"","contact_form_url":"","website_url":"http://www.seymour.sa.edu.au","lat":-34.955977,"lon":138.646167},{"sector":"independent","school_name":"Prince Alfred College","suburb":"Kent Town","postcode":"5067","phone":"","public_email":"reception@pac.edu.au","contact_form_url":"https://pac.edu.au/search/","website_url":"http://www.pac.edu.au","lat":-34.923142,"lon":138.617615},{"sector":"independent","school_name":"Pulteney Grammar School","suburb":"Adelaide","postcode":"5000","phone":"","public_email":"","contact_form_url":"","website_url":"http://www.pulteney.sa.edu.au","lat":-34.9352105444499,"lon":138.60279832275393},{"sector":"independent","school_name":"St Peter's College","suburb":"St Peters","postcode":"5069","phone":"","public_email":"reception@stpeters.sa.edu.au","contact_form_url":"https://www.stpeters.sa.edu.au/","website_url":"http://www.stpeters.sa.edu.au","lat":-34.916908,"lon":138.618412},{"sector":"independent","school_name":"St Peter's Collegiate Girls' School","suburb":"Stonyfell","postcode":"5066","phone":"","public_email":"","contact_form_url":"","website_url":"http://www.stpetersgirls.sa.edu.au/","lat":-34.9295859,"lon":138.66956177},{"sector":"independent","school_name":"Scotch College","suburb":"Torrens Park","postcode":"5062","phone":"","public_email":"","contact_form_url":"","website_url":"http://www.scotch.sa.edu.au","lat":-34.98000909090909,"lon":138.61666363636365},{"sector":"independent","school_name":"Walford Anglican School for Girls","suburb":"Hyde Park","postcode":"5061","phone":"","public_email":"","contact_form_url":"","website_url":"https://walford.sa.edu.au/","lat":-34.957688,"lon":138.607888},{"sector":"independent","school_name":"Westminster School","suburb":"Marion","postcode":"5043","phone":"","public_email":"ws@westminster.sa.edu.au","contact_form_url":"https://www.westminster.sa.edu.au/search","website_url":"http://www.westminster.sa.edu.au","lat":-35.002183,"lon":138.552641},{"sector":"independent","school_name":"Wilderness School","suburb":"Medindie","postcode":"5081","phone":"","public_email":"info@wilderness.com.au","contact_form_url":"https://wilderness.com.au/contact-us","website_url":"http://www.wilderness.com.au","lat":-34.898444,"lon":138.608521},{"sector":"independent","school_name":"Willunga Waldorf School","suburb":"Willunga","postcode":"5172","phone":"","public_email":"office@wws.sa.edu.au","contact_form_url":"https://wws.sa.edu.au","website_url":"https://wws.sa.edu.au/","lat":-35.269509,"lon":138.543829},{"sector":"independent","school_name":"Trinity College South","suburb":"Evanston South","postcode":"5116","phone":"","public_email":"foundation@trinity.sa.edu.au","contact_form_url":"https://www.trinity.sa.edu.au/search/results","website_url":"http://www.trinity.sa.edu.au","lat":-34.63490967,"lon":138.73179844},{"sector":"independent","school_name":"Trinity College Blakeview","suburb":"Blakeview","postcode":"5114","phone":"","public_email":"foundation@trinity.sa.edu.au","contact_form_url":"https://www.trinity.sa.edu.au/search/results","website_url":"http://www.trinity.sa.edu.au","lat":-34.68915237,"lon":138.70220578},{"sector":"independent","school_name":"Harvest Christian College","suburb":"Kadina","postcode":"5554","phone":"","public_email":"admin@harvest.sa.edu.au","contact_form_url":"https://harvest.sa.edu.au/","website_url":"http://www.harvest.sa.edu.au","lat":-33.9573948740146,"lon":137.711850796428},{"sector":"independent","school_name":"Trinity College Gawler River","suburb":"Angle Vale","postcode":"5117","phone":"","public_email":"foundation@trinity.sa.edu.au","contact_form_url":"https://www.trinity.sa.edu.au/search/results","website_url":"http://www.trinity.sa.edu.au","lat":-34.63875672,"lon":138.64743337},{"sector":"independent","school_name":"Tyndale Christian School Murray Bridge","suburb":"Murray Bridge","postcode":"5253","phone":"","public_email":"murraybridge@tyndale.sa.edu.au","contact_form_url":"https://mb.tyndale.sa.edu.au/","website_url":"https://mb.tyndale.sa.edu.au/","lat":-35.12767,"lon":139.25641},{"sector":"independent","school_name":"Faith Lutheran College","suburb":"Tanunda","postcode":"5352","phone":"","public_email":"","contact_form_url":"http://www.faith.sa.edu.au/search","website_url":"http://www.faith.sa.edu.au","lat":-34.54194285714286,"lon":138.9573142857143},{"sector":"independent","school_name":"Golden Grove Lutheran Primary School","suburb":"Wynn Vale","postcode":"5127","phone":"","public_email":"","contact_form_url":"","website_url":"http://www.goldengrove.sa.edu.au","lat":-34.801095,"lon":138.687658},{"sector":"independent","school_name":"Immanuel Gawler","suburb":"Gawler East","postcode":"5118","phone":"","public_email":"","contact_form_url":"","website_url":"http://www.ilsg.sa.edu.au","lat":-34.59616434,"lon":138.7523043},{"sector":"independent","school_name":"Our Saviour Lutheran School Happy Valley Incorporated","suburb":"Aberfoyle Park","postcode":"5159","phone":"","public_email":"","contact_form_url":"","website_url":"http://www.osls.sa.edu.au","lat":-35.073891,"lon":138.589491},{"sector":"independent","school_name":"St George College","suburb":"Mile End","postcode":"5031","phone":"","public_email":"registrar@sgc.sa.edu.au","contact_form_url":"https://www.sgc.sa.edu.au/contact-us/","website_url":"https://www.sgc.sa.edu.au","lat":-34.92514,"lon":138.56810000000002},{"sector":"independent","school_name":"Trinity College North","suburb":"Evanston South","postcode":"5116","phone":"","public_email":"foundation@trinity.sa.edu.au","contact_form_url":"https://www.trinity.sa.edu.au/search/results","website_url":"http://www.trinity.sa.edu.au","lat":-34.63396646,"lon":138.73526608},{"sector":"independent","school_name":"St Martins Lutheran College","suburb":"Mount Gambier","postcode":"5290","phone":"","public_email":"","contact_form_url":"","website_url":"http://www.stmartins.sa.edu.au/","lat":-37.820967,"lon":140.797573},{"sector":"independent","school_name":"Mount Barker Waldorf School","suburb":"Mount Barker","postcode":"5251","phone":"","public_email":"","contact_form_url":"https://www.mbws.sa.edu.au/go/contact-us/","website_url":"http://www.mtbarkerwaldorf.sa.edu.au/","lat":-35.083141,"lon":138.877102},{"sector":"independent","school_name":"Pembroke School","suburb":"Kensington Park","postcode":"5068","phone":"","public_email":"enquiries@pembroke.sa.edu.au","contact_form_url":"http://www.pembroke.sa.edu.au/contact","website_url":"http://www.pembroke.sa.edu.au","lat":-34.922225,"lon":138.6514625},{"sector":"independent","school_name":"Portside Christian College","suburb":"New Port","postcode":"5015","phone":"","public_email":"admin@portside.sa.edu.au","contact_form_url":"https://www.portside.sa.edu.au/search","website_url":"http://www.portside.sa.edu.au","lat":-34.851379,"lon":138.495582},{"sector":"independent","school_name":"Prescott College Southern","suburb":"Morphett Vale","postcode":"5162","phone":"","public_email":"","contact_form_url":"","website_url":"http://www.prescottsouthern.sa.edu.au","lat":-35.104906,"lon":138.543642},{"sector":"independent","school_name":"Unity College","suburb":"Murray Bridge","postcode":"5253","phone":"","public_email":"unity@unitycollege.sa.edu.au","contact_form_url":"https://unitycollege.sa.edu.au","website_url":"http://www.unitycollege.sa.edu.au","lat":-35.146912,"lon":139.29118059},{"sector":"independent","school_name":"Waikerie Lutheran Primary School","suburb":"Waikerie","postcode":"5330","phone":"","public_email":"","contact_form_url":"","website_url":"http://www.wlps.sa.edu.au","lat":-34.186397,"lon":139.988812},{"sector":"independent","school_name":"Emmaus Christian College","suburb":"South Plympton","postcode":"5038","phone":"","public_email":"enquiries@emmauscc.sa.edu.au","contact_form_url":"http://www.emmauscc.sa.edu.au/search","website_url":"http://www.emmauscc.sa.edu.au","lat":-34.971186,"lon":138.558631},{"sector":"independent","school_name":"Torrens Valley Christian School","suburb":"Hope Valley","postcode":"5090","phone":"","public_email":"admin@tvcs.sa.edu.au","contact_form_url":"http://www.tvcs.sa.edu.au/","website_url":"http://www.tvcs.sa.edu.au","lat":-34.84301032,"lon":138.70083628},{"sector":"independent","school_name":"Southern Vales Christian College","suburb":"Morphett Vale","postcode":"5162","phone":"","public_email":"","contact_form_url":"","website_url":"http://svcc.sa.edu.au/","lat":-35.117850000000004,"lon":138.5398},{"sector":"independent","school_name":"Good Shepherd Lutheran School - Para Vista","suburb":"Para Vista","postcode":"5093","phone":"","public_email":"","contact_form_url":"","website_url":"https://gspv.sa.edu.au/","lat":-34.829033,"lon":138.667333},{"sector":"independent","school_name":"St Mark's Lutheran School","suburb":"Mount Barker","postcode":"5251","phone":"","public_email":"","contact_form_url":"","website_url":"http://www.stmarks.sa.edu.au","lat":-35.07277511,"lon":138.86149889},{"sector":"independent","school_name":"King's Baptist Grammar School","suburb":"Wynn Vale","postcode":"5127","phone":"","public_email":"admin@kingsbaptist.sa.edu.au","contact_form_url":"https://www.kingsbaptist.sa.edu.au/contact","website_url":"http://www.kingsbaptist.sa.edu.au","lat":-34.7994,"lon":138.6871},{"sector":"independent","school_name":"Hope Christian College","suburb":"Craigmore","postcode":"5114","phone":"","public_email":"admin@hopecc.sa.edu.au","contact_form_url":"https://www.hopecc.sa.edu.au/","website_url":"http://www.hopecc.sa.edu.au","lat":-34.707556,"lon":138.706251},{"sector":"independent","school_name":"Bethany Christian School Incorporated","suburb":"Paralowie","postcode":"5108","phone":"","public_email":"office@bethany.sa.edu.au","contact_form_url":"http://www.bethany.sa.edu.au/search","website_url":"http://www.bethany.sa.edu.au","lat":-34.761758,"lon":138.60554},{"sector":"independent","school_name":"Navigator College","suburb":"Port Lincoln","postcode":"5606","phone":"","public_email":"office@navigator.sa.edu.au","contact_form_url":"http://www.navigator.sa.edu.au/contact","website_url":"http://www.navigator.sa.edu.au","lat":-34.741841,"lon":135.860955},{"sector":"independent","school_name":"Pilgrim School","suburb":"Aberfoyle Park","postcode":"5159","phone":"","public_email":"","contact_form_url":"","website_url":"http://www.pilgrim.sa.edu.au","lat":-35.06805486,"lon":138.59503715},{"sector":"independent","school_name":"Tyndale Christian School","suburb":"Salisbury East","postcode":"5109","phone":"","public_email":"salisburyeast@tyndale.sa.edu.au","contact_form_url":"https://se.tyndale.sa.edu.au/","website_url":"https://se.tyndale.sa.edu.au/","lat":-34.774042,"lon":138.669964},{"sector":"independent","school_name":"Pedare Christian College","suburb":"Golden Grove","postcode":"5125","phone":"","public_email":"pedare@pedarecc.sa.edu.au","contact_form_url":"https://www.pedarecc.sa.edu.au/","website_url":"http://www.pedarecc.sa.edu.au","lat":-34.794746,"lon":138.692862},{"sector":"independent","school_name":"Rivergum Christian College","suburb":"Glossop","postcode":"5344","phone":"","public_email":"enquiry@rivergum.sa.edu.au","contact_form_url":"http://www.rivergum.sa.edu.au/","website_url":"http://www.rivergum.sa.edu.au","lat":-34.263984,"lon":140.540191},{"sector":"independent","school_name":"Horizon Christian School","suburb":"Balaklava","postcode":"5461","phone":"","public_email":"","contact_form_url":"","website_url":"http://www.horizon.sa.edu.au","lat":-34.151782,"lon":138.413987},{"sector":"independent","school_name":"OneSchool Global SA","suburb":"Aberfoyle Park","postcode":"5159","phone":"","public_email":"","contact_form_url":"","website_url":"https://www.oneschoolglobal.com/","lat":-35.073925,"lon":138.590975},{"sector":"independent","school_name":"Tatachilla Lutheran College","suburb":"Mclaren Vale","postcode":"5171","phone":"","public_email":"tlc@tatachilla.sa.edu.au","contact_form_url":"https://www.tatachilla.sa.edu.au/search","website_url":"https://www.tatachilla.sa.edu.au/","lat":-35.223254,"lon":138.521492},{"sector":"independent","school_name":"Endeavour College","suburb":"Mawson Lakes","postcode":"5095","phone":"","public_email":"admin@endeavour.sa.edu.au","contact_form_url":"https://www.endeavour.sa.edu.au","website_url":"http://www.endeavour.sa.edu.au","lat":-34.812749,"lon":138.621874},{"sector":"independent","school_name":"St John's Grammar School","suburb":"Belair","postcode":"5052","phone":"","public_email":"registrar@stjohns.sa.edu.au","contact_form_url":"https://www.stjohns.sa.edu.au/","website_url":"http://www.stjohns.sa.edu.au","lat":-35.0028,"lon":138.62335000000002},{"sector":"independent","school_name":"St Andrew's School","suburb":"Walkerville","postcode":"5081","phone":"","public_email":"admin@standrews.sa.edu.au","contact_form_url":"http://www.standrews.sa.edu.au/contact/#wpcf7-f5-o2","website_url":"http://www.standrews.sa.edu.au","lat":-34.89220989443065,"lon":138.614405894165},{"sector":"independent","school_name":"St Peter's Woodlands Grammar School","suburb":"Glenelg","postcode":"5045","phone":"","public_email":"","contact_form_url":"","website_url":"http://www.spw.sa.edu.au","lat":-34.983454,"lon":138.518341},{"sector":"independent","school_name":"Encounter Lutheran College","suburb":"Victor Harbor","postcode":"5211","phone":"","public_email":"","contact_form_url":"https://www.encounter.sa.edu.au/about/contact/enquiry","website_url":"http://www.encounter.sa.edu.au","lat":-35.529454,"lon":138.637557},{"sector":"independent","school_name":"Mid North Christian College","suburb":"Port Pirie","postcode":"5540","phone":"","public_email":"admin@midnorthcc.sa.edu.au","contact_form_url":"http://www.midnorthcc.sa.edu.au/contact","website_url":"http://www.midnorthcc.sa.edu.au","lat":-33.208372,"lon":137.988656},{"sector":"independent","school_name":"Good Shepherd Lutheran School - Angaston","suburb":"Angaston","postcode":"5353","phone":"","public_email":"gsls@goodshepherd.sa.edu.au","contact_form_url":"https://www.goodshepherd.sa.edu.au","website_url":"http://www.goodshepherd.sa.edu.au","lat":-34.5091304,"lon":139.04738087},{"sector":"independent","school_name":"St John's Lutheran School","suburb":"Eudunda","postcode":"5374","phone":"","public_email":"","contact_form_url":"","website_url":"http://www.stjohns-eudunda.sa.edu.au","lat":-34.173916,"lon":139.088769},{"sector":"independent","school_name":"St Michael's Lutheran School, Hahndorf Inc","suburb":"Hahndorf","postcode":"5245","phone":"","public_email":"admin@stmichaels.sa.edu.au","contact_form_url":"https://www.stmichaels.sa.edu.au/","website_url":"http://www.stmichaels.sa.edu.au","lat":-35.0285,"lon":138.812},{"sector":"independent","school_name":"Redeemer Lutheran School","suburb":"Nuriootpa","postcode":"5355","phone":"","public_email":"flourish@redeemer.sa.edu.au","contact_form_url":"https://redeemer.sa.edu.au/","website_url":"http://www.redeemer.sa.edu.au","lat":-34.465395,"lon":138.984503},{"sector":"independent","school_name":"Lobethal Lutheran School","suburb":"Lobethal","postcode":"5241","phone":"","public_email":"admin@lls.sa.edu.au","contact_form_url":"https://lls.sa.edu.au/","website_url":"https://lls.sa.edu.au/","lat":-34.90417,"lon":138.875597},{"sector":"independent","school_name":"Loxton Lutheran School","suburb":"Loxton","postcode":"5333","phone":"","public_email":"admin@loxton-lutheran.sa.edu.au","contact_form_url":"https://loxton-lutheran.sa.edu.au/","website_url":"http://www.loxton-lutheran.sa.edu.au","lat":-34.445971,"lon":140.575094},{"sector":"independent","school_name":"St Jakobi Lutheran School","suburb":"Lyndoch","postcode":"5351","phone":"","public_email":"","contact_form_url":"","website_url":"http://www.stjakobi.sa.edu.au","lat":-34.619979,"lon":138.893126},{"sector":"independent","school_name":"Maitland Lutheran School","suburb":"Maitland","postcode":"5573","phone":"","public_email":"info@mls.sa.edu.au","contact_form_url":"https://mls.sa.edu.au/#ContactUs","website_url":"http://www.mls.sa.edu.au","lat":-34.370763,"lon":137.679852},{"sector":"independent","school_name":"Prescott Primary School, Northern","suburb":"Para Vista","postcode":"5093","phone":"","public_email":"info@prescottcollege.sa.edu.au","contact_form_url":"https://www.prescott.sa.edu.au","website_url":"http://www.prescott.sa.edu.au","lat":-34.83443823,"lon":138.6640717},{"sector":"independent","school_name":"St Paul Lutheran School","suburb":"Blair Athol","postcode":"5084","phone":"","public_email":"","contact_form_url":"","website_url":"http://www.stpaulba.sa.edu.au","lat":-34.861586,"lon":138.599498},{"sector":"independent","school_name":"Suneden Specialist School","suburb":"Mitchell Park","postcode":"5043","phone":"","public_email":"","contact_form_url":"https://www.suneden.sa.edu.au","website_url":"http://www.suneden.sa.edu.au","lat":-35.01444,"lon":138.560448},{"sector":"independent","school_name":"Investigator College","suburb":"Victor Harbor","postcode":"5211","phone":"","public_email":"learn@investigator.sa.edu.au","contact_form_url":"https://www.investigator.sa.edu.au/","website_url":"https://www.investigator.sa.edu.au/","lat":-35.555378,"lon":138.598981},{"sector":"government","school_name":"Christie Downs Primary School","suburb":"Christie Downs","postcode":"5164","phone":"","public_email":"","contact_form_url":"","website_url":"http://www.cdownssch.sa.edu.au","lat":-35.13242,"lon":138.494017},{"sector":"government","school_name":"Flagstaff Hill Primary School","suburb":"Flagstaff Hill","postcode":"5159","phone":"","public_email":"dl.1018.info@schools.sa.edu.au","contact_form_url":"https://flagstaff.sa.edu.au/search/results","website_url":"http://www.flagstaff.sa.edu.au/","lat":-35.04944,"lon":138.589485},{"sector":"government","school_name":"McDonald Park School","suburb":"Mount Gambier","postcode":"5290","phone":"","public_email":"","contact_form_url":"","website_url":"http://www.mcparkr7.sa.edu.au","lat":-37.825702,"lon":140.793167},{"sector":"government","school_name":"Glenelg Primary School","suburb":"Glenelg East","postcode":"5045","phone":"","public_email":"shane.misso995@schools.sa.edu.au","contact_form_url":"https://www.glenelgps.sa.edu.au","website_url":"http://www.glenelgps.sa.edu.au","lat":-34.98525332,"lon":138.52189294},{"sector":"government","school_name":"Melaleuca Park Primary School","suburb":"Mount Gambier","postcode":"5290","phone":"","public_email":"","contact_form_url":"","website_url":"http://www.melparkps.sa.edu.au","lat":-37.841094,"lon":140.794392},{"sector":"catholic","school_name":"St Mary MacKillop School","suburb":"Wallaroo","postcode":"5556","phone":"","public_email":"","contact_form_url":"","website_url":"http://www.stmm.catholic.edu.au/","lat":-33.931675,"lon":137.631729},{"sector":"government","school_name":"Grange Primary School","suburb":"Grange","postcode":"5022","phone":"","public_email":"dl.1022.info@schools.sa.edu.au","contact_form_url":"https://www.grangesch.sa.edu.au/contact-us/","website_url":"http://www.grangesch.sa.edu.au","lat":-34.903495,"lon":138.497089},{"sector":"government","school_name":"East Adelaide School","suburb":"St Peters","postcode":"5069","phone":"","public_email":"dl.1036.info@schools.sa.edu.au","contact_form_url":"https://eas.sa.edu.au/contact-us/","website_url":"http://www.eas.sa.edu.au","lat":-34.905142,"lon":138.627298},{"sector":"government","school_name":"Swallowcliffe School P-6","suburb":"Davoren Park","postcode":"5113","phone":"","public_email":"","contact_form_url":"","website_url":"http://www.swallowc7.sa.edu.au","lat":-34.696782,"lon":138.664155},{"sector":"government","school_name":"Highgate School","suburb":"Highgate","postcode":"5063","phone":"","public_email":"dl.1063_info@schools.sa.edu.au","contact_form_url":"https://highgates.sa.edu.au/","website_url":"http://www.highgates.sa.edu.au","lat":-34.962788,"lon":138.622561},{"sector":"government","school_name":"Hackham West School","suburb":"Hackham West","postcode":"5163","phone":"","public_email":"dl.1131.info@schools.sa.edu.au","contact_form_url":"https://hackwestschool.sa.edu.au/","website_url":"https://hackwestschool.sa.edu.au/","lat":-35.144159,"lon":138.517588},{"sector":"government","school_name":"Modbury West School","suburb":"Modbury","postcode":"5092","phone":"","public_email":"dl.1210_info@schools.sa.edu.au","contact_form_url":"https://modwest.sa.edu.au/contact-us/","website_url":"http://www.modwest.sa.edu.au","lat":-34.833258,"lon":138.676618},{"sector":"government","school_name":"Magill School","suburb":"Magill","postcode":"5072","phone":"","public_email":"","contact_form_url":"","website_url":"http://www.magillschool.sa.edu.au/","lat":-34.91362,"lon":138.676746},{"sector":"government","school_name":"Blair Athol North B-6 School","suburb":"Blair Athol","postcode":"5084","phone":"","public_email":"dl.1903.info@schools.sa.edu.au","contact_form_url":"https://banb7.sa.edu.au/contact-us/","website_url":"http://banb7.sa.edu.au/","lat":-34.853092,"lon":138.597637},{"sector":"government","school_name":"Woodville Gardens School Birth-6","suburb":"Woodville Gardens","postcode":"5012","phone":"","public_email":"","contact_form_url":"","website_url":"http://www.wgs.sa.edu.au/","lat":-34.863263,"lon":138.551003},{"sector":"government","school_name":"Morphett Vale Primary School","suburb":"Morphett Vale","postcode":"5162","phone":"","public_email":"dl.1906.info@schools.sa.edu.au","contact_form_url":"https://morphettvaleps.sa.edu.au/","website_url":"http://www.morphettvaleps.sa.edu.au/","lat":-35.107523,"lon":138.514358},{"sector":"government","school_name":"Reynella East College","suburb":"Reynella East","postcode":"5161","phone":"","public_email":"","contact_form_url":"","website_url":"http://www.reynellaec.sa.edu.au/","lat":-35.09071,"lon":138.555575},{"sector":"government","school_name":"Lake Windemere B-6 School","suburb":"Salisbury North","postcode":"5108","phone":"","public_email":"dl.1908.info@schools.sa.edu.au","contact_form_url":"https://lakewindemere.sa.edu.au/contact-us/","website_url":"http://www.lakewindemere.sa.edu.au/","lat":-34.740265,"lon":138.619702},{"sector":"government","school_name":"Berri Regional Secondary College","suburb":"Berri","postcode":"5343","phone":"","public_email":"dl.0776.info@schools.sa.edu.au","contact_form_url":"https://brsc.sa.edu.au/","website_url":"https://brsc.sa.edu.au/","lat":-34.27838125,"lon":140.6106948},{"sector":"government","school_name":"Roma Mitchell Secondary College","suburb":"Gepps Cross","postcode":"5094","phone":"","public_email":"dl.1902.info@schools.sa.edu.au","contact_form_url":"http://www.rmsc.sa.edu.au/#wpcf7-f47167-p6-o1","website_url":"http://www.rmsc.sa.edu.au/","lat":-34.843058,"lon":138.618235},{"sector":"government","school_name":"Felixstow Primary School","suburb":"Felixstow","postcode":"5070","phone":"","public_email":"","contact_form_url":"","website_url":"http://www.felixps.sa.edu.au","lat":-34.89258269,"lon":138.64475363},{"sector":"government","school_name":"Prospect North Primary School","suburb":"Prospect","postcode":"5082","phone":"","public_email":"","contact_form_url":"","website_url":"http://www.prospectnorth.sa.edu.au/","lat":-34.874715,"lon":138.596729},{"sector":"independent","school_name":"The Hills Montessori School","suburb":"Aldgate","postcode":"5154","phone":"","public_email":"reception@montessori.sa.edu.au","contact_form_url":"https://montessori.sa.edu.au/contact/","website_url":"http://www.montessori.sa.edu.au","lat":-35.0167,"lon":138.7333},{"sector":"independent","school_name":"Blakes Crossing Christian College","suburb":"Blakeview","postcode":"5114","phone":"","public_email":"registrar@bccc.sa.edu.au","contact_form_url":"http://www.blakescrossing.sa.edu.au","website_url":"http://www.blakescrossing.sa.edu.au","lat":-34.68123005,"lon":138.70562196},{"sector":"independent","school_name":"Garden College","suburb":"Parafield Gardens","postcode":"5107","phone":"","public_email":"info@gardencollege.sa.edu.au","contact_form_url":"http://www.gardencollege.sa.edu.au/","website_url":"http://www.gardencollege.sa.edu.au/","lat":-34.7829,"lon":138.608783},{"sector":"independent","school_name":"Specialised Assistance School For Youth (SASY)","suburb":"Adelaide","postcode":"5000","phone":"","public_email":"","contact_form_url":"https://sasy.sa.edu.au/connect","website_url":"https://sasy.sa.edu.au/","lat":-34.9251754,"lon":138.6032937},{"sector":"independent","school_name":"Mount Torrens Christian School","suburb":"Mount Torrens","postcode":"5244","phone":"","public_email":"reception@mtcs.sa.edu.au","contact_form_url":"https://mtcs.sa.edu.au/","website_url":"https://mtcs.sa.edu.au","lat":-34.873097,"lon":138.963386},{"sector":"independent","school_name":"Seaview Christian College","suburb":"Port Augusta","postcode":"5700","phone":"","public_email":"info@seaview.sa.edu.au","contact_form_url":"https://seaview.christian.college/contact","website_url":"https://www.seaview.sa.edu.au/","lat":-32.5008809,"lon":137.7830325},{"sector":"independent","school_name":"Aspect Treetop School","suburb":"Ashford","postcode":"5035","phone":"","public_email":"","contact_form_url":"https://www.autismspectrum.org.au/search","website_url":"https://www.autismspectrum.org.au/treetop","lat":-34.950892,"lon":138.574872},{"sector":"independent","school_name":"IQRA College","suburb":"O'Halloran Hill","postcode":"5158","phone":"","public_email":"","contact_form_url":"http://www.iqracollege.sa.edu.au/site-search","website_url":"http://www.iqracollege.sa.edu.au","lat":-35.052122,"lon":138.553342},{"sector":"independent","school_name":"Dara School","suburb":"Morphettville","postcode":"5043","phone":"","public_email":"reception@daraschool.sa.edu.au","contact_form_url":"http://www.daraschool.sa.edu.au/contact-us/","website_url":"http://daraschool.sa.edu.au","lat":-34.989241,"lon":138.544412},{"sector":"independent","school_name":"Playford College","suburb":"Elizabeth","postcode":"5112","phone":"","public_email":"enquiries@playfordcollege.sa.edu.au","contact_form_url":"https://playfordcollege.sa.edu.au/contact-us/","website_url":"http://www.playfordcollege.sa.edu.au","lat":-34.710357,"lon":138.672678},{"sector":"independent","school_name":"Australian Islamic College Adelaide","suburb":"West Croydon","postcode":"5008","phone":"","public_email":"","contact_form_url":"","website_url":"https://aic.sa.edu.au/","lat":-34.89203,"lon":138.563909},{"sector":"government","school_name":"Adelaide Botanic High School","suburb":"Adelaide","postcode":"5000","phone":"","public_email":"dl.1919.info@schools.sa.edu.au","contact_form_url":"https://abhs.sa.edu.au/","website_url":"http://www.abhs.sa.edu.au","lat":-34.916908,"lon":138.606591},{"sector":"independent","school_name":"Youthinc. Enterprise Academy","suburb":"Adelaide","postcode":"5000","phone":"","public_email":"","contact_form_url":"","website_url":"https://www.youthinc.org.au/","lat":-34.922993,"lon":138.595482},{"sector":"catholic","school_name":"McAuley Community School","suburb":"Hove","postcode":"5048","phone":"","public_email":"","contact_form_url":"","website_url":"http://www.mcs.catholic.edu.au","lat":-35.012,"lon":138.5193},{"sector":"independent","school_name":"Indie School Elizabeth","suburb":"Elizabeth","postcode":"5112","phone":"","public_email":"enquiries@indieschool.edu.au","contact_form_url":"https://indieschool.edu.au/campus/elizabeth","website_url":"https://indieschool.edu.au/campus/elizabeth","lat":-34.73278333333334,"lon":138.67305},{"sector":"independent","school_name":"Ngutu College","suburb":"Woodville North","postcode":"5012","phone":"","public_email":"admin@ngutucollege.org.au","contact_form_url":"https://www.ngutucollege.org.au/#wpcf7-f611-p2-o1","website_url":"https://www.ngutucollege.org.au","lat":-34.866124,"lon":138.538896},{"sector":"catholic","school_name":"Edmund Rice Flexi School","suburb":"Elizabeth","postcode":"5112","phone":"","public_email":"","contact_form_url":"https://erfs.flexi.edu.au#searchform","website_url":"https://erfs.flexi.edu.au/","lat":-34.71330752,"lon":138.6710054},{"sector":"catholic","school_name":"St Francis of Assisi College","suburb":"Renmark","postcode":"5341","phone":"","public_email":"","contact_form_url":"","website_url":"http://www.assisi.catholic.edu.au","lat":-34.17594128,"lon":140.7313365},{"sector":"government","school_name":"Whyalla Secondary College","suburb":"Whyalla Norrie","postcode":"5608","phone":"","public_email":"dl.1035.info@schools.sa.edu.au","contact_form_url":"https://wsc.sa.edu.au/","website_url":"https://wsc.sa.edu.au","lat":-33.0263567,"lon":137.533411},{"sector":"government","school_name":"Riverbanks College B-12","suburb":"Angle Vale","postcode":"5117","phone":"","public_email":"","contact_form_url":"","website_url":"https://www.riverbankscollege.sa.edu.au","lat":-34.63520382,"lon":138.6631941},{"sector":"government","school_name":"Aldinga Payinthi College","suburb":"Aldinga","postcode":"5173","phone":"","public_email":"dl.1914.info@schools.sa.edu.au","contact_form_url":"https://aldingapayinthicollege.sa.edu.au/","website_url":"https://aldingapayinthicollege.sa.edu.au","lat":-35.26771678,"lon":138.470119},{"sector":"government","school_name":"Goolwa Secondary College","suburb":"Goolwa","postcode":"5214","phone":"","public_email":"dl.1915.info@schools.sa.edu.au","contact_form_url":"https://goolwasecondarycollege.sa.edu.au/","website_url":"https://goolwasecondarycollege.sa.edu.au","lat":-35.49290718,"lon":138.7733067},{"sector":"catholic","school_name":"Compass Catholic Community","suburb":"Davoren Park","postcode":"5113","phone":"","public_email":"","contact_form_url":"","website_url":"https://www.compass.catholic.edu.au","lat":-34.68567,"lon":138.673053},{"sector":"government","school_name":"Morialta Secondary College","suburb":"Rostrevor","postcode":"5073","phone":"","public_email":"","contact_form_url":"","website_url":"https://morialtasecondarycollege.sa.edu.au/","lat":-34.90064898,"lon":138.6763528},{"sector":"independent","school_name":"Sports College South Australia","suburb":"Gepps Cross","postcode":"5094","phone":"","public_email":"info@sc.sa.edu.au","contact_form_url":"https://sc.sa.edu.au/","website_url":"https://sedacollege.sa.edu.au/","lat":-34.8329,"lon":138.58293333333333},{"sector":"independent","school_name":"Trinity College Roseworthy","suburb":"Roseworthy","postcode":"5371","phone":"","public_email":"skeenma@trinity.sa.edu.au","contact_form_url":"https://www.trinity.sa.edu.au/search/results","website_url":"https://www.trinity.sa.edu.au/schools/roseworthy","lat":-34.55050507,"lon":138.7471509},{"sector":"independent","school_name":"St Benedict School","suburb":"Mount Torrens","postcode":"5244","phone":"","public_email":"","contact_form_url":"","website_url":"https://stbenedictschool.sa.edu.au/","lat":-34.89451407,"lon":138.9507391},{"sector":"catholic","school_name":"FAME - Flexible Accredited Meaningful Engagement","suburb":"Christie Downs","postcode":"5164","phone":"","public_email":"","contact_form_url":"https://fame.flexi.edu.au#searchform","website_url":"https://fame.flexi.edu.au/","lat":-35.137379,"lon":138.4896051}]